,bank,name,address,x,y,행정구
0,NH농협은행,NH금융PLUS 광화문역센터,서울특별시 종로구 신문로1가 세종대로 149,37.5701894,126.9739225,종로구
1,NH농협은행,NH금융PLUS 반포역센터,서울특별시 서초구 반포동 잠원로 24,37.5071264,127.0098413,서초구
2,NH농협은행,NH금융PLUS 파크원센터,서울특별시 영등포구 여의도동 여의대로 108,37.5260497,126.928296,영등포구
3,NH농협은행,aT센터지점,서울특별시 서초구 양재동 강남대로 27,37.4786172,127.0360752,서초구
4,NH농협은행,가락동지점,서울특별시 송파구 가락동 중대로9길 60,37.4976231,127.1201545,송파구
5,NH농협은행,가락시장 중앙(출),서울특별시 송파구 가락동 양재대로 932,37.4934824,127.1115038,송파구
6,NH농협은행,가락시장지점,서울특별시 송파구 가락동 양재대로 932,37.4934824,127.1115038,송파구
7,NH농협은행,가산IT지점,서울특별시 금천구 가산동 가산디지털2로 108,37.4778463,126.8805444,금천구
8,NH농협은행,가양중앙지점,서울특별시 강서구 가양2동 양천로57길 9-7,37.5634435,126.8514629,강서구
9,NH농협은행,가좌지점,서울특별시 서대문구 남가좌동 모래내로 143,37.5756218,126.9194417,서대문구
10,NH농협은행,감사원지점,서울특별시 종로구 삼청동 북촌로 109,37.5861578,126.9848767,종로구
11,NH농협은행,강남대기업금융센터,서울특별시 강남구 역삼동 강남대로 388,37.4974076,127.0283491,강남구
12,NH농협은행,강남세곡지점,서울특별시 강남구 자곡동 자곡로 180,37.4735878,127.1030378,강남구
13,NH농협은행,강남역금융센터,서울특별시 강남구 역삼동 강남대로 388,37.4974076,127.0283491,강남구
14,NH농협은행,강북중앙금융센터,서울특별시 강북구 수유동 도봉로 373,37.6406193,127.0279729,강북구
15,NH농협은행,개롱역지점,서울특별시 송파구 가락동 오금로 404,37.4956865,127.1184047,송파구
16,NH농협은행,개포동지점,서울특별시 강남구 개포동 논현로 98,37.4782624,127.045144,강남구
17,NH농협은행,거여역지점,서울특별시 송파구 거여동 오금로 512,37.4926895,127.1455361,송파구
18,NH농협은행,경동시장지점,서울특별시 동대문구 제기동 왕산로 147,37.5787384,127.0396677,동대문구
19,NH농협은행,공덕역지점,서울특별시 마포구 공덕동 마포대로 127,37.5462279,126.9521688,마포구
20,NH농협은행,공항동지점,서울특별시 강서구 공항동 공항대로 11,37.5618953,126.8085851,강서구
21,NH농협은행,광화문금융센터,서울특별시 중구 태평로1가 세종대로 124,37.56770180000001,126.9772803,중구
22,NH농협은행,광화문대기업금융센터,서울특별시 종로구 청진동 종로5길 7,37.5714504,126.9801788,종로구
23,NH농협은행,구로디지털금융센터,서울특별시 구로구 구로동 디지털30길 28,37.4821146,126.8953185,구로구
24,NH농협은행,구로지점,서울특별시 구로구 구로4동 구로동로 124,37.4896354,126.8845482,구로구
25,NH농협은행,구파발지점,서울특별시 은평구 진관동 진관2로 29-21,37.6357331,126.9193544,은평구
26,NH농협은행,국군재정관리단(출),서울특별시 용산구 이태원동 회나무로 4,37.5382483,126.9883339,용산구
27,NH농협은행,국회지점,서울특별시 영등포구 여의도동 의사당대로 1,37.5310582,126.9153816,영등포구
28,NH농협은행,금호동지점,서울특별시 성동구 금호동2가 금호로 157,37.5530275,127.020416,성동구
29,NH농협은행,길동지점,서울특별시 강동구 길동 양재대로 1458,37.53593559999999,127.1396058,강동구
30,NH농협은행,길음역지점,서울특별시 성북구 길음동 길음로7길 6,37.6043055,127.0224453,성북구
31,NH농협은행,남대문금융센터,서울특별시 중구 남대문로5가 소월로 8,37.5588177,126.9752899,중구
32,NH농협은행,남서초지점,서울특별시 서초구 서초동 서초중앙로 62,37.4873185,127.0153363,서초구
33,NH농협은행,남영동지점,서울특별시 용산구 남영동 한강대로 294,37.5444802,126.9724939,용산구
34,NH농협은행,노원역지점,서울특별시 노원구 상계동 노해로 455,37.6541618,127.0585324,노원구
35,NH농협은행,녹번지점,서울특별시 은평구 응암동 은평로 240,37.6006822,126.9344324,은평구
36,NH농협은행,논현남지점,서울특별시 강남구 논현동 봉은사로 111,37.5051813,127.0257094,강남구
37,NH농협은행,논현동금융센터,서울특별시 강남구 논현동 학동로 158,37.5127464,127.0284752,강남구
38,NH농협은행,당산지점,서울특별시 영등포구 영등포동7가 버드나루로 84,37.5242915,126.9071195,영등포구
39,NH농협은행,대치동지점,서울특별시 강남구 대치동 삼성로 233,37.4977699,127.0606416,강남구
40,NH농협은행,도곡금융센터,서울특별시 강남구 도곡동 언주로30길 27,37.488445,127.0525603,강남구
41,NH농협은행,도곡동지점,서울특별시 강남구 도곡동 도곡로 194,37.4920023,127.0406691,강남구
42,NH농협은행,도봉지점,서울특별시 도봉구 방학동 도봉로 699,37.6668902,127.0425812,도봉구
43,NH농협은행,독산센터지점,서울특별시 금천구 독산동 두산로 75,37.4704407,126.8967047,금천구
44,NH농협은행,동대문지점,서울특별시 종로구 종로4가 종로 196,37.57061,126.9994111,종로구
45,NH농협은행,등촌동지점,서울특별시 강서구 등촌동 강서로 396,37.5608957,126.8393934,강서구
46,NH농협은행,등촌역지점,서울특별시 강서구 등촌1동 공항대로 525,37.5514711,126.8649809,강서구
47,NH농협은행,뚝섬지점,서울특별시 성동구 성수동2가 성덕정길 87,37.537933,127.0532131,성동구
48,NH농협은행,마곡기업센터지점,서울특별시 강서구 마곡동 양천로30길 123-28,37.56734489999999,126.8238207,강서구
49,NH농협은행,마곡역지점,서울특별시 강서구 마곡동 마곡중앙로 76,37.5604279,126.827521,강서구
50,NH농협은행,마들역지점,서울특별시 노원구 상계8동 동일로 1553,37.6657968,127.0543753,노원구
51,NH농협은행,마포금융센터,서울특별시 마포구 도화동 마포대로 67,37.5418134,126.9482837,마포구
52,NH농협은행,면목역지점,서울특별시 중랑구 면목1동 면목로 431,37.5904584,127.0867692,중랑구
53,NH농협은행,명동지점,서울특별시 중구 명동1가 명동길 73,37.5643815,126.986213,중구
54,NH농협은행,명일동지점,서울특별시 강동구 명일동 고덕로 262,37.5546405,127.1546233,강동구
55,NH농협은행,목동역금융센터,서울특별시 양천구 신정동 목동로 207,37.5270112,126.8636097,양천구
56,NH농협은행,목동지점,서울특별시 양천구 목동 목동중앙로 71,37.5360491,126.870158,양천구
57,NH농협은행,방배지점,서울특별시 서초구 방배동 방배로36길 3,37.493659,126.9902472,서초구
58,NH농협은행,법조타운지점,서울특별시 서초구 서초동 서초대로 254,37.4920139,127.0096292,서초구
59,NH농협은행,보광동지점,서울특별시 용산구 보광동 보광로 34,37.527528,127.0000007,용산구
60,NH농협은행,보라매타운지점,서울특별시 동작구 신대방동 보라매로5길 15,37.4920023,126.9242588,동작구
61,NH농협은행,보문동지점,서울특별시 성북구 보문동4가 보문로 98,37.5829136,127.0213683,성북구
62,NH농협은행,본점영업부,서울특별시 중구 충정로1가 통일로 120,37.5665004,126.9682574,중구
63,NH농협은행,봉은사로지점,서울특별시 강남구 삼성동 봉은사로 617,37.5149777,127.0627769,강남구
64,NH농협은행,북부법원지점,서울특별시 도봉구 도봉동 마들로 749,37.6773768,127.046979,도봉구
65,NH농협은행,북아현(출),서울특별시 서대문구 북아현동 북아현로 55,37.5622687,126.9554488,서대문구
66,NH농협은행,불광지점,서울특별시 은평구 불광동 통일로 728-1,37.61068059999999,126.9301891,은평구
67,NH농협은행,사당동지점,서울특별시 동작구 사당동 동작대로 57,37.48156549999999,126.9815216,동작구
68,NH농협은행,삼선교지점,서울특별시 성북구 동소문동3가 동소문로 40,37.5903868,127.0112534,성북구
69,NH농협은행,삼성역금융센터,서울특별시 강남구 대치동 테헤란로 522,37.5078874,127.0613547,강남구
70,NH농협은행,삼성역루첸타워지점,서울특별시 강남구 대치동 테헤란로 510,37.5071034,127.0584556,강남구
71,NH농협은행,삼양동지점,서울특별시 강북구 미아동 솔샘로 184,37.619969,127.0127927,강북구
72,NH농협은행,상계동지점,서울특별시 노원구 상계5동 상계로27길 26,37.6596861,127.070163,노원구
73,NH농협은행,상도동지점,서울특별시 동작구 상도4동 상도로 106,37.5004772,126.9322924,동작구
74,NH농협은행,서교동지점,서울특별시 마포구 서교동 와우산로 121,37.553552,126.9267194,마포구
75,NH농협은행,서여의도금융센터,서울특별시 영등포구 여의도동 국회대로76길 22,37.5296642,126.922334,영등포구
76,NH농협은행,서울과학기술대지점,서울특별시 노원구 공릉2동 공릉로 232,37.6329741,127.0798802,노원구
77,NH농협은행,서울대역센터지점,서울특별시 관악구 봉천동 남부순환로 1801,37.4818357,126.9503966,관악구
78,NH농협은행,서울대연건(출),서울특별시 종로구 연건동 대학로 95,37.5807323,126.9994808,종로구
79,NH농협은행,서울대학교지점,서울특별시 관악구 신림9동 관악로 1,37.480967,126.953148,관악구
80,NH농협은행,서울시교육청지점,서울특별시 종로구 신문로2가 송월길 48,37.56992049999999,126.9674089,종로구
81,NH농협은행,서울역지점,서울특별시 중구 남대문로5가 후암로 110,37.554249,126.9740104,중구
82,NH농협은행,서울영업부,서울특별시 강동구 성내동 올림픽로 528,37.5288057,127.1203338,강동구
83,NH농협은행,서초동지점,서울특별시 서초구 서초동 반포대로 93,37.4884816,127.0087965,서초구
84,NH농협은행,석촌역지점,서울특별시 송파구 송파동 백제고분로 379,37.5051072,127.1135469,송파구
85,NH농협은행,선릉금융센터,서울특별시 강남구 역삼동 테헤란로 309,37.5036606,127.0442949,강남구
86,NH농협은행,선정릉역지점,서울특별시 강남구 역삼동 선릉로 577,37.5099007,127.0435082,강남구
87,NH농협은행,성동금융센터,서울특별시 성동구 도선동 왕십리로 326,37.5628004,127.0339778,성동구
88,NH농협은행,성수역지점,서울특별시 성동구 성수동2가 아차산로 103,37.5450417,127.0557819,성동구
89,NH농협은행,세종로지점,서울특별시 종로구 신문로1가 새문안로 92,37.5701894,126.9739225,종로구
90,NH농협은행,송파금융센터,서울특별시 송파구 가락동 오금로 310,37.4956865,127.1184047,송파구
91,NH농협은행,수유지점,서울특별시 강북구 수유동 도봉로 261,37.6316962,127.0234508,강북구
92,NH농협은행,시흥동지점,서울특별시 금천구 시흥동 시흥대로 215,37.4529288,126.9008246,금천구
93,NH농협은행,시흥배곧지점,경기도 시흥시 정왕동 서울대학로278번길 61,37.3681782,126.7306725,시흥시
94,NH농협은행,신길동지점,서울특별시 영등포구 신길3동 가마산로 407,37.503986,126.9018626,영등포구
95,NH농협은행,신당동지점,서울특별시 중구 신당5동 다산로 240,37.564289,127.0164581,중구
96,NH농협은행,신사동금융센터,서울특별시 강남구 신사동 도산대로 125,37.5177172,127.0219431,강남구
97,NH농협은행,신설동지점,서울특별시 종로구 숭인동 종로 394,37.5744368,127.0212737,종로구
98,NH농협은행,신용산지점,서울특별시 용산구 한강로2가 한강대로 95,37.5315409,126.9685985,용산구
99,NH농협은행,신월동지점,서울특별시 양천구 신월6동 신월로 156,37.5163837,126.8421653,양천구
100,NH농협은행,신촌중앙지점,서울특별시 서대문구 창천동 신촌로 73,37.5563335,126.9348124,서대문구
101,NH농협은행,신촌지점,서울특별시 서대문구 대현동 신촌로 155,37.5568906,126.9434058,서대문구
102,NH농협은행,압구정동지점,서울특별시 강남구 청담동 도산대로 447,37.5242849,127.0450502,강남구
103,NH농협은행,압구정역지점,서울특별시 강남구 신사동 논현로 842,37.5242064,127.0287437,강남구
104,NH농협은행,양재남지점,서울특별시 서초구 양재동 매헌로 24,37.4641066,127.0364031,서초구
105,NH농협은행,양재지점,서울특별시 강남구 도곡동 강남대로 278,37.4883649,127.0326861,강남구
106,NH농협은행,양재하나로지점,서울특별시 서초구 양재동 청계산로 10,37.4627988,127.0438675,서초구
107,NH농협은행,여의도대기업금융센터,서울특별시 영등포구 여의도동 국제금융로6길 17,37.5218429,126.9280858,영등포구
108,NH농협은행,여의도문화지점,서울특별시 영등포구 여의도동 국제금융로8길 2,37.5219941,126.9301082,영등포구
109,NH농협은행,여의도역(출),서울특별시 영등포구 여의도동 여의나루로 50,37.5218307,126.9256238,영등포구
110,NH농협은행,여의도지점,서울특별시 영등포구 여의도동 국제금융로6길 17,37.5218429,126.9280858,영등포구
111,NH농협은행,역삼금융센터,서울특별시 강남구 역삼동 테헤란로 123,37.499564,127.0315094,강남구
112,NH농협은행,역삼동지점,서울특별시 서초구 서초동 강남대로 351,37.4941564,127.0288976,서초구
113,NH농협은행,연신내지점,서울특별시 은평구 불광동 통일로 860,37.6198448,126.9209827,은평구
114,NH농협은행,영등포지점,서울특별시 영등포구 당산동1가 영등포로 150,37.5216841,126.8985127,영등포구
115,NH농협은행,예금보험공사(출),서울특별시 중구 다동 청계천로 30,37.5685228,126.9807525,중구
116,NH농협은행,오목교역지점,서울특별시 양천구 목동 오목로 325,37.5251528,126.8737199,양천구
117,NH농협은행,용두동지점,서울특별시 동대문구 용두동 왕산로 68,37.5757257,127.034286,동대문구
118,NH농협은행,용산금융센터,서울특별시 용산구 한강로2가 청파로 122,37.5315409,126.9685985,용산구
119,NH농협은행,용산대통령실지점,서울특별시 용산구 용산동3가 이태원로 22,37.5318611,126.9769392,용산구
120,NH농협은행,원효로지점,서울특별시 용산구 원효로1가 원효로 271,37.5399801,126.967447,용산구
121,NH농협은행,월곡동지점,서울특별시 성북구 하월곡2동 화랑로 79,37.602443,127.041254,성북구
122,NH농협은행,위례중앙지점,서울특별시 송파구 장지동 위례광장로 136,37.4764108,127.1420412,송파구
123,NH농협은행,을지로4가지점,서울특별시 중구 을지로4가 을지로 191,37.5669046,126.9992933,중구
124,NH농협은행,의원회관(출),서울특별시 영등포구 여의도동 의사당대로 1,37.5310582,126.9153816,영등포구
125,NH농협은행,이수역지점,서울특별시 서초구 방배동 동작대로 132,37.488316,126.9825957,서초구
126,NH농협은행,일원동지점,서울특별시 강남구 일원동 양재대로 55길 6,37.4913369,127.0884053,강남구
127,NH농협은행,자양로지점,서울특별시 광진구 구의동 자양로 126,37.5389589,127.0836754,광진구
128,NH농협은행,잠실월드지점,서울특별시 송파구 신천동 올림픽로35가길 9,37.5174375,127.1035775,송파구
129,NH농협은행,잠실중앙지점,서울특별시 송파구 잠실동 올림픽로 111,37.5121478,127.0830199,송파구
130,NH농협은행,잠실지점,서울특별시 송파구 잠실동 백제고분로 160,37.5050315,127.084338,송파구
131,NH농협은행,장지동지점,서울특별시 송파구 장지동 충민로2길 26,37.4774526,127.1273393,송파구
132,NH농협은행,장한평역지점,서울특별시 동대문구 장안동 장한로 6,37.5618488,127.0654294,동대문구
133,NH농협은행,전농동지점,서울특별시 동대문구 전농동 전농로 136,37.5770373,127.0581183,동대문구
134,NH농협은행,정릉지점,서울특별시 성북구 정릉동 보국문로 40,37.6081394,127.0102783,성북구
135,NH농협은행,정부서울청사지점,서울특별시 종로구 세종로 세종대로 209,37.5748454,126.9754214,종로구
136,NH농협은행,정부서울청사지점 별관(출),서울특별시 종로구 도렴동 사직로8길 60,37.5731228,126.9747588,종로구
137,NH농협은행,종로1가지점,서울특별시 종로구 청진동 종로5길 7,37.5714504,126.9801788,종로구
138,NH농협은행,종로금융센터,서울특별시 종로구 견지동 우정국로 38,37.5735218,126.9830126,종로구
139,NH농협은행,종로대기업금융센터,서울특별시 종로구 청진동 종로5길 7,37.5714504,126.9801788,종로구
140,NH농협은행,중계동지점,서울특별시 노원구 상계6동 동일로 1351,37.6492519,127.0616155,노원구
141,NH농협은행,중앙본부(출),서울특별시 중구 충정로1가 새문안로 16,37.56640640000001,126.9684511,중구
142,NH농협은행,중화동지점,서울특별시 중랑구 중화2동 동일로 769,37.5990659,127.0795609,중랑구
143,NH농협은행,창동하나로(출),서울특별시 도봉구 창동 마들로11길 20,37.6547765,127.0508036,도봉구
144,NH농협은행,천호동지점,서울특별시 강동구 천호동 올림픽로 659,37.5403059,127.1235086,강동구
145,NH농협은행,청계지점,서울특별시 중구 황학동 청계천로 370,37.5705223,127.0186879,중구
146,NH농협은행,청담동지점,서울특별시 강남구 청담동 영동대로 706,37.5207985,127.0573023,강남구
147,NH농협은행,청량리지점,서울특별시 동대문구 청량리동 왕산로 191,37.5801596,127.0443169,동대문구
148,NH농협은행,충무로지점,서울특별시 중구 필동1가 퇴계로 187,37.5610862,126.9924672,중구
149,NH농협은행,충정로역지점,서울특별시 서대문구 충정로3가 충정로 23,37.5612703,126.963012,서대문구
150,NH농협은행,코엑스지점,서울특별시 강남구 삼성동 테헤란로87길 22,37.5095909,127.0592738,강남구
151,NH농협은행,태릉지점,서울특별시 노원구 공릉동 화랑로 447,37.6184476,127.0769833,노원구
152,NH농협은행,태평로금융센터,서울특별시 중구 태평로2가 세종대로 92,37.5630063,126.9763875,중구
153,NH농협은행,테헤란로금융센터,서울특별시 강남구 대치동 테헤란로 424,37.5054413,127.0535803,강남구
154,NH농협은행,평화지점,서울특별시 중구 을지로6가 청계천로 260-20,37.5677844,127.0068849,중구
155,NH농협은행,한강로지점,서울특별시 용산구 한강로3가 한강대로 45,37.5276547,126.9622041,용산구
156,NH농협은행,한남동지점,서울특별시 용산구 한남동 한남대로21길 17,37.5341095,127.0065192,용산구
157,NH농협은행,합정동지점,서울특별시 마포구 서교동 양화로 92,37.5521287,126.9179088,마포구
158,NH농협은행,화곡지점,서울특별시 양천구 신월동 가로공원로 162,37.5364217,126.83411,양천구
159,NH농협은행,화양지점,서울특별시 성동구 성수동2가 아차산로17길 48,37.5466713,127.0661249,성동구
160,NH농협은행,회현역지점,서울특별시 중구 남창동 퇴계로 57,37.5580788,126.9776197,중구
161,NH농협은행,흑석동지점,서울특별시 동작구 흑석동 서달로 150,37.5066658,126.9621884,동작구
162,SC제일은행,가락중앙,서울특별시 송파구 가락동 중대로9길 39,37.4965528,127.1182853,송파구
163,SC제일은행,강남PB센터,서울특별시 강남구 도곡동 남부순환로 2806,37.4892827,127.0528042,강남구
164,SC제일은행,강남역,서울특별시 강남구 역삼동 강남대로 406,37.4990329,127.0276653,강남구
165,SC제일은행,강남파이낸스,서울특별시 강남구 역삼동 테헤란로 152,37.4998097,127.0366289,강남구
166,SC제일은행,강동역,서울특별시 강동구 성내동 천호대로 1102,37.5351448,127.1336283,강동구
167,SC제일은행,고덕역,서울특별시 강동구 명일동 고덕로 266,37.5546621,127.155119,강동구
168,SC제일은행,광장동,서울특별시 광진구 구의동 구의강변로 106,37.5399001,127.0948193,광진구
169,SC제일은행,광화문,서울특별시 종로구 종로1가 종로 1,37.570363,126.98243,종로구
170,SC제일은행,구로디지털,서울특별시 구로구 구로동 시흥대로 551,37.4827344,126.9004675,구로구
171,SC제일은행,금호동,서울특별시 성동구 금호동4가 독서당로 302,37.545465,127.0243047,성동구
172,SC제일은행,낙원,서울특별시 종로구 돈의동 돈화문로11길 23,37.5723321,126.9900935,종로구
173,SC제일은행,남가좌동,서울특별시 서대문구 남가좌동 증가로 150,37.5756218,126.9194417,서대문구
174,SC제일은행,답십리,서울특별시 동대문구 답십리동 천호대로 291-1,37.5667194,127.0535609,동대문구
175,SC제일은행,대치동,서울특별시 강남구 대치동 도곡로 438,37.4978146,127.0584142,강남구
176,SC제일은행,도곡동,서울특별시 강남구 역삼동 언주로 337,37.4977905,127.044094,강남구
177,SC제일은행,도곡스위트,서울특별시 강남구 도곡동 언주로30길 21,37.4886722,127.0521024,강남구
178,SC제일은행,독산동,서울특별시 금천구 독산동 시흥대로 414,37.4706152,126.8985585,금천구
179,SC제일은행,돈암동,서울특별시 성북구 동소문동5가 동소문로 84,37.5916389,127.0153864,성북구
180,SC제일은행,동교동,서울특별시 마포구 동교동 신촌로 12,37.5580551,126.9276515,마포구
181,SC제일은행,동대문역,서울특별시 종로구 창신동 율곡로 309,37.5702861,127.0099717,종로구
182,SC제일은행,등촌동,서울특별시 양천구 목동 등촌로 204,37.5478539,126.8635779,양천구
183,SC제일은행,마곡역,서울특별시 강서구 마곡동 마곡중앙로 55,37.55856929999999,126.8262569,강서구
184,SC제일은행,마장동,서울특별시 성동구 마장동 마장로 76,37.567372,127.0349439,성동구
185,SC제일은행,마장역,서울특별시 성동구 마장동 마장로 291,37.5659042,127.0419277,성동구
186,SC제일은행,마천동,서울특별시 송파구 마천동 마천로 22,37.5094484,127.1234402,송파구
187,SC제일은행,마포역,서울특별시 마포구 도화동 마포대로 34,37.5392312,126.9461843,마포구
188,SC제일은행,명동역,서울특별시 중구 충무로2가 퇴계로 131,37.5617173,126.987815,중구
189,SC제일은행,목동5단지,서울특별시 양천구 목동 목동동로 350,37.5341154,126.882084,양천구
190,SC제일은행,목동9단지,서울특별시 양천구 신정동 목동서로 340,37.5185416,126.8624047,양천구
191,SC제일은행,목동사거리,서울특별시 양천구 목동 등촌로 30,37.5327094,126.8640384,양천구
192,SC제일은행,목동역,서울특별시 양천구 신정동 목동로 189,37.5252952,126.8641022,양천구
193,SC제일은행,무역센터,서울특별시 강남구 삼성동 테헤란로87길 46,37.5125207,127.0588194,강남구
194,SC제일은행,문정동,서울특별시 송파구 문정동 문정로 19,37.486491,127.124615,송파구
195,SC제일은행,반포WM센터,서울특별시 서초구 반포동 반포대로 287,37.5043394,127.0008523,서초구
196,SC제일은행,방배동,서울특별시 서초구 방배동 방배로 245,37.4947875,126.9888737,서초구
197,SC제일은행,방이역,서울특별시 송파구 방이동 마천로 39,37.5091953,127.1251854,송파구
198,SC제일은행,사당동,서울특별시 동작구 사당동 동작대로 13,37.47778350000001,126.9811885,동작구
199,SC제일은행,상계동,서울특별시 노원구 상계동 동일로 1528,37.6648039,127.0581367,노원구
200,SC제일은행,상도동,서울특별시 동작구 상도동 상도로 102,37.4997236,126.9318514,동작구
201,SC제일은행,상봉역,서울특별시 중랑구 상봉동 망우로 291,37.596446,127.0847876,중랑구
202,SC제일은행,서소문,서울특별시 중구 서소문동 서소문로 116,37.5631664,126.9739275,중구
203,SC제일은행,서울대역,서울특별시 관악구 봉천동 남부순환로 1811,37.481735,126.951446,관악구
204,SC제일은행,서초동,서울특별시 서초구 서초동 반포대로 76,37.487344,127.010453,서초구
205,SC제일은행,석관동,서울특별시 성북구 석관동 돌곶이로 48,37.6084854,127.0597967,성북구
206,SC제일은행,성수동,서울특별시 성동구 성수2가 동일로 89,37.5407585,127.0628128,성동구
207,SC제일은행,송파,서울특별시 송파구 송파동 가락로 183,37.5051072,127.1135469,송파구
208,SC제일은행,수유동,서울특별시 강북구 수유1동 노해로 3,37.6359023,127.0226895,강북구
209,SC제일은행,신용두동,서울특별시 동대문구 용두동 천호대로 64,37.5735838,127.030238,동대문구
210,SC제일은행,압구정PB센터,서울특별시 강남구 신사동 언주로 869,37.5281908,127.0332462,강남구
211,SC제일은행,압구정동,서울특별시 강남구 압구정동 압구정로29길 68,37.5319756,127.0285632,강남구
212,SC제일은행,압구정로데오,서울특별시 강남구 신사동 선릉로 823,37.5256089,127.0392909,강남구
213,SC제일은행,양재남,서울특별시 서초구 양재동 논현로 39,37.4741443,127.0478206,서초구
214,SC제일은행,양재동,서울특별시 서초구 서초동 강남대로 251,37.4856672,127.0329062,서초구
215,SC제일은행,여의도,서울특별시 영등포구 여의도동 국제금융로 106,37.5189416,126.9332421,영등포구
216,SC제일은행,여의도중부,서울특별시 영등포구 여의도동 국제금융로 56,37.52226479999999,126.9296571,영등포구
217,SC제일은행,연신내,서울특별시 은평구 대조동 연서로 222,37.6181341,126.9203812,은평구
218,SC제일은행,연희동,서울특별시 서대문구 연희동 증가로 9,37.5691624,126.9313752,서대문구
219,SC제일은행,영등포,서울특별시 영등포구 영등포동6가 영중로 61,37.5215941,126.9032142,영등포구
220,SC제일은행,영업부,서울특별시 종로구 공평동 종로 47,37.5711146,126.9823969,종로구
221,SC제일은행,용산,서울특별시 용산구 한강로2가 한강대로 92,37.5315409,126.9685985,용산구
222,SC제일은행,우장산역,서울특별시 강서구 내발산동 강서로 277,37.5504363,126.8359174,강서구
223,SC제일은행,월곡동,서울특별시 성북구 하월곡동 오패산로 49,37.6063985,127.0364478,성북구
224,SC제일은행,을지로,서울특별시 중구 을지로4가 을지로 158,37.5661307,126.9955815,중구
225,SC제일은행,응암동,서울특별시 은평구 녹번동 은평로11길 43771,37.6023713,126.9236565,은평구
226,SC제일은행,이촌동,서울특별시 용산구 이촌동 이촌로 223-13,37.5212647,126.9720992,용산구
227,SC제일은행,자양서,서울특별시 광진구 자양동 뚝섬로 587,37.5335228,127.0754315,광진구
228,SC제일은행,잠실,서울특별시 송파구 신천동 올림픽로35길 124,37.5188846,127.0992806,송파구
229,SC제일은행,잠실서,서울특별시 송파구 잠실7동 올림픽로4길 40,37.5068649,127.073142,송파구
230,SC제일은행,잠원동,서울특별시 서초구 잠원동 신반포로 257,37.5096201,127.0132783,서초구
231,SC제일은행,장사동,서울특별시 종로구 장사동 청계천로 149,37.5688535,126.9941138,종로구
232,SC제일은행,장안동,서울특별시 동대문구 장안동 장안벚꽃로 107,37.5697253,127.0746064,동대문구
233,SC제일은행,제일,서울특별시 중구 회현동 1가 남대문로 42,37.5609619,126.9804888,중구
234,SC제일은행,청담역,서울특별시 강남구 삼성동 삼성로 640,37.51397499999999,127.0561274,강남구
235,SC제일은행,청량리,서울특별시 동대문구 청량리동 흥릉로 3,37.5806683,127.0446649,동대문구
236,SC제일은행,테헤란로,서울특별시 강남구 역삼동 테헤란로 314,37.5029702,127.045253,강남구
237,SC제일은행,한국은행,서울특별시 중구 남대문로 남대문로 39,37.5621502,126.9799919,중구
238,SC제일은행,합정동,서울특별시 마포구 합정동 월드컵로 1길 14,37.5499947,126.9121946,마포구
239,SC제일은행,후암동,서울특별시 용산구 후암동 후암로 46,37.5499628,126.9775827,용산구
240,SC제일은행,훼밀리타운,서울특별시 송파구 문정동 중대로 24,37.4885195,127.1143775,송파구
241,경남은행,강남,서울특별시 강남구 대치동 영동대로 421,37.5067954,127.0630729,강남구
242,경남은행,마곡,서울특별시 강서구 마곡동 공항대로 227,37.5706297,126.8298909,강서구
243,경남은행,서울영업부,서울특별시 중구 서소문동 세종대로9길 42,37.5615703,126.9737898,중구
244,경남은행,시흥배곧,경기도 시흥시 정왕동 서울대학로 278번길 19-13,37.3707384,126.7273431,시흥시
245,경남은행,여의도,서울특별시 영등포구 여의도동 국제금융로2길 36,37.5235976,126.923829,영등포구
246,광주은행,강남,서울특별시 강남구 역삼동 테헤란로 234,37.5019294,127.0418226,강남구
247,광주은행,길동,서울특별시 강동구 길동 양재대로 1473,37.5375304,127.1395967,강동구
248,광주은행,논현,서울특별시 서초구 잠원동 강남대로 559,37.5117753,127.0205383,서초구
249,광주은행,대치동,서울특별시 강남구 대치동 남부순환로 2935,37.4940247,127.0613442,강남구
250,광주은행,마곡,서울특별시 강서구 마곡동 공항대로 248,37.5706297,126.8298909,강서구
251,광주은행,삼성동,서울특별시 강남구 삼성동 테헤란로 425,37.50627739999999,127.0533705,강남구
252,광주은행,서울영업부,서울특별시 중구 다동 남대문로 109,37.5669629,126.9822831,중구
253,광주은행,서초동,서울특별시 서초구 서초동 서초대로 286,37.4930834,127.0127569,서초구
254,광주은행,수도권금융센터,서울특별시 영등포구 여의도동 여의나루로 81,37.5243234,126.9277702,영등포구
255,광주은행,양재,서울특별시 서초구 서초동 남부순환로 2583,37.4849081,127.0329009,서초구
256,광주은행,여의도,서울특별시 영등포구 여의도동 국제금융로 2길 17,37.5240663,126.9260095,영등포구
257,광주은행,자양동,서울특별시 광진구 자양동 자양로 129,37.5392937,127.0829226,광진구
258,광주은행,잠실,서울특별시 송파구 잠실동 올림픽로 119,37.5121053,127.084188,송파구
259,광주은행,청량리,서울특별시 동대문구 용두동 왕산로 32길 7,37.5787123,127.0418159,동대문구
260,광주은행,화곡동,서울특별시 강서구 화곡동 화곡로 142,37.5405875,126.8375688,강서구
261,국민은행,GOLD&WISE the FIRST,서울특별시 강남구 신사동 언주로 849,37.5235332,127.0230659,강남구
262,국민은행,KCC(점),서울특별시 서초구 서초동 사평대로 344 금강빌딩,37.502885,127.0204337,서초구
263,국민은행,KT광화문(점),서울특별시 종로구 청진동 종로3길 22외 31 KT광화문빌딩 동관,37.5720469,126.9788989,종로구
264,국민은행,가락동,서울특별시 송파구 가락동 송파대로 274 소방공제회관 1층,37.4940337,127.1180934,송파구
265,국민은행,가산IT종합금융센터,서울특별시 금천구 가산동 가산디지털2로 98 롯데IT캐슬 1층,37.4771315,126.8810733,금천구
266,국민은행,가산디지털종합금융,서울특별시 금천구 가산동 벚꽃로 286 삼성리더스타워 1층,37.4803075,126.8841943,금천구
267,국민은행,가산라이온스밸리,서울특별시 금천구 가산동 가산디지털1로 168 우림라이온스밸리 C동 103호,37.4791445,126.8829951,금천구
268,국민은행,가산벤처,서울특별시 금천구 가산동 가산디지털1로 16 에이피타워 218~220호,37.4676023,126.8879973,금천구
269,국민은행,가산테크노타운,서울특별시 금천구 가산1동 가마산로 96,37.4852521,126.8774325,금천구
270,국민은행,가양역,서울특별시 강서구 등촌동 화곡로68길 3 영스퀘어 2층,37.559569,126.8547425,강서구
271,국민은행,강남구청역,서울특별시 강남구 논현동 학동로 343 강남파로스타워 2층,37.5174488,127.0406346,강남구
272,국민은행,강남대로,서울특별시 서초구 서초동 서초대로 411 GT Tower 2층,37.4978195,127.026207,서초구
273,국민은행,강남스타PB센터,서울특별시 강남구 역삼1동 테헤란로 152 강남파이낸스센터 21층,37.499927,127.036789,강남구
274,국민은행,강남역종합금융센터,서울특별시 강남구 역삼동 테헤란로 127,37.4997697,127.0321799,강남구
275,국민은행,강남중앙,서울특별시 강남구 역삼동 강남대로 402 시계탑빌딩 2층,37.4987384,127.0277721,강남구
276,국민은행,강남타운,서울특별시 강남구 역삼동 강남대로 388 강남센터빌딩 1층,37.4974131,127.0283856,강남구
277,국민은행,강남파이낸스,서울특별시 강남구 역삼동 테헤란로 152 강남파이낸스센터 3층,37.499927,127.036789,강남구
278,국민은행,강동구청역,서울특별시 강동구 성내동 성내로 12,37.5301264,127.121823,강동구
279,국민은행,강북삼성병원(점),서울특별시 종로구 평동 새문안로 29 강북삼성병원,37.5683585,126.9674846,종로구
280,국민은행,강북종합금융센터,서울특별시 강북구 수유동 도봉로 391,37.6419526,127.0293158,강북구
281,국민은행,강서,서울특별시 강서구 화곡동 화곡로 340,37.5538626,126.8517363,강서구
282,국민은행,개봉남,서울특별시 구로구 개봉동 개봉로 10,37.486611,126.8567876,구로구
283,국민은행,개포남,서울특별시 강남구 개포동 개포로 224,37.47859529999999,127.0473037,강남구
284,국민은행,개포동,서울특별시 강남구 개포동 삼성로 36,37.4883755,127.0669547,강남구
285,국민은행,건대역(점),서울특별시 광진구 화양동 아차산로 213 웅진빌딩,37.5413173,127.0672393,광진구
286,국민은행,경찰청(점),서울특별시 서대문구 미근동 통일로 97 경찰청,37.5633354,126.9672856,서대문구
287,국민은행,고덕역,서울특별시 강동구 명일동 고덕로 254,37.5546134,127.1536615,강동구
288,국민은행,고척동,서울특별시 구로구 고척동 경인로 387 2층,37.497056,126.8632274,구로구
289,국민은행,광장동,서울특별시 광진구 광장동 천호대로 813,37.54563,127.103971,광진구
290,국민은행,광진구청,서울특별시 광진구 자양동 자양로 117 광진구청 종합상황실 2층,37.53837420000001,127.0822077,광진구
291,국민은행,광화문역(점),서울특별시 종로구 당주동 새문안로5길 13 변호사회관 1층,37.5713964,126.9744576,종로구
292,국민은행,광화문종합금융센터,서울특별시 종로구 내수동 새문안로3길 30 광화문사옥 1층,37.5727748,126.9732574,종로구
293,국민은행,교대역,서울특별시 서초구 서초동 서초대로 283 남촌빌딩,37.4936608,127.0126284,서초구
294,국민은행,구로,서울특별시 구로구 구로동 도림로20길 11,37.4897868,126.8921785,구로구
295,국민은행,구로구청사거리,서울특별시 구로구 구로동 가마산로 263 뉴월드오피스텔,37.4959127,126.8894649,구로구
296,국민은행,구로동종합금융센터,서울특별시 구로구 구로동 경인로 565,37.5035756,126.8797822,구로구
297,국민은행,구로벤처종합금융센터,서울특별시 구로구 구로동 디지털로34길 27 대륭포스트타워3차,37.4854799,126.8981862,구로구
298,국민은행,구의동,서울특별시 광진구 구의동 광나루로 525,37.5451608,127.0879358,광진구
299,국민은행,구파발역,"서울특별시 은평구 진관동 진관2로 15-46, 2층 2층",37.638295,126.917829,은평구
300,국민은행,국군재정관리단(점),서울특별시 용산구 이태원동 회나무로 4 육군중앙경리단,37.5382483,126.9883339,용산구
301,국민은행,국방부(점),서울특별시 용산구 용산동3가 이태원로 22,37.5318611,126.9769392,용산구
302,국민은행,군자역,서울특별시 광진구 군자동 능동로 289,37.5557895,127.0783384,광진구
303,국민은행,굽은다리역,서울특별시 강동구 천호동 양재대로 1553,37.544381,127.1420249,강동구
304,국민은행,금천,서울특별시 금천구 시흥동 시흥대로 202,37.45202949999999,126.9019858,금천구
305,국민은행,금호동,서울특별시 성동구 금호동4가 독서당로 306,37.545465,127.0243047,성동구
306,국민은행,길동종합금융센터,서울특별시 강동구 길동 양재대로 1443 동우빌딩,37.5349323,127.1385396,강동구
307,국민은행,길음뉴타운,서울특별시 성북구 길음동 동소문로 231,37.602869,127.0223705,성북구
308,국민은행,까치산역(점),서울특별시 강서구 화곡동 강서로 48,37.5321745,126.84677,강서구
309,국민은행,낙성대역,서울특별시 관악구 봉천동 남부순환로 1926,37.4769446,126.9631219,관악구
310,국민은행,남가좌동,서울특별시 서대문구 남가좌동 증가로 136,37.5756218,126.9194417,서대문구
311,국민은행,남대문종합금융센터,서울특별시 중구 남대문로4가 세종대로 50,37.5606129,126.97564,중구
312,국민은행,남성역,서울특별시 동작구 사당동 사당로 234,37.48317900000001,126.9734696,동작구
313,국민은행,남영동,서울특별시 용산구 갈월동 한강대로 273 용산빌딩 1층,37.5426935,126.971988,용산구
314,국민은행,노량진,서울특별시 동작구 노량진동 노량진로 100 CTS기독교TV 1층,37.5130962,126.9370306,동작구
315,국민은행,노원구청,서울특별시 노원구 상계동 노해로 437 노원구청 1층,37.6540782,127.0566045,노원구
316,국민은행,노원종합금융센터,서울특별시 노원구 상계동 동일로 1405,37.6538195,127.0602181,노원구
317,국민은행,논현동,서울특별시 강남구 논현동 언주로 603,37.5136787,127.0317124,강남구
318,국민은행,논현역종합금융센터,서울특별시 강남구 논현동 학동로 107,37.5117467,127.0224703,강남구
319,국민은행,답십리(점),서울특별시 동대문구 답십리동 전농로 99,37.5739131,127.0572655,동대문구
320,국민은행,대기업금융1센터,"서울특별시 강남구 역삼동 강남대로 298 푸르덴셜타워 3,4층",37.4899896,127.0321609,강남구
321,국민은행,대기업금융2센터,"서울특별시 강남구 역삼동 강남대로 298 푸르덴셜타워 3,4층",37.4899896,127.0321609,강남구
322,국민은행,대림동,서울특별시 영등포구 대림동 시흥대로 675 삼성YJ그랜드빌딩,37.49206119999999,126.9084675,영등포구
323,국민은행,대방동,서울특별시 동작구 대방동 국사봉1길 3,37.4991265,126.9287614,동작구
324,국민은행,대방로,서울특별시 영등포구 신길동 여의대방로 259 공군회관,37.5006729,126.9187206,영등포구
325,국민은행,대청역,서울특별시 강남구 개포동 개포로 623 대청타워,37.4943476,127.079616,강남구
326,국민은행,대치동종합금융센터,서울특별시 강남구 대치동 삼성로 212,37.4974176,127.0653272,강남구
327,국민은행,대치북,서울특별시 강남구 대치동 삼성로 406,37.5035708,127.0588072,강남구
328,국민은행,도곡,서울특별시 강남구 도곡동 언주로 30길 39 삼성 SEI 타워 2층,37.4886584,127.0530163,강남구
329,국민은행,도곡렉슬(점),서울특별시 강남구 도곡동 선릉로 225 도곡렉슬상가 4층,37.4953504,127.0527143,강남구
330,국민은행,도곡스타PB센터,서울특별시 강남구 도곡2동 언주로30길 39 삼성SEI타워 10층,37.4886584,127.0530163,강남구
331,국민은행,도봉구청(점),서울특별시 도봉구 마들로 656 도봉구청 본관 1층,37.6687735,127.047071,도봉구
332,국민은행,도화동,서울특별시 마포구 도화동 마포대로 63-8 삼창빌딩,37.5422132,126.9478872,마포구
333,국민은행,독산동,서울특별시 금천구 독산동 시흥대로 430,37.4718493,126.898664,금천구
334,국민은행,독산홈플러스,서울특별시 금천구 독산동 시흥대로 391 홈플러스금천점,37.4686493,126.8968106,금천구
335,국민은행,돈암동,서울특별시 성북구 동선동1가 동소문로 114,37.5923136,127.0182356,성북구
336,국민은행,동국대학교(점),서울특별시 중구 필동3가 필동로1길 30 동국대학교 혜화관 1층,37.5592871,126.9985627,중구
337,국민은행,동대문구청,서울특별시 동대문구 용두동 천호대로 145 동대문구청 1층,37.5742015,127.0398327,동대문구
338,국민은행,동대문패션타운,서울특별시 중구 을지로6가 장충단로13길 34 동화상가 2층,37.5683903,127.0069003,중구
339,국민은행,동부이촌동,서울특별시 용산구 이촌1동 이촌로 206 국민은행 1층,37.5208849,126.9698508,용산구
340,국민은행,동아미디어,서울특별시 종로구 세종로 청계천로 1,37.5695378,126.9780701,종로구
341,국민은행,동양미래대(점),서울특별시 구로구 고척동 경인로 445 8호관 1층,37.5005419,126.8676709,구로구
342,국민은행,동여의도,서울특별시 영등포구 여의도동 국제금융로 72 호정빌딩,37.5211039,126.9308752,영등포구
343,국민은행,동작구청,서울특별시 동작구 노량진동 장승배기로 161 동작구청 구의회건물 1층,37.5124298,126.9397997,동작구
344,국민은행,둔촌역,서울특별시 강동구 성내동 양재대로 1313 세왕빌딩,37.5236808,127.1341103,강동구
345,국민은행,등촌역,서울특별시 양천구 목동 공항대로 538 CDB빌딩,37.55025699999999,126.8655365,양천구
346,국민은행,디지털밸리종금센터,서울특별시 구로구 구로동 디지털로 273 에이스트윈타워2차 1층,37.4839163,126.8940805,구로구
347,국민은행,마곡나루,서울특별시 강서구 마곡동 마곡중앙5로 6 마곡나루역보타닉푸르지오시티 2층,37.5673178,126.8270022,강서구
348,국민은행,마곡역,서울특별시 강서구 마곡동 공항대로 190 푸리마타워,37.5589267,126.8287147,강서구
349,국민은행,마들역,서울특별시 노원구 상계동 동일로 1534,37.6654746,127.0579561,노원구
350,국민은행,마천동,서울특별시 송파구 마천동 마천로 257,37.4986582,127.1460142,송파구
351,국민은행,마포역종합금융센터,서울특별시 마포구 도화동 마포대로 38 일신빌딩,37.5393555,126.9466231,마포구
352,국민은행,망우동종합금융센터,서울특별시 중랑구 망우동 상봉로 134 2층,37.5980718,127.0933261,중랑구
353,국민은행,매봉역,서울특별시 강남구 도곡동 남부순환로378길 10,37.4855914,127.0456872,강남구
354,국민은행,먹골역,서울특별시 중랑구 묵동 동일로 921,37.6126603,127.0768681,중랑구
355,국민은행,명동스타PB센터,서울특별시 중구 을지로2가 을지로 51 내외빌딩 6층,37.5664986,126.9835552,중구
356,국민은행,명동역,서울특별시 중구 충무로2가 퇴계로 131 신일빌딩,37.561258,126.986386,중구
357,국민은행,명동영업부,서울특별시 중구 을지로2가 을지로 51 교원내외빌딩,37.5664794,126.9836634,중구
358,국민은행,명일동종합금융센터,서울특별시 강동구 명일동 양재대로 1661,37.5538505,127.1439031,강동구
359,국민은행,모래내,서울특별시 서대문구 남가좌동 수색로 40,37.5700305,126.9143878,서대문구
360,국민은행,목동PB센터,서울특별시 양천구 목동 목동동로 381 2층,37.5357068,126.8790545,양천구
361,국민은행,목동서로종합금융센터,서울특별시 양천구 신정동 목동서로 283,37.5220824,126.8696157,양천구
362,국민은행,목동스텔라,서울특별시 양천구 목동 오목로 312 제일빌딩,37.5246769,126.8719811,양천구
363,국민은행,목동역,서울특별시 양천구 신정동 오목로 222,37.5255743,126.8619555,양천구
364,국민은행,목동중앙,서울특별시 양천구 목1동 목동동로 309 행복한세상백화점 1층,37.5293731,126.8760838,양천구
365,국민은행,목동파리공원종금센터,서울특별시 양천구 목5동 목동동로 381,37.5357068,126.8790545,양천구
366,국민은행,무교,서울특별시 중구 무교동 세종대로 136 서울파이낸스빌딩,37.5681575,126.9790126,중구
367,국민은행,무역센터종합금융센터,서울특별시 강남구 삼성동 테헤란로87길 36 공항타워 1층,37.5125207,127.0588194,강남구
368,국민은행,문래동,서울특별시 영등포구 양평동1가 선유로 82 GS강서N타워,37.521224,126.8902607,영등포구
369,국민은행,문정동(점),서울특별시 송파구 문정동 송이로30길 7 동일빌딩 1층,37.4873653,127.1308977,송파구
370,국민은행,문정법조종합금융센터,서울특별시 송파구 문정동 법원로 11길 7 문정현대지식산업센터 A동 2층,37.4852832,127.1181921,송파구
371,국민은행,미아동,서울특별시 강북구 미아4동 도봉로 34 트레지오,37.6120024,127.0307131,강북구
372,국민은행,미아역,서울특별시 강북구 미아동 도봉로 167,37.6236177,127.0268624,강북구
373,국민은행,반포남,서울특별시 서초구 반포동 고무래로 26,37.5023326,127.0111857,서초구
374,국민은행,반포서래,서울특별시 서초구 반포동 서래로8길 6,37.4985515,126.9986397,서초구
375,국민은행,반포역,서울특별시 서초구 잠원동 신반포로 257 뉴타운빌딩 1층,37.5085703,127.0119401,서초구
376,국민은행,반포중앙종합금융센터,서울특별시 서초구 잠원동 신반포로 157,37.5055078,127.00123,서초구
377,국민은행,발산역,서울특별시 강서구 마곡동 강서로 385 우성에스비타워 2층,37.5600589,126.8383354,강서구
378,국민은행,방배PB센터,서울특별시 서초구 방배동 동광로 89 예강빌딩 2층,37.4937337,126.9919977,서초구
379,국민은행,방배남,서울특별시 서초구 방배동 방배로 46 화천빌딩 1층,37.4790817,126.9996831,서초구
380,국민은행,방배역,서울특별시 서초구 방배동 방배로 99,37.4830377,126.9962322,서초구
381,국민은행,방배중앙종합금융센터,서울특별시 서초구 방배동 방배로 181 단우빌딩 1층,37.4894889,126.991887,서초구
382,국민은행,방이역,서울특별시 송파구 오금동 마천로5길 10,37.5092092,127.1270223,송파구
383,국민은행,방화동,서울특별시 강서구 방화동 양천로 66,37.5759058,126.8135931,강서구
384,국민은행,보라매종합금융센터,서울특별시 관악구 봉천동 보라매로3길 29,37.4911673,126.9250989,관악구
385,국민은행,보문동,서울특별시 성북구 보문동7가 보문로 34,37.5797789,127.0223627,성북구
386,국민은행,봉천동,서울특별시 관악구 봉천동 관악로 234,37.4849522,126.9563445,관악구
387,국민은행,봉천역,서울특별시 관악구 봉천동 남부순환로 1734 주원빌딩,37.4819762,126.9427785,관악구
388,국민은행,북악,서울특별시 성북구 정릉동 아리랑로 127,37.6031077,127.0131176,성북구
389,국민은행,불광동,서울특별시 은평구 불광동 통일로 742 한화생명빌딩 1층,37.611784,126.9291501,은평구
390,국민은행,사가정역,서울특별시 중랑구 면목동 면목로 315,37.5802667,127.0880095,중랑구
391,국민은행,사당동,서울특별시 동작구 사당동 동작대로 31,37.4793457,126.981281,동작구
392,국민은행,삼성동,서울특별시 강남구 삼성동 테헤란로 503,37.50739780000001,127.0571913,강남구
393,국민은행,삼성동PB센터,서울특별시 강남구 대치동 테헤란로 518 섬유센터빌딩,37.5075512,127.060561,강남구
394,국민은행,삼성역,서울특별시 강남구 대치동 테헤란로 518 섬유센터빌딩 1층,37.5075512,127.060561,강남구
395,국민은행,삼성중앙역,서울특별시 강남구 삼성동 봉은사로 479,37.5131577,127.0526855,강남구
396,국민은행,삼성타운,서울특별시 서초구 서초동 서초대로74길 14 삼성물산본사 1층,37.49602489999999,127.0260799,서초구
397,국민은행,상계역,서울특별시 노원구 중계동 한글비석로 383,37.6589686,127.0726596,노원구
398,국민은행,상도동,서울특별시 동작구 상도동 상도로 190,37.504808,126.9397488,동작구
399,국민은행,상암DMC종금센터,서울특별시 마포구 상암동 월드컵북로54길 11 전자회관 1층,37.5808362,126.8883808,마포구
400,국민은행,상일동,서울특별시 강동구 상일동 상일로10길 36,37.5507517,127.174098,강동구
401,국민은행,서강,서울특별시 마포구 신수동 토정로 222 한국출판콘텐츠센터 1층,37.5443647,126.9353138,마포구
402,국민은행,서교동종합금융센터,서울특별시 마포구 동교동 양화로 147 아일렉스 2층,37.5559404,126.9220178,마포구
403,국민은행,서대문,서울특별시 서대문구 충정로2가 충정로 53 골든타워빌딩,37.5637294,126.9646376,서대문구
404,국민은행,서린동,서울특별시 종로구 서린동 청계천로 41 영풍빌딩 1층,37.5696304,126.9821706,종로구
405,국민은행,서소문,서울특별시 중구 순화동 세종대로7길 43 순화타워,37.5610848,126.9722405,중구
406,국민은행,서여의도영업부,서울특별시 영등포구 여의도동 의사당대로 13,37.5283603,126.9187716,영등포구
407,국민은행,서울숲,서울특별시 성동구 성수동1가 왕십리로 125,37.5436099,127.0428194,성동구
408,국민은행,서울숲PB센터,서울특별시 성동구 성수동1가 왕십리로 83-21 아크로 서울포레스트 디타워 스트리트동 B101-2호,37.5436099,127.0428194,성동구
409,국민은행,서울역,서울특별시 중구 남대문로5가 소월로2길 30 남산트라팰리스 1층,37.5538322,126.9757901,중구
410,국민은행,서울역환전센터(점),서울특별시 용산구 동자동 청파로 378 공항철도 서울역 지하2층,37.5535242,126.9696972,용산구
411,국민은행,서울의대(점),서울특별시 종로구 연건동 대학로 103 서울대 의과대학 융합관 1층,37.5807021,126.9994326,종로구
412,국민은행,서잠실,서울특별시 송파구 잠실동 석촌호수로 92,37.5082233,127.0871388,송파구
413,국민은행,서초2동,서울특별시 서초구 서초동 강남대로 329,37.4924108,127.0298141,서초구
414,국민은행,서초PB센터,서울특별시 서초구 서초동 서초중앙로24길 41 3층,37.49563430000001,127.0178411,서초구
415,국민은행,서초남,서울특별시 서초구 서초동 효령로 231,37.4840226,127.0094342,서초구
416,국민은행,서초동종합금융센터,서울특별시 서초구 서초동 서초중앙로24길 41,37.49563430000001,127.0178411,서초구
417,국민은행,서초무지개,서울특별시 서초구 서초동 효령로 402,37.4881185,127.0278217,서초구
418,국민은행,서초역,서울특별시 서초구 서초동 반포대로 111 2층,37.4899899,127.0082157,서초구
419,국민은행,서초중앙,서울특별시 서초구 서초동 서초중앙로 53,37.4865463,127.0149781,서초구
420,국민은행,석관동,서울특별시 성북구 석관동 돌곶이로 55,37.6086818,127.0589777,성북구
421,국민은행,석촌동,서울특별시 송파구 삼전동 삼학사로 99,37.5060659,127.0970067,송파구
422,국민은행,선릉역종합금융센터,서울특별시 강남구 대치동 테헤란로 412,37.5047651,127.0512517,강남구
423,국민은행,성산동,서울특별시 마포구 성산동 월드컵북로 68,37.5601637,126.9168728,마포구
424,국민은행,성수동,서울특별시 성동구 성수동2가 성수이로 51,37.5402636,127.0550814,성동구
425,국민은행,성수역종합금융센터,서울특별시 성동구 성수동2가3동 성수일로10길 32 창미빌딩 1층,37.5461657,127.0534909,성동구
426,국민은행,세검정,서울특별시 종로구 신영동 진흥로 488,37.6049192,126.9606761,종로구
427,국민은행,세종대,서울특별시 광진구 군자동 능동로 195-16,37.5481534,127.0733985,광진구
428,국민은행,세종로,서울특별시 종로구 수송동 종로5길 68 코리안리재보험빌딩 1층,37.5734244,126.980449,종로구
429,국민은행,송파개롱역,서울특별시 송파구 가락동 오금로 420,37.4956865,127.1184047,송파구
430,국민은행,송파종합금융센터,서울특별시 송파구 송파동 백제고분로 393,37.5051072,127.1135469,송파구
431,국민은행,송파헬리오시티,서울특별시 송파구 가락동 송파대로 345 헬리오시티 1-1A 상가,37.4976932,127.1066824,송파구
432,국민은행,수락산역(점),서울특별시 노원구 상계동 동일로 1701,37.6802697,127.0548888,노원구
433,국민은행,수색,서울특별시 은평구 수색동 수색로 246,37.5816195,126.8967788,은평구
434,국민은행,수서역,서울특별시 강남구 수서동 광평로 280 로즈데일오피스텔 2층,37.4873425,127.1030015,강남구
435,국민은행,수유동,서울특별시 강북구 수유동 도봉로 281,37.6334862,127.0230403,강북구
436,국민은행,스타시티PB센터,서울특별시 광진구 자양동 능동로 90 The Classic500 A동 2층,37.5387882,127.0711369,광진구
437,국민은행,신길동,서울특별시 영등포구 신길동 가마산로 480,37.5056822,126.9095472,영등포구
438,국민은행,신길서,서울특별시 영등포구 신길동 도신로 116,37.508031,126.9050484,영등포구
439,국민은행,신내동,서울특별시 중랑구 신내동 용마산로 631,37.6126006,127.1008186,중랑구
440,국민은행,신논현역,서울특별시 강남구 논현동 강남대로 500 논현빌딩,37.5165672,127.021503,강남구
441,국민은행,신당동,서울특별시 중구 신당동 퇴계로 381,37.56529159999999,127.0138041,중구
442,국민은행,신당역(점),서울특별시 중구 황학동 퇴계로 447 황학아크로타워 210호,37.5661712,127.0219095,중구
443,국민은행,신도림,서울특별시 구로구 신도림동 경인로 661 신도림1차푸르지오,37.5094204,126.8877437,구로구
444,국민은행,신도봉,서울특별시 도봉구 방학동 마들로 650 도봉월드빌딩상가 1층,37.6680262,127.0470738,도봉구
445,국민은행,신림남부,서울특별시 관악구 신림동 신림로 137,37.4711776,126.9340894,관악구
446,국민은행,신림본동종합금융센터,서울특별시 관악구 신림본동 신림로 318 청암두산위브센트로 1층,37.482603,126.9303857,관악구
447,국민은행,신림서,서울특별시 관악구 신림동 난곡로 257,37.4769732,126.9152563,관악구
448,국민은행,신사동종합금융센터,서울특별시 서초구 잠원동 강남대로 597,37.5150817,127.0192326,서초구
449,국민은행,신사중앙,서울특별시 강남구 신사동 도산대로 149 진우빌딩,37.5223298,127.02112,강남구
450,국민은행,신월뉴타운,서울특별시 양천구 신월동 신월로 180,37.5187894,126.8433584,양천구
451,국민은행,신월동,서울특별시 양천구 신월동 남부순환로 353,37.5356811,126.8289529,양천구
452,국민은행,신자양,서울특별시 광진구 자양동 뚝섬로 503,37.5361413,127.0662794,광진구
453,국민은행,신정네거리역,서울특별시 양천구 신정동 신월로 272,37.5215446,126.8512509,양천구
454,국민은행,신촌,서울특별시 서대문구 창천동 연세로 5,37.5561262,126.9365976,서대문구
455,국민은행,쌍문동,서울특별시 도봉구 쌍문동 도봉로 575,37.6533557,127.0271003,도봉구
456,국민은행,쌍문역,서울특별시 도봉구 창동 도봉로 494,37.6494642,127.0355862,도봉구
457,국민은행,아현동,서울특별시 마포구 아현동 신촌로 270 수창빌딩,37.5570633,126.9555275,마포구
458,국민은행,암사역,서울특별시 강동구 암사동 올림픽로 767,37.5496629,127.1269867,강동구
459,국민은행,압구정동,서울특별시 강남구 신사동 압구정로 320,37.5284952,127.0364174,강남구
460,국민은행,압구정역,서울특별시 강남구 신사동 압구정로 160,37.5262716,127.0272097,강남구
461,국민은행,압구정종합금융센터,서울특별시 강남구 신사동 논현로 833,37.5228154,127.0276475,강남구
462,국민은행,압구정중앙,서울특별시 강남구 신사동 압구정로 222,37.5284242,127.0317745,강남구
463,국민은행,약수역종합금융센터,서울특별시 중구 신당동 다산로11길 3,37.5544304,127.0100379,중구
464,국민은행,양재PB센터,서울특별시 서초구 양재동 강남대로 213 EL타워 2층,37.4829122,127.0350302,서초구
465,국민은행,양재남종합금융센터,서울특별시 서초구 양재동 논현로 79,37.4769091,127.0447787,서초구
466,국민은행,양재역종합금융센터,서울특별시 강남구 도곡동 강남대로 262 캠코양재타워,37.48859059999999,127.0452757,강남구
467,국민은행,양천,서울특별시 양천구 신정동 목동동로 67,37.5156751,126.8625247,양천구
468,국민은행,양평동종합금융센터,서울특별시 영등포구 양평동4가 선유로 265,37.5363174,126.8961515,영등포구
469,국민은행,언주로종합금융센터,서울특별시 강남구 논현동 언주로 706 우정빌딩,37.5136787,127.0317124,강남구
470,국민은행,여의도리버타워(점),서울특별시 영등포구 여의도동 63로 36,37.5194099,126.9386263,영등포구
471,국민은행,여의도영업부,서울특별시 영등포구 여의도동 국제금융로8길 26,37.5208742,126.9278871,영등포구
472,국민은행,여의도종합금융센터,서울특별시 영등포구 여의도동 여의나루로 50 한국교직원공제회관,37.5218307,126.9256238,영등포구
473,국민은행,역삼동종합금융센터,"서울특별시 강남구 역삼동 강남대로 298 푸르덴셜빌딩 1,2층",37.489976,127.0318135,강남구
474,국민은행,역삼역,서울특별시 강남구 역삼동 논현로 531 윤성빌딩 1층,37.5037331,127.0351197,강남구
475,국민은행,역삼중앙,서울특별시 강남구 역삼동 역삼로 175,37.4958159,127.038227,강남구
476,국민은행,역촌동,서울특별시 은평구 갈현동 서오릉로 188,37.621541,126.913578,은평구
477,국민은행,연신내종합금융센터,서울특별시 은평구 갈현동 통일로 861,37.621541,126.913578,은평구
478,국민은행,연희동,서울특별시 서대문구 연희동 연희로 113,37.568099,126.9315176,서대문구
479,국민은행,염창동,서울특별시 강서구 염창동 양천로 643,37.5538653,126.8693501,강서구
480,국민은행,영동,서울특별시 강남구 논현동 선릉로 601,37.5136787,127.0317124,강남구
481,국민은행,영등포,서울특별시 영등포구 영등포동4가 영등포로 208,37.5178903,126.9035759,영등포구
482,국민은행,영등포구청역,서울특별시 영등포구 당산동3가 당산로 133 서림빌딩 1층,37.5267327,126.8965064,영등포구
483,국민은행,영등포중기타운,서울특별시 영등포구 영등포동2가 버드나루로 47 고촌빌딩 1층,37.52270559999999,126.9108384,영등포구
484,국민은행,영등포하이테크센터,서울특별시 영등포구 문래동3가 경인로 775 에이스하이테크시티 1동 116호,37.5143974,126.8993822,영등포구
485,국민은행,오류동,서울특별시 구로구 오류동 경인로 176,37.4944241,126.8410728,구로구
486,국민은행,오장동,서울특별시 중구 쌍림동 동호로 336 한림빌딩 1층,37.5643411,127.0028005,중구
487,국민은행,옥수동,서울특별시 성동구 옥수동 독서당로 187 극동아파트상가 1층,37.5432656,127.0115516,성동구
488,국민은행,올림픽PB센터,서울특별시 송파구 방이동 양재대로 1222 올림픽상가,37.51593200000001,127.1320277,송파구
489,국민은행,왕십리,서울특별시 성동구 하왕십리동 왕십리로 410 센트라스상가 L동,37.5645516,127.0294514,성동구
490,국민은행,왕십리역,서울특별시 성동구 행당동 왕십리광장로 17 왕십리민자역사 1층,37.5612886,127.038382,성동구
491,국민은행,용답동,서울특별시 성동구 용답동 천호대로 320 장안빌딩 1층,37.5644963,127.055242,성동구
492,국민은행,용산종합금융센터,서울특별시 용산구 한강로3가 청파로 101 나진상가,37.53334600000001,126.9623221,용산구
493,국민은행,우면동(점),서울특별시 서초구 우면동 태봉로 62 네이처프라자 2층,37.4640472,127.0250245,서초구
494,국민은행,우장산역종합금융센터,서울특별시 강서구 화곡동 강서로 242 강서힐스테이트상가동,37.5471979,126.8368101,강서구
495,국민은행,월계동,서울특별시 노원구 월계동 광운로 61,37.6229367,127.0597075,노원구
496,국민은행,월곡역,서울특별시 성북구 하월곡동 화랑로 91,37.6046451,127.0393912,성북구
497,국민은행,은평로,서울특별시 은평구 응암동 은평로 147,37.6011549,126.9240674,은평구
498,국민은행,응암오거리,서울특별시 은평구 응암동 응암로 197,37.5896256,126.9168128,은평구
499,국민은행,이문동,서울특별시 동대문구 회기동 이문로 37,37.5908177,127.0560569,동대문구
500,국민은행,이수역,서울특별시 서초구 방배동 동작대로 120,37.48723469999999,126.9828062,서초구
501,국민은행,이촌PB센터,서울특별시 용산구 이촌1동 이촌로 206 2층,37.5208849,126.9698508,용산구
502,국민은행,이태원,서울특별시 용산구 이태원동 이태원로 186,37.5385051,126.9925224,용산구
503,국민은행,자양동,서울특별시 광진구 자양동 뚝섬로 632,37.5317573,127.0797341,광진구
504,국민은행,자양중앙(점),서울특별시 광진구 자양동 뚝섬로 558,37.5340724,127.0718277,광진구
505,국민은행,잠실,서울특별시 송파구 신천동 올림픽로 37길 130 파크리오상가 2층,37.5208648,127.1043128,송파구
506,국민은행,잠실롯데PB센터,서울특별시 송파구 잠실동 올림픽로 240 롯데호텔 4층,37.5112862,127.0979392,송파구
507,국민은행,잠실새내역,서울특별시 송파구 잠실동 올림픽로 102,37.5114661,127.081854,송파구
508,국민은행,잠실역,서울특별시 송파구 신천동 송파대로 562 한빛프라자 1층,37.51533149999999,127.0995423,송파구
509,국민은행,잠실중앙,서울특별시 송파구 잠실동 올림픽로 203,37.5124955,127.0933968,송파구
510,국민은행,장안동,서울특별시 동대문구 장안동 답십리로 297,37.5724724,127.0735187,동대문구
511,국민은행,장위동,"서울특별시 성북구 장위동 돌곶이로40길 46 꿈의숲아이파크 716동 상가 1,2층",37.6192563,127.0490476,성북구
512,국민은행,장한평역종합금융센터,서울특별시 동대문구 장안동 천호대로 405,37.5645064,127.0575456,동대문구
513,국민은행,전농동,서울특별시 동대문구 전농동 서울시립대로 50,37.5756915,127.0475978,동대문구
514,국민은행,정릉동,서울특별시 성북구 정릉4동 보국문로 50 청수프라자 2층,37.6088883,127.0101266,성북구
515,국민은행,제기동,서울특별시 동대문구 제기동 왕산로 127 경동대성빌딩,37.5784233,127.0374078,동대문구
516,국민은행,조원동,서울특별시 관악구 신림동 남부순환로 1375,37.4801128,126.9035026,관악구
517,국민은행,종로3가,서울특별시 종로구 종로3가 종로 123 고영빌딩 2층,37.57061789999999,126.9912737,종로구
518,국민은행,종로5종합금융센터,"서울특별시 종로구 종로4가 종로 199 한일빌딩 1,2층",37.5714235,126.9997728,종로구
519,국민은행,종로중앙종합금융센터,서울특별시 종로구 인사동 인사동5길 29 태화빌딩 1층,37.5719509,126.9848298,종로구
520,국민은행,종암동,서울특별시 성북구 종암동 종암로 44,37.5940345,127.0366681,성북구
521,국민은행,중계동,서울특별시 노원구 중계동 섬밭로 258 건영옴니백화점 2층,37.6388263,127.0647546,노원구
522,국민은행,중계북,서울특별시 노원구 중계동 한글비석로 261,37.650919,127.0763734,노원구
523,국민은행,중곡동,서울특별시 광진구 중곡동 용마산로 63,37.5592744,127.0873633,광진구
524,국민은행,중부,서울특별시 중구 초동 충무로 29,37.5637746,126.9924292,중구
525,국민은행,중앙보훈병원(점),서울특별시 강동구 둔촌동 진황도로 61길 53 중앙관 지하1층,37.5296969,127.1477172,강동구
526,국민은행,중화동,서울특별시 중랑구 중화동 동일로 757,37.5979776,127.0797589,중랑구
527,국민은행,증권타운,서울특별시 영등포구 여의도동 여의나루로 67 신송빌딩,37.5234836,126.9265035,영등포구
528,국민은행,창동종합금융센터,서울특별시 도봉구 창동 노해로 383,37.65261599999999,127.0507314,도봉구
529,국민은행,창신동,서울특별시 종로구 창신동 종로 330,37.5733483,127.0096933,종로구
530,국민은행,천호역,서울특별시 강동구 성내동 천호대로 1032,37.5372911,127.1265275,강동구
531,국민은행,청계,서울특별시 종로구 예지동 청계천로 199,37.5696363,126.9983079,종로구
532,국민은행,청담동,서울특별시 강남구 청담동 도산대로 524 청담빌딩,37.52418,127.0510513,강남구
533,국민은행,청담스타PB센터,서울특별시 강남구 청담동 압구정로 416 트리니티플레이스빌딩 6층,37.5269156,127.0424194,강남구
534,국민은행,청담역,서울특별시 강남구 청담동 삼성로 706,37.5193619,127.0503292,강남구
535,국민은행,청담영동(점),서울특별시 강남구 청담동 영동대로 720,37.5222132,127.0565181,강남구
536,국민은행,청량리종합금융센터,서울특별시 동대문구 제기동 왕산로 181,37.5798639,127.0431813,동대문구
537,국민은행,충무로역종합금융센터,서울특별시 중구 충무로4가 퇴계로 213,37.5623301,126.9958453,중구
538,국민은행,태릉역종합금융센터,서울특별시 노원구 공릉동 동일로 1022,37.6304722,127.0909904,노원구
539,국민은행,태평로(점),서울특별시 중구 태평로1가 세종대로 135 코리아나호텔,37.5681809,126.9765031,중구
540,국민은행,테크노마트종금센터,서울특별시 광진구 구의동 광나루로56길 85,37.5356993,127.095765,광진구
541,국민은행,테헤란로,"서울특별시 강남구 역삼동 테헤란로 334 교정공제회빌딩 2,3층",37.5039451,127.0485253,강남구
542,국민은행,테헤란중앙,서울특별시 강남구 역삼동 언주로 508 공무원연금공단,37.5038595,127.0431599,강남구
543,국민은행,퇴계로,서울특별시 중구 남창동 남대문시장8길 2,37.5603075,126.9784487,중구
544,국민은행,학동,서울특별시 강남구 신사동 도산대로 237 현대벨로스 2층,37.5216406,127.033017,강남구
545,국민은행,학동사거리,서울특별시 강남구 신사동 선릉로 801 배강빌딩 1층,37.523319,127.0385204,강남구
546,국민은행,학동역(점),"서울특별시 강남구 논현동 논현로 667 1,2층",37.513655,127.0304903,강남구
547,국민은행,한남PB센터,서울특별시 용산구 한남동 이태원로 267 르베이지빌딩 3층,37.5384336,127.0013658,용산구
548,국민은행,한남동,서울특별시 용산구 한남동 한남대로21길 8,37.5345345,127.0061009,용산구
549,국민은행,한성백제역,서울특별시 송파구 방이동 백제고분로 501,37.5152322,127.1146774,송파구
550,국민은행,한티역,서울특별시 강남구 대치동 도곡로 408 103호,37.4966877,127.0552639,강남구
551,국민은행,합정역,서울특별시 마포구 합정동 양화로 45 메세나폴리스 1층,37.5509108,126.9137604,마포구
552,국민은행,혜화동,서울특별시 종로구 명륜동2가 창경궁로 260,37.5844108,127.0005442,종로구
553,국민은행,홍대입구역환전센터점,서울특별시 마포구 동교동 양화로 188 공항철도 홍대입구역 지하2층,37.557722,126.925262,마포구
554,국민은행,홍제동,서울특별시 서대문구 홍제동 통일로 464 홍제빌딩,37.5885037,126.9437778,서대문구
555,국민은행,화곡동종합금융센터,서울특별시 강서구 화곡동 곰달래로 133,37.5309546,126.8477278,강서구
556,국민은행,화곡역,서울특별시 강서구 화곡동 강서로 177,37.5421751,126.839536,강서구
557,국민은행,화양동,서울특별시 성동구 성수동2가 광나루로 310 푸조비즈타워 1층,37.54781639999999,127.0644339,성동구
558,국민은행,훼밀리타운,서울특별시 송파구 문정동 중대로 80 문정프라자,37.491602,127.1162915,송파구
559,국민은행,휘경동,서울특별시 동대문구 휘경동 망우로 123,37.5917759,127.0664945,동대문구
560,국민은행,흑석동,서울특별시 동작구 흑석동 서달로 158,37.5073375,126.9623126,동작구
561,대구은행,강남영업부,서울특별시 강남구 영동대로520,37.5137373,127.0610794,강남구
562,대구은행,서울영업부,서울특별시 중구 남문대로125,37.5603636,126.9765921,중구
563,대구은행,여의도지점,서울특별시 영등포구 여의대로66,37.5244869,126.9237678,영등포구
564,부산은행,강남,서울특별시 서초구 서초동 강남대로 279,37.4880855,127.0316439,서초구
565,부산은행,구로디지털,"서울특별시 구로구 구로동 디지털로 288,",37.483678,126.8954192,구로구
566,부산은행,서울금융센터,서울특별시 중구 을지로1가 무교로 6,37.5664848,126.9795046,중구
567,부산은행,성수동,서울특별시 성동구 성수동 아차산로 92,37.5448616,127.0542854,성동구
568,부산은행,여의도,서울특별시 영등포구 여의도동 국제금융로2길 24,37.5242533,126.9248806,영등포구
569,부산은행,잠실,서울특별시 송파구 잠실동 백제고분로 91,37.5086197,127.0793954,송파구
570,부산은행,홍대역,서울특별시 마포구 동교동 양화로 156,37.5560787,126.9234503,마포구
571,산업은행,가산,서울특별시 금천구 가산동 가산디지털1로 128,37.4772198,126.8837443,금천구
572,산업은행,강남,서울특별시 강남구 대치동 영동대로 421,37.5067954,127.0630729,강남구
573,산업은행,구로디지털,서울특별시 구로구 구로동 디지털로 300,37.4848943,126.8965401,구로구
574,산업은행,노원,서울특별시 노원구 상계동 노해로 467,37.654481,127.0599273,노원구
575,산업은행,도곡,서울특별시 강남구 도곡동 남부순환로 2803,37.4897783,127.0506508,강남구
576,산업은행,마곡,서울특별시 강서구 마곡동 공항대로 200,37.5706297,126.8298909,강서구
577,산업은행,마포,서울특별시 마포구 서교동 양화로 127,37.5548774,126.9204945,마포구
578,산업은행,반포,서울특별시 서초구 반포동 반포대로 287,37.5043394,127.0008523,서초구
579,산업은행,서소문,서울특별시 중구 서소문동 서소문로 115,37.5631664,126.9739275,중구
580,산업은행,서초,서울특별시 서초구 서초동 서초대로78길 5,37.4973314,127.0272671,서초구
581,산업은행,성동,서울특별시 성동구 성수동2가 성수이로20길 3,37.5437131,127.0571972,성동구
582,산업은행,압구정,서울특별시 강남구 신사동 논현로 878,37.527062,127.0289767,강남구
583,산업은행,여의도,서울특별시 영등포구 여의도동 의사당대로 97,37.5225219,126.9244722,영등포구
584,산업은행,영업부,서울특별시 영등포구 여의도동 은행로 14,37.5270602,126.9209124,영등포구
585,산업은행,잠실,서울특별시 송파구 신천동 올림픽로 289,37.5146219,127.1025206,송파구
586,산업은행,잠원,서울특별시 서초구 잠원동 강남대로 565,37.5122154,127.0202946,서초구
587,산업은행,종로,서울특별시 종로구 중학동 율곡로 6,37.5753126,126.9796775,종로구
588,산업은행,한티,서울특별시 강남구 대치동 도곡로 408,37.4966877,127.0552639,강남구
589,수협은행,DMC금융센터,서울특별시 은평구 증산동 수색로 200,37.5842799,126.8925933,은평구
590,수협은행,가락동금융센터,서울특별시 송파구 가락동 양재대로 932 가락동 농수산물도매시장 내 판매동 2층 2-1호,37.4934824,127.1115038,송파구
591,수협은행,가락시장출장소,"서울특별시 송파구 가락동 양재대로 932, 수산물시장동 2층 901-1호",37.4934824,127.1115038,송파구
592,수협은행,가산디지털금융센터,서울특별시 금천구 가산동 가마산로 96 101호,37.4852521,126.8774325,금천구
593,수협은행,강남기업금융본부,서울특별시 강남구 역삼동 논현로 507 성지하이츠3차 1층,37.5015391,127.0361428,강남구
594,수협은행,강서시장출장소,서울특별시 강서구 외발산동 발산로 24,37.5528921,126.8187559,강서구
595,수협은행,공덕금융센터,서울특별시 마포구 공덕동 만리재로 14,37.5439983,126.952885,마포구
596,수협은행,공릉동금융센터,서울특별시 노원구 공릉동 동일로 1114,37.6304722,127.0909904,노원구
597,수협은행,교대역지점,서울특별시 서초구 서초동 서초중앙로 138,37.494232,127.0139806,서초구
598,수협은행,금천지점,서울특별시 금천구 독산동 시흥대로 315,37.4610938,126.8967995,금천구
599,수협은행,길동금융센터,서울특별시 강동구 길동 양재대로 1494,37.5389511,127.1408776,강동구
600,수협은행,노량진수산시장지점,서울특별시 동작구 노량진동 노들로 674 2층,37.514742,126.9377884,동작구
601,수협은행,녹번동지점,서울특별시 은평구 녹번동 서오릉로 15,37.6024916,126.9258522,은평구
602,수협은행,당산역지점,서울특별시 영등포구 당산동6가 양평로 64,37.53524609999999,126.9000511,영등포구
603,수협은행,대림동지점,서울특별시 영등포구 대림동 대림로 182,37.4972327,126.8992136,영등포구
604,수협은행,동대문금융센터,서울특별시 중구 신당동 마장로1길 25,37.5691517,127.0118922,중구
605,수협은행,동소문동지점,서울특별시 성북구 동소문동4가 동소문로 47,37.5917567,127.0106559,성북구
606,수협은행,뚝섬역지점,"서울특별시 성동구 성수동1가 성수일로 77, 제108호, 제109호",37.547478,127.0498957,성동구
607,수협은행,마곡역지점,"서울특별시 강서구 마곡동 공항대로 168, 마곡 747 203호,204호,205호",37.5595407,126.8193505,강서구
608,수협은행,마포금융센터,서울특별시 마포구 용강동 토정로 300,37.5404969,126.9423549,마포구
609,수협은행,목동역지점,"서울특별시 양천구 신정동 오목로 232, 보성팰리스 114호",37.5257006,126.8630321,양천구
610,수협은행,미아역지점,서울특별시 강북구 미아동 도봉로 191,37.6257684,127.0260309,강북구
611,수협은행,본점영업부,"서울특별시 송파구 신천동 오금로 62, 1층",37.5162492,127.1053979,송파구
612,수협은행,봉천동지점,서울특별시 관악구 봉천동 쑥고개로 91,37.4794427,126.946812,관악구
613,수협은행,사당역지점,서울특별시 동작구 사당동 동작대로 43,37.4803477,126.9813344,동작구
614,수협은행,상봉역지점,서울특별시 중랑구 상봉동 면목로 492,37.5959089,127.0859996,중랑구
615,수협은행,서울중앙금융센터,"서울특별시 중구 다동 남대문로 117, 1층",37.5677651,126.9823112,중구
616,수협은행,서초동금융센터,"서울특별시 서초구 서초동 강남대로 349, 우남빌딩 1층",37.4939326,127.0290045,서초구
617,수협은행,송파역지점,서울특별시 송파구 석촌동 송파대로 389,37.5020665,127.1094447,송파구
618,수협은행,수유동지점,서울특별시 강북구 수유동 노해로 43,37.6394933,127.0223909,강북구
619,수협은행,신당역지점,"서울특별시 중구 흥인동 퇴계로 395, 일신빌딩",37.56731,127.0163823,중구
620,수협은행,신사역지점,"서울특별시 강남구 논현동 도산대로 114, 수일빌딩 1층",37.5164106,127.021203,강남구
621,수협은행,신설동역지점,서울특별시 동대문구 신설동 천호대로 2,37.5750443,127.0235713,동대문구
622,수협은행,쌍문동지점,서울특별시 도봉구 쌍문동 도봉로 475,37.6533557,127.0271003,도봉구
623,수협은행,암사역지점,서울특별시 강동구 암사동 올림픽로 782,37.5509514,127.1281278,강동구
624,수협은행,압구정금융센터,서울특별시 강남구 신사동 논현로 839,37.5236548,127.0278045,강남구
625,수협은행,양재금융센터,서울특별시 서초구 서초동 남부순환로 2569,37.4846268,127.0317446,서초구
626,수협은행,양재동지점,"서울특별시 서초구 양재동 바우뫼로 184, 향천빌딩",37.4785828,127.0403214,서초구
627,수협은행,여의도금융센터,서울특별시 영등포구 여의도동 국회대로 68길 11호,37.5291973,126.9196889,영등포구
628,수협은행,여의도종합금융본부,"서울특별시 영등포구 여의도동 국제금융로 6길 26, 한국노총복지센터",37.521919,126.9269466,영등포구
629,수협은행,역삼금융센터,서울특별시 강남구 역삼동 논현로 507 성지하이츠3차 1층,37.5015391,127.0361428,강남구
630,수협은행,역삼동지점,"서울특별시 강남구 역삼동 테헤란로 134, 포스틸타워",37.4994051,127.0337438,강남구
631,수협은행,연희로금융센터,서울특별시 마포구 연남동 연희로 39,37.5624095,126.9272692,마포구
632,수협은행,영등포금융센터,"서울특별시 영등포구 영등포동7가 국회대로 50길 20, 포레나영등포 204-207호",37.5233829,126.9056134,영등포구
633,수협은행,오금동금융센터,"서울특별시 송파구 오금동 동남로 317, 104호, 201호",37.5039024,127.1381747,송파구
634,수협은행,용산역지점,"서울특별시 용산구 한강로2가 한강대로 69, 203호, 204-1호, 204-2호",37.527275,126.9652809,용산구
635,수협은행,을지로지점,서울특별시 중구 오장동 마른내로 111,37.5646203,127.0002727,중구
636,수협은행,일원역지점,"서울특별시 강남구 일원동 일원로 115, 삼성생명 일원역빌딩 102~107호",37.4890175,127.0824833,강남구
637,수협은행,장안평지점,서울특별시 동대문구 장안동 천호대로 381,37.5645064,127.0575456,동대문구
638,수협은행,종로5가역지점,서울특별시 종로구 종로5가 종로 207,37.5714252,127.0007096,종로구
639,수협은행,중부기업금융본부,서울특별시 중구 다동 남대문로117,37.5677651,126.9823112,중구
640,수협은행,중화동금융센터,서울특별시 중랑구 묵동 동일로 773,37.5976182,127.0790622,중랑구
641,수협은행,테헤란로금융센터,"서울특별시 강남구 대치동 테헤란로 418, 다봉빌딩 1층",37.50512519999999,127.0521327,강남구
642,수협은행,학동역금융센터,서울특별시 강남구 논현동 학동로 206 동화빌딩 1층,37.513849,127.0314899,강남구
643,수협은행,한국과학기술회관출장소,서울특별시 강남구 역삼동 테헤란로7길 22,37.500961,127.0306229,강남구
644,수협은행,홍대역금융센터,"서울특별시 마포구 동교동 양화로 165, 2층",37.5572035,126.9236665,마포구
645,수협은행,화곡역지점,서울특별시 강서구 화곡동 화곡로 179,37.5423009,126.8413044,강서구
646,신한은행,FI영업1부,서울 영등포구 여의도동 국제금융로2길 17,37.5240663,126.9260095,영등포구
647,신한은행,FI영업2부,서울 영등포구 여의도동 국제금융로2길 17,37.5240663,126.9260095,영등포구
648,신한은행,FI영업3부,서울 영등포구 여의도동 국제금융로2길 17,37.5240663,126.9260095,영등포구
649,신한은행,GS타워,서울 강남구 역삼동 논현로 508,37.5020938,127.0367984,강남구
650,신한은행,GS타워대기업금융센터,서울 강남구 역삼동 논현로 508,37.5020938,127.0367984,강남구
651,신한은행,KBS,서울 영등포구 여의도동 여의공원로 13,37.5253618,126.916382,영등포구
652,신한은행,KBS미디어센터(출),서울 마포구 상암동 매봉산로 45,37.5764972,126.8909117,마포구
653,신한은행,가락동,서울 송파구 가락동 송파대로 268,37.4937469,127.1183931,송파구
654,신한은행,가락동기업금융센터,서울 송파구 가락동 송파대로 268,37.4937469,127.1183931,송파구
655,신한은행,가산디지털기업금융센터,서울 금천구 가산동 디지털로 130,37.4754751,126.8817691,금천구
656,신한은행,가양역,서울 강서구 등촌동 화곡로 416,37.5600431,126.8554733,강서구
657,신한은행,가양역기업금융센터,서울 강서구 등촌동 화곡로 416,37.5600431,126.8554733,강서구
658,신한은행,강남구청,서울 강남구 삼성동 학동로 426,37.5175686,127.0474869,강남구
659,신한은행,강남구청역,서울 강남구 삼성동 학동로 402,37.5169928,127.0417958,강남구
660,신한은행,강남대기업금융센터,서울 강남구 대치동 테헤란로 522,37.5078874,127.0613547,강남구
661,신한은행,강남대로,서울 서초구 서초동 강남대로 327,37.4920527,127.0297349,서초구
662,신한은행,강남역금융센터,서울 서초구 서초동 서초대로 398,37.496646,127.0251292,서초구
663,신한은행,강남중앙,서울 강남구 역삼동 테헤란로 146,37.4999942,127.0354155,강남구
664,신한은행,강남중앙기업금융1센터,서울 강남구 역삼동 테헤란로 147,37.5009488,127.0355183,강남구
665,신한은행,강남중앙기업금융2센터,서울 강남구 역삼동 테헤란로 147,37.5009488,127.0355183,강남구
666,신한은행,강동금융센터,서울 강동구 천호동 올림픽로 674,37.5415576,127.1248917,강동구
667,신한은행,강북구청,서울 강북구 수유동 도봉로89길 13,37.639544,127.0254728,강북구
668,신한은행,강북금융센터,서울 강북구 번동 도봉로 364,37.6395923,127.0278628,강북구
669,신한은행,개롱역,서울 송파구 가락동 오금로 396,37.4956865,127.1184047,송파구
670,신한은행,개봉동,서울 구로구 개봉동 경인로 323,37.497634,126.8561236,구로구
671,신한은행,개포동,서울 강남구 개포동 개포로 307,37.4839728,127.0560141,강남구
672,신한은행,갤러리아팰리스,서울 송파구 잠실동 올림픽로 212,37.5111034,127.0939188,송파구
673,신한은행,건국대학교,서울 광진구 화양동 능동로 120,37.5425408,127.0737253,광진구
674,신한은행,건국대학교병원(출),서울 광진구 화양동 능동로 120-1,37.5404425,127.072107,광진구
675,신한은행,검찰청(출),서울 서초구 서초동 법원로 15,37.4941422,127.0098761,서초구
676,신한은행,경희궁,서울 종로구 내수동 새문안로3길 23,37.5726204,126.9722454,종로구
677,신한은행,고덕동,서울 강동구 고덕동 고덕로 353,37.5579056,127.162626,강동구
678,신한은행,공덕금융센터,서울 마포구 공덕동 백범로 192,37.543232,126.9516129,마포구
679,신한은행,공항동,서울 강서구 공항동 공항대로 17,37.56189579999999,126.8093825,강서구
680,신한은행,광교기업영업부,서울 중구 삼각동 청계천로 54,37.5682073,126.9835429,중구
681,신한은행,광교영업부,서울 중구 삼각동 청계천로 54,37.5682073,126.9835429,중구
682,신한은행,광장동,서울 광진구 광장동 아차산로 506,37.5414171,127.0976337,광진구
683,신한은행,광화문,서울 중구 태평로1가 세종대로 135-5,37.56770180000001,126.9772803,중구
684,신한은행,교대역,서울 서초구 서초동 서초대로 314,37.4940977,127.0158607,서초구
685,신한은행,구로구청,서울 구로구 구로동 가마산로 245,37.4952909,126.8876545,구로구
686,신한은행,구로디지털금융센터,서울 구로구 구로동 디지털로 272,37.4824969,126.8944527,구로구
687,신한은행,구로역,서울 구로구 구로동 경인로 557,37.5031092,126.8790949,구로구
688,신한은행,구로역기업금융센터,서울 구로구 구로동 경인로 557,37.5031092,126.8790949,구로구
689,신한은행,구파발역금융센터,서울 은평구 진관동 진관2로 15-8,37.635361,126.9196036,은평구
690,신한은행,국립중앙의료원(출),서울 중구 을지로6가 을지로 245,37.5677844,127.0068849,중구
691,신한은행,군인공제회관,서울 강남구 도곡동 남부순환로 2806,37.4892827,127.0528042,강남구
692,신한은행,군자역,서울 광진구 중곡동 천호대로 553,37.5573989,127.0799164,광진구
693,신한은행,굽은다리역,서울 강동구 명일동 양재대로 1568,37.5453969,127.1433033,강동구
694,신한은행,그랜드코리아레저(출),서울 강남구 삼성동 테헤란로87길 58,37.5125207,127.0588194,강남구
695,신한은행,기업영업부,서울 중구 태평로2가 세종대로9길 20,37.5610295,126.9747497,중구
696,신한은행,길동,서울 강동구 길동 양재대로 1464,37.5365371,127.1398439,강동구
697,신한은행,길음동,서울 성북구 길음동 동소문로 229,37.6025775,127.0221259,성북구
698,신한은행,김포공항,서울 강서구 공항동 하늘길 112,37.5567557,126.8084734,강서구
699,신한은행,김포공항화물청사(출),서울 서초구 서초동 법원로 15,37.4941422,127.0098761,서초구
700,신한은행,난곡,서울 관악구 신림동 난우길 2,37.4732258,126.9191741,관악구
701,신한은행,남가좌동,서울 서대문구 북가좌동 수색로 56,37.5708579,126.9126009,서대문구
702,신한은행,남대문,서울 중구 남창동 소월로 3-0,37.5596278,126.9776627,중구
703,신한은행,남부법원,서울 양천구 신정동 신월로 386,37.5216131,126.8641762,양천구
704,신한은행,노량진역,서울 동작구 노량진동 만양로 105,37.5128993,126.9439789,동작구
705,신한은행,노원역,서울 노원구 상계동 동일로 1404,37.6540158,127.0611313,노원구
706,신한은행,노원을지병원(출),서울 노원구 하계동 한글비석로 68,37.6364607,127.0699252,노원구
707,신한은행,논현동,서울 강남구 역삼동 강남대로 468,37.5000776,127.0385419,강남구
708,신한은행,논현동기업금융센터,서울 강남구 역삼동 강남대로 468,37.5000776,127.0385419,강남구
709,신한은행,답십리,서울 동대문구 답십리동 전농로 22,37.5666515,127.0567636,동대문구
710,신한은행,당산동,서울 영등포구 당산동2가 영등포로 109,37.5224833,126.8937056,영등포구
711,신한은행,당산역금융센터,서울 영등포구 당산동4가 당산로41길 11,37.5308587,126.8982998,영등포구
712,신한은행,대검찰청(출),서울 서초구 서초동 법원로 15,37.4941422,127.0098761,서초구
713,신한은행,대기업FI센터,서울 영등포구 여의도동 국제금융로2길 17,37.5240663,126.9260095,영등포구
714,신한은행,대기업강북센터,서울 중구 태평로2가 세종대로9길 20,37.5610295,126.9747497,중구
715,신한은행,대기업영업1부,서울 중구 태평로2가 세종대로9길 20,37.5610295,126.9747497,중구
716,신한은행,대기업영업2부,서울 중구 태평로2가 세종대로9길 20,37.5610295,126.9747497,중구
717,신한은행,대기업영업3부,서울 중구 태평로2가 세종대로9길 20,37.5610295,126.9747497,중구
718,신한은행,대림동,서울 영등포구 대림동 시흥대로 617,37.4876732,126.9048152,영등포구
719,신한은행,대법원(출),서울 서초구 서초동 법원로 15,37.4941422,127.0098761,서초구
720,신한은행,대치동,서울 강남구 대치동 삼성로 238,37.4986375,127.0614624,강남구
721,신한은행,대치역,서울 강남구 대치동 삼성로 150,37.4933928,127.0673501,강남구
722,신한은행,대학로금융센터,서울 종로구 혜화동 대학로 146,37.5842484,127.0020771,종로구
723,신한은행,대한항공(출),서울 서초구 서초동 법원로 15,37.4941422,127.0098761,서초구
724,신한은행,대흥역,서울 마포구 대흥동 백범로 88,37.5480104,126.9412253,마포구
725,신한은행,도곡,서울 강남구 역삼동 역삼로 310,37.499217,127.0484398,강남구
726,신한은행,도곡역,서울 강남구 대치동 남부순환로 2912,37.4908388,127.0572409,강남구
727,신한은행,도산대로,서울 강남구 논현동 도산대로 318,37.5220158,127.0363493,강남구
728,신한은행,독산동금융센터,서울 금천구 독산동 시흥대로 446,37.4731871,126.8988096,금천구
729,신한은행,돈암동,서울 성북구 동소문동6가 동소문로 89,37.5926634,127.0154493,성북구
730,신한은행,돌곶이역,서울 성북구 석관동 화랑로 254,37.6108147,127.0576668,성북구
731,신한은행,동국대학교,서울 중구 필동3가 필동로1길 30,37.5592871,126.9985627,중구
732,신한은행,동대문,서울 중구 신당동 마장로 11,37.568467,127.0114114,중구
733,신한은행,동대문종합시장,서울 종로구 종로6가 종로 272,37.5719508,127.0076798,종로구
734,신한은행,동부법원,서울 송파구 문정동 법원로 101,37.4834718,127.1196457,송파구
735,신한은행,동부이촌동,서울 용산구 이촌동 이촌로 293,37.5184674,126.9794543,용산구
736,신한은행,동부지방검찰청(출),서울 송파구 문정동 정의로 30,37.4826885,127.1179378,송파구
737,신한은행,둔촌동,서울 강동구 성내동 양재대로 1315,37.5304933,127.128992,강동구
738,신한은행,등촌역,서울 양천구 목동 공항대로 532,37.55065510000001,126.8650845,양천구
739,신한은행,디지털중앙,서울 금천구 가산동 가산디지털1로 186,37.4819819,126.8815359,금천구
740,신한은행,디지털중앙기업금융센터,서울 금천구 가산동 가산디지털1로 186,37.4819819,126.8815359,금천구
741,신한은행,뚝섬역금융센터,서울 성동구 성수동1가 아차산로 33,37.547351,127.0484429,성동구
742,신한은행,마곡역금융센터,서울 강서구 마곡동 공항대로 195,37.5706297,126.8298909,강서구
743,신한은행,마들역,서울 노원구 상계동 동일로 1546,37.6665071,127.0577043,노원구
744,신한은행,마포,서울 마포구 공덕동 마포대로 136,37.5463493,126.9532767,마포구
745,신한은행,마포중앙,서울 마포구 도화동 마포대로 68,37.5413357,126.9489897,마포구
746,신한은행,명동,서울 중구 명동1가 명동길 43,37.5640027,126.9847423,중구
747,신한은행,명동기업금융센터,서울 중구 명동1가 명동길 43,37.5640027,126.9847423,중구
748,신한은행,명동대기업금융센터,서울 중구 소공동 소공로 94,37.5633129,126.9804576,중구
749,신한은행,명동대기업태광산업(출),서울 중구 장충동2가 동호로 310,37.5618861,127.003385,중구
750,신한은행,명일역,서울 강동구 명일동 구천면로 427,37.5505389,127.1461447,강동구
751,신한은행,목동,서울 양천구 신정동 목동서로 349,37.5174938,126.8654977,양천구
752,신한은행,목동역,서울 양천구 목동 목동로 212,37.5288229,126.8678406,양천구
753,신한은행,목동중앙,서울 양천구 목동 목동동로 411,37.5367306,126.8822117,양천구
754,신한은행,목동현대금융센터,서울 양천구 목동 목동동로 293,37.5281764,126.8758132,양천구
755,신한은행,무역센터,서울 강남구 삼성동 영동대로 513,37.5125207,127.0588194,강남구
756,신한은행,무역센터기업금융센터,서울 강남구 삼성동 영동대로 513,37.5125207,127.0588194,강남구
757,신한은행,문정역금융센터,서울 송파구 문정동 송파대로 167,37.4855846,127.1225635,송파구
758,신한은행,미아동,서울 강북구 미아동 도봉로 151,37.6223097,127.0273811,강북구
759,신한은행,미아동복합청사(출),서울 강북구 미아동 솔매로49길 14,37.6270621,127.0269669,강북구
760,신한은행,반포남금융센터,서울 서초구 반포동 서초중앙로 238,37.5029529,127.0120638,서초구
761,신한은행,반포래미안,서울 서초구 반포동 반포대로 287,37.5043394,127.0008523,서초구
762,신한은행,반포서래,서울 서초구 반포동 서래로 34,37.4980954,126.9985947,서초구
763,신한은행,반포중앙,서울 서초구 잠원동 잠원로3길 40,37.5081523,127.0037071,서초구
764,신한은행,방배,서울 서초구 방배동 방배로 148,37.4871965,126.9942775,서초구
765,신한은행,방배기업금융센터,서울 서초구 방배동 방배로 148,37.4871965,126.9942775,서초구
766,신한은행,방학동,서울 도봉구 방학동 방학로 136,37.6631364,127.0369284,도봉구
767,신한은행,방화역,서울 강서구 방화동 금낭화로 135,37.5775014,126.8124826,강서구
768,신한은행,법조타운,서울 서초구 서초동 법원로 15,37.4941422,127.0098761,서초구
769,신한은행,법조타운법원(출),서울 서초구 서초동 서초중앙로 157,37.4970107,127.0114103,서초구
770,신한은행,보라매,서울 동작구 신대방동 보라매로5가길 24,37.4906907,126.9239521,동작구
771,신한은행,보라매병원(출),서울 동작구 신대방동 보라매로 5길 20,37.4937715,126.9242962,동작구
772,신한은행,보라매역금융센터,서울 동작구 대방동 상도로 1,37.5002046,126.9207313,동작구
773,신한은행,보문동,서울 성북구 보문동2가 보문로 121,37.5857569,127.0182315,성북구
774,신한은행,봉은사로,서울 강남구 삼성동 봉은사로 609,37.514731,127.0613492,강남구
775,신한은행,북부지방검찰청(출),서울 도봉구 도봉동 마들로 747,37.6764168,127.0462654,도봉구
776,신한은행,불광동,서울 은평구 불광동 통일로 730,37.6108017,126.9300861,은평구
777,신한은행,사가정역,서울 중랑구 면목동 면목로 342,37.58242389999999,127.0888167,중랑구
778,신한은행,사당,서울 동작구 사당동 동작대로 35,37.4796138,126.9809382,동작구
779,신한은행,삼성대기업금융센터,서울 서초구 서초동 서초대로74길 4,37.4967437,127.0257861,서초구
780,신한은행,삼성서울병원,서울 강남구 일원동 일원로 81,37.4886619,127.0859826,강남구
781,신한은행,삼성역,서울 강남구 대치동 테헤란로 516,37.5072323,127.0600859,강남구
782,신한은행,삼성역기업금융센터,서울 강남구 대치동 테헤란로 516,37.5072323,127.0600859,강남구
783,신한은행,상도역,서울 동작구 상도동 상도로 241,37.5053121,126.9456719,동작구
784,신한은행,상봉역금융센터,서울 중랑구 상봉동 면목로 460,37.5930385,127.0866237,중랑구
785,신한은행,상암동금융센터,서울 마포구 상암동 월드컵북로 361,37.5770713,126.8913808,마포구
786,신한은행,서경대학교(출),서울 성북구 정릉동 서경로 124,37.6151112,127.0124279,성북구
787,신한은행,서교동,서울 마포구 서교동 양화로 111,37.5537858,126.9190121,마포구
788,신한은행,서대문역,서울 서대문구 충정로2가 충정로 77,37.5654792,126.9659707,서대문구
789,신한은행,서부법원,서울 마포구 공덕동 마포대로 174,37.54943859999999,126.9554936,마포구
790,신한은행,서소문,서울 중구 서소문동 서소문로 116,37.5631664,126.9739275,중구
791,신한은행,서소문2청사(출),서울 중구 서소문동 서소문로 124,37.5631664,126.9739275,중구
792,신한은행,서소문청사(출),서울 중구 서소문동 덕수궁길 15,37.5643082,126.9744408,중구
793,신한은행,서여의도,서울 영등포구 여의도동 국회대로70길 19,37.5292328,126.9208199,영등포구
794,신한은행,서여의도기업금융센터,서울 영등포구 여의도동 국회대로 70길 18,37.5289314,126.9203375,영등포구
795,신한은행,서울가정행정법원(출),서울 서초구 양재동 강남대로 193,37.4719823,127.0374623,서초구
796,신한은행,서울광장(출),서울 중구 을지로1가 을지로 16,37.5659874,126.9805864,중구
797,신한은행,서울남부지방법원등기국(출),서울 영등포구 문래동1가 경인로 772,37.5123796,126.8971992,영등포구
798,신한은행,서울대역센터,서울 관악구 봉천동 남부순환로 1778,37.4814862,126.9474906,관악구
799,신한은행,서울대학교,서울 관악구 신림동 관악로 1,37.480967,126.953148,관악구
800,신한은행,서울대학교병원,서울 종로구 연건동 대학로 101,37.5791563,126.9987965,종로구
801,신한은행,서울대학교연구공원(출),서울 관악구 봉천동 낙성대로15길 56-39,37.4670274,126.9613433,관악구
802,신한은행,서울롯데,서울 중구 소공동 을지로 30,37.5648094,126.9810897,중구
803,신한은행,서울서부지방법원등기국(출),서울 마포구 아현동 아현동 783,37.5520729,126.9548368,마포구
804,신한은행,서울소방재난본부(출),서울 중구 예장동 퇴계로26길 52,37.5589194,126.9890189,중구
805,신한은행,서울시청금융센터,서울 중구 태평로1가 세종대로 110,37.56770180000001,126.9772803,중구
806,신한은행,서울중앙지방법원등기국(출),서울 서초구 서초동 법원로3길 14,37.4936919,127.0085907,서초구
807,신한은행,서잠실,서울 송파구 잠실동 올림픽로 106,37.5114425,127.0824784,송파구
808,신한은행,서초구청,서울 서초구 서초동 남부순환로 2584,37.48374260000001,127.0325868,서초구
809,신한은행,서초동,서울 서초구 서초동 반포대로 101,37.489309,127.0085453,서초구
810,신한은행,서초중앙,서울 서초구 서초동 효령로 285,37.4851892,127.0153619,서초구
811,신한은행,서초중앙기업금융센터,서울 서초구 서초동 효령로 285,37.4851892,127.0153619,서초구
812,신한은행,선릉,서울 강남구 역삼동 테헤란로 329,37.504645,127.0474442,강남구
813,신한은행,선릉중앙,서울 강남구 대치동 테헤란로 410,37.5045497,127.0507308,강남구
814,신한은행,선릉중앙기업금융1센터,서울 강남구 대치동 테헤란로 410,37.5045497,127.0507308,강남구
815,신한은행,선릉중앙기업금융2센터,서울 강남구 대치동 테헤란로 410,37.5045497,127.0507308,강남구
816,신한은행,선유도역,서울 영등포구 양평동4가 양평로 99,37.5363174,126.8961515,영등포구
817,신한은행,성동,서울 중구 신당동 왕십리로 407,37.5642528,127.0249164,중구
818,신한은행,성동구청,서울 성동구 행당동 고산자로 270,37.5632153,127.0367465,성동구
819,신한은행,성수동,서울 성동구 성수동2가 아차산로7길 21,37.5471887,127.0547051,성동구
820,신한은행,성수동기업금융센터,서울 성동구 성수동2가 아차산로7길 21,37.5471887,127.0547051,성동구
821,신한은행,세종로기업금융센터,서울 종로구 내수동 새문안로3길 23,37.5726204,126.9722454,종로구
822,신한은행,소공동,서울 중구 북창동 세종대로18길 16,37.5635033,126.9780116,중구
823,신한은행,송파,서울 송파구 가락동 송파대로 345,37.497519,127.1072265,송파구
824,신한은행,수락산역,서울 노원구 상계동 동일로 1673,37.6778864,127.0548082,노원구
825,신한은행,숙명여자대학교,서울 용산구 0 청파로47길 95,37.5449937,126.9674052,용산구
826,신한은행,스타시티금융센터,서울 광진구 자양동 아차산로 272,37.531692,127.074516,광진구
827,신한은행,시흥동,서울 금천구 시흥동 시흥대로 230,37.4544206,126.9012396,금천구
828,신한은행,신내동,서울 중랑구 신내동 봉화산로 194,37.6064252,127.0947293,중랑구
829,신한은행,신당동,서울 중구 신당동 다산로 220,37.5626507,127.015483,중구
830,신한은행,신림동,서울 관악구 신림동 신원로 26,37.4805261,126.9292376,관악구
831,신한은행,신사동,서울 강남구 논현동 강남대로 606,37.5136787,127.0317124,강남구
832,신한은행,신사동기업금융센터,서울 강남구 논현동 강남대로 606,37.5136787,127.0317124,강남구
833,신한은행,신월동,서울 양천구 신월동 신월로 163,37.5182298,126.8413581,양천구
834,신한은행,신촌,서울 마포구 노고산동 신촌로 94,37.5543865,126.9377806,마포구
835,신한은행,신한PWM강남센터,서울 강남구 대치동 테헤란로 432,37.5057895,127.0544458,강남구
836,신한은행,신한PWM강남파이낸스센터,서울 강남구 역삼동 테헤란로 152,37.4998097,127.0366289,강남구
837,신한은행,신한PWM도곡센터,서울 강남구 도곡동 언주로30길 39,37.4886584,127.0530163,강남구
838,신한은행,신한PWM목동센터,서울 양천구 목동 목동 917-1,37.5283066,126.8748903,양천구
839,신한은행,신한PWM서교센터,서울 마포구 서교동 양화로 45,37.5509344,126.9137824,마포구
840,신한은행,신한PWM서울파이낸스센터,서울 중구 태평로1가 세종대로 136,37.56770180000001,126.9772803,중구
841,신한은행,신한PWM서초센터,서울 서초구 서초동 서초대로 254,37.4920139,127.0096292,서초구
842,신한은행,신한PWM압구정센터,서울 강남구 신사동 압구정로 152,37.52557609999999,127.0260348,강남구
843,신한은행,신한PWM압구정중앙센터,서울 강남구 신사동 언주로 853,37.5266287,127.0330172,강남구
844,신한은행,신한PWM여의도센터,서울 영등포구 여의도동 여의대로 70,37.5247744,126.9242324,영등포구
845,신한은행,신한PWM이촌동센터,서울 용산구 이촌동 이촌로 293,37.5184674,126.9794543,용산구
846,신한은행,신한PWM잠실센터,서울 송파구 신천동 올림픽로 269,37.5144538,127.1007352,송파구
847,신한은행,신한PWM태평로센터,서울 중구 태평로2가 세종대로9길 20,37.5610295,126.9747497,중구
848,신한은행,신한PWM패밀리오피스강남센터,서울 강남구 대치동 테헤란로 440,37.50579,127.0561533,강남구
849,신한은행,신한PWM패밀리오피스반포센터,서울 서초구 반포동 반포대로 235,37.5006349,127.003303,서초구
850,신한은행,신한PWM패밀리오피스서울센터,서울 중구 남대문로4가 세종대로 39,37.5606129,126.97564,중구
851,신한은행,신한PWM한남동센터,서울 용산구 한남동 독서당로 111,37.5369714,127.0094904,용산구
852,신한은행,쌍문역,서울 도봉구 창동 도봉로 468,37.6473295,127.0344044,도봉구
853,신한은행,아시아나항공(출),서울 서초구 서초동 법원로 15,37.4941422,127.0098761,서초구
854,신한은행,압구정갤러리아,서울 강남구 신사동 압구정로 344,37.5276883,127.0398541,강남구
855,신한은행,압구정역,서울 강남구 신사동 압구정로 152,37.52557609999999,127.0260348,강남구
856,신한은행,압구정역기업금융센터,서울 강남구 신사동 압구정로 152,37.52557609999999,127.0260348,강남구
857,신한은행,압구정중앙,서울 강남구 신사동 압구정로 220,37.5283461,127.0315285,강남구
858,신한은행,양재동,서울 서초구 양재동 논현로 87,37.4775476,127.0442815,서초구
859,신한은행,양재동기업금융1센터,서울 서초구 양재동 논현로 87,37.4775476,127.0442815,서초구
860,신한은행,양재동기업금융2센터,서울 서초구 양재동 논현로 87,37.4775476,127.0442815,서초구
861,신한은행,양재역금융센터,서울 강남구 도곡동 강남대로 240,37.48859059999999,127.0452757,강남구
862,신한은행,양천향교역,서울 강서구 마곡동 양천로 344,37.5706297,126.8298909,강서구
863,신한은행,여의도,서울 영등포구 여의도동 국제금융로8길 25,37.5203855,126.9286075,영등포구
864,신한은행,여의도기업금융센터,서울 영등포구 여의도동 국제금융로8길 25,37.5203855,126.9286075,영등포구
865,신한은행,여의도중앙,서울 영등포구 여의도동 여의나루로 57,37.5231773,126.9254502,영등포구
866,신한은행,여의도중앙기업금융센터,서울 영등포구 여의도동 여의나루로 57,37.5231773,126.9254502,영등포구
867,신한은행,여의도중앙대기업금융센터,서울 영등포구 여의도동 여의나루로 57,37.5231773,126.9254502,영등포구
868,신한은행,역삼동,서울 강남구 역삼동 강남대로 314,37.5000776,127.0385419,강남구
869,신한은행,역삼동기업금융센터,서울 강남구 역삼동 강남대로 314,37.5000776,127.0385419,강남구
870,신한은행,역촌동,서울 은평구 역촌동 연서로 73,37.6056343,126.9150489,은평구
871,신한은행,연신내,서울 은평구 대조동 통일로 845,37.6185733,126.921084,은평구
872,신한은행,연지동,서울 종로구 연지동 김상옥로 30,37.5729123,127.000888,종로구
873,신한은행,영동,서울 강남구 논현동 언주로 709,37.5136787,127.0317124,강남구
874,신한은행,영동기업금융센터,서울 강남구 논현동 언주로 709,37.5136787,127.0317124,강남구
875,신한은행,영등포,서울 영등포구 영등포동4가 영중로 27,37.5178903,126.9035759,영등포구
876,신한은행,영등포기업금융센터,서울 영등포구 영등포동4가 영중로 27,37.5178903,126.9035759,영등포구
877,신한은행,영업부,서울 중구 태평로2가 세종대로9길 20,37.5610295,126.9747497,중구
878,신한은행,오금동,서울 송파구 오금동 오금로35길 17,37.5065463,127.1268328,송파구
879,신한은행,오류동,서울 구로구 오류동 경인로 212,37.4960798,126.8445469,구로구
880,신한은행,올림픽선수촌,서울 송파구 방이동 양재대로 1222,37.5158257,127.1322182,송파구
881,신한은행,용산,서울 용산구 한강로2가 한강대로 95,37.5315409,126.9685985,용산구
882,신한은행,용산기업금융센터,서울 용산구 한강로2가 한강대로 95,37.5315409,126.9685985,용산구
883,신한은행,용산전자,서울 용산구 원효로3가 원효로 153,37.5327876,126.957024,용산구
884,신한은행,월계동디지털출장소,서울 노원구 월계동 마들로 111,37.6245902,127.0654159,노원구
885,신한은행,은평구청,서울 은평구 녹번동 은평로 195,37.6026712,126.9288772,은평구
886,신한은행,을지로,서울 중구 을지로3가 을지로 109,37.5664966,126.990095,중구
887,신한은행,을지로5가,서울 중구 을지로5가 을지로 213,37.5671089,127.0018116,중구
888,신한은행,응암동,서울 은평구 응암동 은평로 136,37.6002275,126.9230907,은평구
889,신한은행,이대목동병원(출),서울 양천구 목동 안양천로 1071,37.5364909,126.8862688,양천구
890,신한은행,이대서울병원,서울 강서구 마곡동 공항대로 260,37.5706297,126.8298909,강서구
891,신한은행,이대역,서울 서대문구 대현동 신촌로 183,37.5570769,126.9464205,서대문구
892,신한은행,이수역,서울 서초구 방배동 서초대로 6,37.4851928,126.9829924,서초구
893,신한은행,이태원,서울 용산구 이태원동 이태원로 179,37.5385051,126.9925224,용산구
894,신한은행,이화여자대학교,서울 서대문구 대현동 이화여대길 52,37.5625607,126.9474535,서대문구
895,신한은행,인천국제공항제2여객터미널(출),서울 서초구 서초동 법원로 15,37.4941422,127.0098761,서초구
896,신한은행,일원역,서울 강남구 일원동 일원로 120,37.484275,127.0826129,강남구
897,신한은행,자양동,서울 광진구 자양동 자양로 95,37.5361988,127.0831787,광진구
898,신한은행,잠실금융센터,서울 송파구 신천동 올림픽로 319,37.5155974,127.1053401,송파구
899,신한은행,잠실나루역,서울 송파구 신천동 올림픽로 435,37.5205362,127.1061511,송파구
900,신한은행,잠실남,서울 송파구 잠실동 석촌호수로 133,37.5076736,127.0917804,송파구
901,신한은행,잠실롯데캐슬,서울 송파구 신천동 올림픽로 269,37.5144538,127.1007352,송파구
902,신한은행,잠원동,서울 서초구 잠원동 잠원로14길 29,37.5178426,127.0154173,서초구
903,신한은행,장안동,서울 동대문구 장안동 장한로 119,37.5716704,127.0698598,동대문구
904,신한은행,장한평역금융센터,서울 동대문구 장안동 천호대로 425,37.5645064,127.0575456,동대문구
905,신한은행,제기동역,서울 동대문구 제기동 왕산로 137,37.5785454,127.038723,동대문구
906,신한은행,종각역,서울 종로구 청진동 종로 33,37.5714504,126.9801788,종로구
907,신한은행,종각역기업금융센터,서울 종로구 청진동 종로 33,37.5714504,126.9801788,종로구
908,신한은행,종로,서울 종로구 견지동 우정국로 48,37.5735218,126.9830126,종로구
909,신한은행,종로중앙,서울 종로구 묘동 돈화문로 26,37.5709738,126.9925147,종로구
910,신한은행,종로중앙기업금융센터,서울 종로구 묘동 돈화문로 26,37.5709738,126.9925147,종로구
911,신한은행,중계동,서울 노원구 중계동 한글비석로 254,37.6504079,127.0770904,노원구
912,신한은행,중앙유통단지,서울 구로구 구로동 경인로53길 15,37.50090369999999,126.874586,구로구
913,신한은행,중화역,서울 중랑구 중화동 동일로 796,37.6013725,127.0799245,중랑구
914,신한은행,창신동,서울 종로구 창신동 지봉로 29,37.57253590000001,127.0153043,종로구
915,신한은행,창신동기업금융센터,서울 종로구 창신동 지봉로 29,37.57253590000001,127.0153043,종로구
916,신한은행,청담동,서울 강남구 청담동 도산대로 506,37.5239019,127.0482642,강남구
917,신한은행,충무로,서울 중구 충무로3가 퇴계로 173,37.5623854,126.9917454,중구
918,신한은행,충무로기업금융센터,서울 중구 충무로3가 퇴계로 173,37.5623854,126.9917454,중구
919,신한은행,충무로역,서울 중구 충무로4가 퇴계로 216,37.5623301,126.9958453,중구
920,신한은행,충북기업영업부,서울 중구 충무로4가 퇴계로 216,37.5623301,126.9958453,중구
921,신한은행,충정로금융센터,서울 서대문구 충정로3가 충정로 8,37.5600312,126.9632221,서대문구
922,신한은행,태릉역,서울 노원구 공릉동 동일로 1018,37.6304722,127.0909904,노원구
923,신한은행,테크노마트,서울 광진구 구의동 광나루로56길 85,37.5356993,127.095765,광진구
924,신한은행,테헤란로금융센터,서울 강남구 삼성동 테헤란로 429,37.5064289,127.0538647,강남구
925,신한은행,파이낸스센터,서울 중구 태평로1가 세종대로 136,37.56770180000001,126.9772803,중구
926,신한은행,풍납동,서울 송파구 풍납동 토성로 58,37.5289172,127.1160204,송파구
927,신한은행,프리미어광화문(출),서울 종로구 신문로1가 새문안로 76,37.5701894,126.9739225,종로구
928,신한은행,프리미어삼풍(출),서울 서초구 서초동 서초중앙로28길 8,37.4967184,127.0140318,서초구
929,신한은행,프리미어스포타임(출),서울 서초구 양재동 강남대로 213,37.4719823,127.0374623,서초구
930,신한은행,프리미어아이파크(출),서울 강남구 삼성동 영동대로 640,37.5182869,127.05934,강남구
931,신한은행,프리미어청담(출),서울 강남구 청담동 압구정로 443,37.5267287,127.0459412,강남구
932,신한은행,프리미어한티역(출),서울 강남구 도곡동 선릉로 225,37.48859059999999,127.0452757,강남구
933,신한은행,하계동,서울 노원구 하계동 섬밭로 209,37.6354449,127.0642439,노원구
934,신한은행,학동,서울 강남구 신사동 도산대로 221,37.5210334,127.0308496,강남구
935,신한은행,학동기업금융센터,서울 강남구 신사동 도산대로 221,37.5210334,127.0308496,강남구
936,신한은행,한국거래소(출),서울 영등포구 여의도동 여의나루로 76,37.5230423,126.9280221,영등포구
937,신한은행,한남동금융센터,서울 용산구 한남동 한남대로 59,37.5339946,127.0067204,용산구
938,신한은행,한양대학교,서울 성동구 행당동 마조로 22-2,37.5594167,127.0414041,성동구
939,신한은행,한양여자대학교(출),서울 성동구 사근동 살곶이길 200,37.5577414,127.0473936,성동구
940,신한은행,합정역,서울 마포구 합정동 월드컵로3길 14,37.55105289999999,126.9118656,마포구
941,신한은행,합정역기업금융센터,서울 마포구 합정동 월드컵로3길 14,37.55105289999999,126.9118656,마포구
942,신한은행,행당동,서울 성동구 행당동 고산자로 202,37.5582197,127.0344612,성동구
943,신한은행,현대계동,서울 종로구 계동 율곡로 75,37.5784115,126.9873988,종로구
944,신한은행,현대계동대기업금융센터,서울 종로구 계동 율곡로 75,37.5784115,126.9873988,종로구
945,신한은행,현대모터타운,서울 서초구 양재동 헌릉로 12,37.4641623,127.0426732,서초구
946,신한은행,현대모터타운대기업금융센터,서울 서초구 양재동 헌릉로 12,37.4641623,127.0426732,서초구
947,신한은행,홍익대학교,서울 마포구 상수동 와우산로 94,37.5507254,126.9256382,마포구
948,신한은행,홍제동,서울 서대문구 홍제동 통일로 433,37.5875794,126.9450809,서대문구
949,신한은행,화곡역,서울 강서구 화곡동 강서로 173,37.5419334,126.8396419,강서구
950,신한은행,효자동,서울 종로구 통인동 자하문로 61,37.5801609,126.9702192,종로구
951,우리은행,CJ금융센터,서울 중구 쌍림동 동호로 330,37.5635282,127.0042432,중구
952,우리은행,DL금융센터,서울 종로구 평동 통일로 134,37.5679159,126.9668616,종로구
953,우리은행,GS타워금융센터,서울 강남구 역삼동 논현로 508,37.5020938,127.0367984,강남구
954,우리은행,LG트윈타워금융센터,서울 영등포구 여의도동 여의공원로 111,37.5298745,126.925917,영등포구
955,우리은행,TCE강남센터,서울 강남구 역삼동 논현로 508,37.5020938,127.0367984,강남구
956,우리은행,TCE본점센터,서울 중구 회현동1가 소공로 51,37.559236,126.9815052,중구
957,우리은행,TCE시그니처센터,서울 서초구 서초동 서초대로 411,37.4978195,127.026207,서초구
958,우리은행,TC프리미엄대치센터,서울 강남구 대치동 남부순환로 2913,37.4928621,127.0586112,강남구
959,우리은행,TC프리미엄압구정센터,서울 강남구 신사동 언주로 874,37.5285838,127.0343031,강남구
960,우리은행,TC프리미엄이촌센터,서울 용산구 이촌동 이촌로 200,37.5209493,126.9693573,용산구
961,우리은행,TC프리미엄잠실센터,서울 송파구 신천동 올림픽로 269,37.5144538,127.1007352,송파구
962,우리은행,TC프리미엄청담센터,서울 강남구 청담동 영동대로 731,37.5229303,127.0546781,강남구
963,우리은행,가든파이브금융센터,서울 송파구 문정동 충민로 52,37.4777014,127.1226637,송파구
964,우리은행,가락남부지점,서울 송파구 가락동 동남로 169,37.4937943,127.1285863,송파구
965,우리은행,가락중앙금융센터,서울 송파구 가락동 중대로 135,37.4951092,127.122443,송파구
966,우리은행,가산IT금융센터,서울 금천구 가산동 디지털로 200,37.4782663,126.8889402,금천구
967,우리은행,가산디지털밸리지점,서울 금천구 가산동 가산디지털1로 212,37.484568,126.8804086,금천구
968,우리은행,가산디지털지점,서울 금천구 가산동 가산디지털1로 128,37.4772198,126.8837443,금천구
969,우리은행,가양동지점,서울 강서구 가양동 양천로57길 10-10,37.5627614,126.8527552,강서구
970,우리은행,가톨릭회관지점,서울 중구 명동2가 명동길 80,37.5638209,126.9865284,중구
971,우리은행,강남교보타워금융센터,서울 서초구 서초동 강남대로 465,37.50377539999999,127.0240711,서초구
972,우리은행,강남대로금융센터,서울 강남구 역삼동 강남대로 308,37.5000776,127.0385419,강남구
973,우리은행,강남세브란스병원(출),서울 강남구 도곡동 언주로 211,37.4925494,127.0465277,강남구
974,우리은행,강남역지점,서울 서초구 서초동 강남대로 415,37.4995418,127.0263084,서초구
975,우리은행,강남지점,서울 서초구 서초동 서초대로 340,37.494899,127.0189002,서초구
976,우리은행,강동구청지점,서울 강동구 성내동 성내로 25,37.530094,127.123686,강동구
977,우리은행,강서구청지점,서울 강서구 화곡동 화곡로 302,37.5508806,126.8496649,강서구
978,우리은행,강서금융센터,서울 강서구 화곡동 화곡로 309,37.5519641,126.8493331,강서구
979,우리은행,개봉동지점,서울 구로구 개봉동 개봉로 49,37.4900797,126.8558024,구로구
980,우리은행,개포역지점,서울 강남구 개포동 개포로 504,37.4890589,127.0671778,강남구
981,우리은행,개포중앙지점,서울 강남구 개포동 개포로 265,37.48094690000001,127.0529676,강남구
982,우리은행,갤러리아팰리스지점,서울 송파구 잠실동 올림픽로 212,37.5111034,127.0939188,송파구
983,우리은행,거여동지점,서울 송파구 거여동 오금로 511,37.4897279,127.1449912,송파구
984,우리은행,경희대학교지점,서울 동대문구 회기동 경희대로 24,37.5936281,127.0528162,동대문구
985,우리은행,고덕금융센터,서울 강동구 명일동 동남로71길 23,37.5504605,127.1551497,강동구
986,우리은행,고척동지점,서울 구로구 개봉동 경인로 368,37.4963445,126.8609287,구로구
987,우리은행,공덕동효성금융센터,서울 마포구 공덕동 마포대로 119,37.5456349,126.9517355,마포구
988,우리은행,관악구청지점,서울 관악구 봉천동 관악로 145,37.4782605,126.9515208,관악구
989,우리은행,광장동지점,서울 광진구 광장동 아차산로 552,37.5431583,127.1041888,광진구
990,우리은행,광화문D타워(출),서울 종로구 청진동 종로3길 17,37.5710694,126.978929,종로구
991,우리은행,광화문지점,서울 종로구 도렴동 새문안로5길 37,37.5736045,126.9741934,종로구
992,우리은행,광희동금융센터,서울 중구 광희동1가 퇴계로 307,37.5650229,127.0053253,중구
993,우리은행,교대역지점,서울 서초구 서초동 서초중앙로 85,37.489457,127.0139161,서초구
994,우리은행,구로디지털금융센터,서울 구로구 구로동 디지털로30길 28,37.4821146,126.8953185,구로구
995,우리은행,구로본동지점,서울 구로구 구로동 가마산로 203,37.4935385,126.8837418,구로구
996,우리은행,구로중앙지점,서울 구로구 구로동 구로중앙로 207,37.5045863,126.8769238,구로구
997,우리은행,국민대학교지점,서울 성북구 정릉동 정릉로 77,37.611145,126.9965764,성북구
998,우리은행,국방부(출),서울 용산구 용산동3가 이태원로 22,37.5318611,126.9769392,용산구
999,우리은행,군자역금융센터,서울 광진구 군자동 천호대로 548,37.5568876,127.0788413,광진구
1000,우리은행,금융감독원지점,서울 영등포구 여의도동 여의대로 38,37.5230582,126.9213308,영등포구
1001,우리은행,금천구청지점,서울 금천구 시흥동 시흥대로73길 70,37.45681630000001,126.8954085,금천구
1002,우리은행,금호동지점,서울 성동구 금호동4가 장터길 46,37.5481519,127.0209994,성동구
1003,우리은행,길동지점,서울 강동구 길동 양재대로 1554,37.5441701,127.1428219,강동구
1004,우리은행,길음뉴타운지점,서울 성북구 길음동 길음로 33,37.6075609,127.0179449,성북구
1005,우리은행,김포공항(출),서울 강서구 방화동 하늘길 38,37.5650592,126.8029919,강서구
1006,우리은행,낙성대역지점,서울 관악구 봉천동 남부순환로 1940,37.4763458,126.9641819,관악구
1007,우리은행,남가좌동지점,서울 서대문구 남가좌동 증가로 133,37.5756218,126.9194417,서대문구
1008,우리은행,남대문시장지점,서울 중구 남대문로4가 남대문시장길 25-8,37.560474,126.9774822,중구
1009,우리은행,남부터미널지점,서울 서초구 서초동 서초중앙로 26,37.4846976,127.0169674,서초구
1010,우리은행,남역삼동금융센터,서울 강남구 역삼동 논현로64길 4,37.4934613,127.0407903,강남구
1011,우리은행,노량진지점,서울 동작구 노량진동 노량진로 116,37.5131374,126.9388526,동작구
1012,우리은행,노원금융센터,서울 노원구 상계동 노해로 482,37.6542263,127.0617322,노원구
1013,우리은행,논현동금융센터,서울 강남구 논현동 언주로 637,37.5136787,127.0317124,강남구
1014,우리은행,논현역금융센터,서울 서초구 잠원동 신반포로 339,37.5113778,127.02036,서초구
1015,우리은행,논현중앙지점,서울 강남구 논현동 강남대로 574,37.5136787,127.0317124,강남구
1016,우리은행,답십리지점,서울 동대문구 답십리동 천호대로 295,37.5645064,127.0575456,동대문구
1017,우리은행,당산동금융센터,서울 영등포구 당산동3가 당산로 116,37.5258617,126.8971134,영등포구
1018,우리은행,당산역지점,서울 영등포구 양평동4가 양평로 76,37.5363174,126.8961515,영등포구
1019,우리은행,대림3동지점,서울 영등포구 대림동 가마산로 356,37.5003436,126.8985605,영등포구
1020,우리은행,대림동지점,서울 동작구 신대방동 시흥대로 654-1,37.4900387,126.9079291,동작구
1021,우리은행,대방동지점,서울 동작구 대방동 여의대방로 250,37.5072943,126.9247119,동작구
1022,우리은행,대치남지점,서울 강남구 대치동 삼성로 150,37.4933928,127.0673501,강남구
1023,우리은행,대치동지점,서울 강남구 대치동 도곡로 530,37.4996888,127.0643373,강남구
1024,우리은행,대치역금융센터,서울 강남구 대치동 남부순환로 2913,37.4928621,127.0586112,강남구
1025,우리은행,대흥역지점,서울 마포구 염리동 백범로 134-1,37.5458344,126.9458047,마포구
1026,우리은행,도곡동금융센터,서울 강남구 역삼동 역삼로 310,37.499217,127.0484398,강남구
1027,우리은행,도곡스위트지점,서울 강남구 도곡동 언주로30길 21,37.4886722,127.0521024,강남구
1028,우리은행,도봉지점,서울 도봉구 방학동 도봉로 707,37.6677239,127.0428921,도봉구
1029,우리은행,도산대로금융센터,서울 강남구 신사동 도산대로 235,37.5216195,127.0326427,강남구
1030,우리은행,독립문지점,서울 서대문구 영천동 통일로 195,37.5707196,126.9614108,서대문구
1031,우리은행,독산동지점,서울 금천구 독산동 시흥대로 457,37.4743793,126.8978022,금천구
1032,우리은행,동대문금융센터,서울 종로구 종로6가 종로 266,37.5719508,127.0076798,종로구
1033,우리은행,동소문로금융센터,서울 성북구 동소문동3가 동소문로 48,37.5903868,127.0112534,성북구
1034,우리은행,동소문시니어플러스(출),서울 성북구 돈암동 성북로4길 52,37.5948075,127.0103188,성북구
1035,우리은행,동역삼동금융센터,서울 강남구 역삼동 테헤란로 133,37.5001436,127.0333892,강남구
1036,우리은행,동자동금융센터,서울 용산구 동자동 한강대로 366,37.5520713,126.9724315,용산구
1037,우리은행,둔촌동지점,서울 강동구 둔촌동 천호대로 1190,37.5282539,127.1447139,강동구
1038,우리은행,둔촌역금융센터,서울 강동구 성내동 양재대로 1377,37.5304933,127.128992,강동구
1039,우리은행,등촌역지점,서울 강서구 염창동 공항대로 535,37.5481014,126.8714148,강서구
1040,우리은행,롯데월드몰(출),서울 송파구 신천동 올림픽로 300,37.5131008,127.1034334,송파구
1041,우리은행,롯데월드타워금융센터,서울 송파구 신천동 올림픽로 300,37.5131008,127.1034334,송파구
1042,우리은행,마곡나루역지점,서울 강서구 마곡동 마곡중앙로 165,37.5685625,126.8277048,강서구
1043,우리은행,마곡역금융센터,서울 강서구 마곡동 공항대로 195,37.5706297,126.8298909,강서구
1044,우리은행,마들역지점,서울 노원구 상계동 동일로 1549,37.6667157,127.0568809,노원구
1045,우리은행,마포구청지점,서울 마포구 성산동 월드컵로 212,37.5656178,126.9046897,마포구
1046,우리은행,마포금융센터,서울 마포구 도화동 마포대로 45,37.5404446,126.9463525,마포구
1047,우리은행,망우동지점,서울 중랑구 망우동 용마산로 449,37.5914554,127.0975843,중랑구
1048,우리은행,망원역지점,서울 마포구 서교동 월드컵로 88,37.556719,126.9099629,마포구
1049,우리은행,매경미디어금융센터,서울 중구 필동1가 퇴계로 190,37.5610862,126.9924672,중구
1050,우리은행,면목동지점,서울 중랑구 면목동 면목로 283,37.5782266,127.085728,중랑구
1051,우리은행,명동금융센터,서울 중구 명동2가 명동길 42,37.5636433,126.9847293,중구
1052,우리은행,명일동지점,서울 강동구 명일동 양재대로 1618,37.5498533,127.1441731,강동구
1053,우리은행,목동중앙지점,서울 양천구 목동 목동서로 61,37.5364127,126.8794824,양천구
1054,우리은행,목동지점,서울 양천구 목동 목동서로 159-1,37.5283066,126.8748903,양천구
1055,우리은행,무역센터금융센터,서울 강남구 삼성동 영동대로 511,37.5103975,127.0611934,강남구
1056,우리은행,문래동금융센터,서울 영등포구 문래동3가 문래로20길 60,37.517304,126.8895032,영등포구
1057,우리은행,문정중앙금융센터,서울 송파구 문정동 법원로 128,37.4816698,127.1206971,송파구
1058,우리은행,미아사거리지점,서울 성북구 길음동 도봉로 11,37.6102465,127.0299069,성북구
1059,우리은행,미아역지점,서울 강북구 미아동 도봉로 215,37.6277655,127.0251073,강북구
1060,우리은행,반포서래지점,서울 서초구 반포동 서래로3길 3,37.496869,126.9980349,서초구
1061,우리은행,반포효성(출),서울 서초구 반포동 반포대로 235,37.5006349,127.003303,서초구
1062,우리은행,발산역금융센터,서울 강서구 등촌동 강서로 406,37.5617642,126.8396719,강서구
1063,우리은행,방배동금융센터,서울 서초구 방배동 방배로 183,37.4898172,126.9919248,서초구
1064,우리은행,방배본동금융센터,서울 서초구 방배동 방배로 285,37.4979204,126.9866478,서초구
1065,우리은행,방배역지점,서울 서초구 방배동 방배로 76,37.4811934,126.9983361,서초구
1066,우리은행,방이동금융센터,서울 송파구 방이동 백제고분로 446,37.5104692,127.1127199,송파구
1067,우리은행,법조타운금융센터,서울 서초구 서초동 서초대로 271,37.493397,127.0113807,서초구
1068,우리은행,보라매지점,서울 관악구 봉천동 보라매로3길 23,37.4911264,126.925594,관악구
1069,우리은행,본점영업부,서울 중구 회현동1가 소공로 51,37.559236,126.9815052,중구
1070,우리은행,북가좌동지점,서울 서대문구 북가좌동 응암로 54,37.5778925,126.9102335,서대문구
1071,우리은행,불광동금융센터,서울 은평구 대조동 통일로 715,37.6094329,126.9303029,은평구
1072,우리은행,사당역금융센터,서울 관악구 남현동 남부순환로 2080,37.4766035,126.9755605,관악구
1073,우리은행,삼성SDS(출),서울 송파구 신천동 올림픽로35길 125,37.5163169,127.100424,송파구
1074,우리은행,삼성동금융센터,서울 강남구 대치동 영동대로 432,37.50821760000001,127.0641489,강남구
1075,우리은행,삼성엔지니어링지점,서울 강동구 상일동 상일로6길 26,37.5488687,127.1753273,강동구
1076,우리은행,삼성전자서울R&D캠퍼스(출),서울 서초구 우면동 성촌길 33,37.4651364,127.0232614,서초구
1077,우리은행,삼성중앙역지점,서울 강남구 삼성동 봉은사로 476,37.5124754,127.0524431,강남구
1078,우리은행,삼성타운금융센터,서울 서초구 서초동 서초대로74길 11,37.49669069999999,127.0268555,서초구
1079,우리은행,삼육대학교(출),서울 노원구 공릉동 화랑로 815,37.6429012,127.1060303,노원구
1080,우리은행,삼육서울병원(출),서울 동대문구 휘경동 망우로 82,37.589321,127.064443,동대문구
1081,우리은행,삼청동(출),서울 종로구 팔판동 삼청로 83,37.5829589,126.9815424,종로구
1082,우리은행,상계동지점,서울 노원구 상계동 동일로 1373,37.6511487,127.0610612,노원구
1083,우리은행,상계역지점,서울 노원구 중계동 한글비석로 384,37.6598407,127.0733083,노원구
1084,우리은행,상도동금융센터,서울 동작구 상도동 장승배기로 78,37.504628,126.9395195,동작구
1085,우리은행,상봉동지점,서울 중랑구 망우동 망우로 390,37.5984022,127.0959139,중랑구
1086,우리은행,상암DMC금융센터,서울 마포구 상암동 월드컵북로 396,37.579406,126.8904194,마포구
1087,우리은행,상암동지점,서울 마포구 상암동 월드컵북로60길 17,37.5833942,126.8859607,마포구
1088,우리은행,상일동역지점,서울 강동구 상일동 고덕로 390,37.5552295,127.1687886,강동구
1089,우리은행,서강대지점,서울 마포구 신수동 백범로 35,37.5512304,126.9392743,마포구
1090,우리은행,서교동금융센터,서울 마포구 서교동 양화로 93,37.5527819,126.9177544,마포구
1091,우리은행,서교중앙금융센터,서울 마포구 동교동 월드컵북로 26,37.5571858,126.9196257,마포구
1092,우리은행,서대문구청지점,서울 서대문구 연희동 연희로 248,37.5791657,126.9365919,서대문구
1093,우리은행,서소문금융센터,서울 중구 서소문동 서소문로 103,37.5631664,126.9739275,중구
1094,우리은행,서여의도금융센터,서울 영등포구 여의도동 은행로 17,37.5282549,126.9208041,영등포구
1095,우리은행,서울대입구역지점,서울 관악구 봉천동 남부순환로 1814,37.48112649999999,126.9515779,관악구
1096,우리은행,서울대학교지점,서울 관악구 신림동 관악로 1,37.480967,126.953148,관악구
1097,우리은행,서울디지털(출),서울 구로구 구로동 디지털로 285,37.4844871,126.8945176,구로구
1098,우리은행,서울디지털3단지지점,서울 금천구 가산동 가산디지털2로 123,37.4787568,126.8787171,금천구
1099,우리은행,서울디지털프리미엄금융센터,서울 구로구 구로동 디지털로 300,37.4848943,126.8965401,구로구
1100,우리은행,서울성모병원지점,서울 서초구 반포동 반포대로 222,37.5000792,127.005247,서초구
1101,우리은행,서울스퀘어금융센터,서울 중구 남대문로5가 한강대로 416,37.5555215,126.9738608,중구
1102,우리은행,서울시립대(출),서울 동대문구 전농동 서울시립대로 163,37.5834233,127.0600271,동대문구
1103,우리은행,서울시설공단지점,서울 성동구 마장동 청계천로 540,37.5716189,127.0360554,성동구
1104,우리은행,서울시청금융센터,서울 중구 무교동 무교로 21,37.5678469,126.9787747,중구
1105,우리은행,서울여자대학교(출),서울 노원구 공릉동 화랑로 621,37.6277725,127.0904878,노원구
1106,우리은행,서울주택도시공사금융센터,서울 강남구 개포동 개포로 621,37.4941587,127.0786895,강남구
1107,우리은행,서초금융센터,서울 서초구 서초동 강남대로 369,37.4956492,127.0281847,서초구
1108,우리은행,서초남지점,서울 서초구 서초동 반포대로 22,37.4828766,127.0127176,서초구
1109,우리은행,서초역금융센터,서울 서초구 서초동 반포대로 112,37.4901943,127.0089496,서초구
1110,우리은행,석계역지점,서울 성북구 석관동 화랑로42길 48,37.6138768,127.0647334,성북구
1111,우리은행,선릉금융센터,서울 강남구 역삼동 테헤란로 301,37.5031443,127.0431351,강남구
1112,우리은행,선릉역금융센터,서울 강남구 대치동 테헤란로 414,37.5048556,127.0515401,강남구
1113,우리은행,선정릉역지점,서울 강남구 삼성동 봉은사로 413,37.5110146,127.0452396,강남구
1114,우리은행,성균관대학교지점,서울 종로구 명륜3가 성균관로 31,37.5857974,126.9957392,종로구
1115,우리은행,성북구청지점,서울 성북구 삼선동5가 보문로 168,37.5885404,127.0158778,성북구
1116,우리은행,성수IT지점,서울 성동구 성수동2가 성수이로22길 37,37.5438723,127.0612979,성동구
1117,우리은행,성수남지점,서울 광진구 자양동 아차산로 188,37.531692,127.074516,광진구
1118,우리은행,성수동금융센터,서울 성동구 성수동1가 성수일로 37,37.5439458,127.049241,성동구
1119,우리은행,세브란스병원(출),서울 서대문구 신촌동 연세로 50-1,37.5646993,126.9394972,서대문구
1120,우리은행,세종로금융센터,서울 종로구 세종로 세종대로 149,37.56967530000001,126.9762953,종로구
1121,우리은행,센트럴시티지점,서울 서초구 반포동 신반포로 176,37.5043637,127.0036211,서초구
1122,우리은행,소공동지점,서울 중구 소공동 남대문로 63,37.5630643,126.9812552,중구
1123,우리은행,송파구청지점,서울 송파구 신천동 올림픽로 326,37.51461070000001,127.1060852,송파구
1124,우리은행,송파금융센터,서울 송파구 석촌동 백제고분로 359,37.5052461,127.1059694,송파구
1125,우리은행,송파역지점,서울 송파구 가락동 송파대로 345,37.497519,127.1072265,송파구
1126,우리은행,수서역금융센터,서울 강남구 수서동 밤고개로1길 10,37.4880163,127.1018486,강남구
1127,우리은행,수유동금융센터,서울 강북구 수유동 도봉로 357,37.639638,127.0268632,강북구
1128,우리은행,숭실대역지점,서울 동작구 상도동 상도로 372,37.4954689,126.9539541,동작구
1129,우리은행,숭실대학교지점,서울 동작구 상도동 상도로 369,37.4963538,126.9572222,동작구
1130,우리은행,시흥동지점,서울 금천구 시흥동 시흥대로 224,37.453905,126.9013689,금천구
1131,우리은행,시흥배곧지점,경기 시흥시 배곧동 서울대학로278번길 19-13,37.3707384,126.7273431,시흥시
1132,우리은행,신길중앙지점,서울 영등포구 신길동 신길로 141,37.504985,126.9102533,영등포구
1133,우리은행,신당역지점,서울 중구 흥인동 퇴계로 413,37.56731,127.0163823,중구
1134,우리은행,신대방동농심금융센터,서울 동작구 신대방동 여의대방로 112,37.4966933,126.9194189,동작구
1135,우리은행,신도림동금융센터,서울 구로구 신도림동 경인로59길 8,37.5064478,126.8833784,구로구
1136,우리은행,신림남부지점,서울 관악구 신림동 남부순환로 1434,37.480618,126.9100762,관악구
1137,우리은행,신림로금융센터,서울 관악구 신림동 신림로11길 12,37.4699313,126.9386949,관악구
1138,우리은행,신림역금융센터,서울 관악구 신림동 신림로 347,37.4853471,126.9292074,관악구
1139,우리은행,신반포금융센터,서울 서초구 잠원동 잠원로 37-6,37.5083529,127.0059798,서초구
1140,우리은행,신사동금융센터,서울 강남구 신사동 강남대로 616,37.5168431,127.0197682,강남구
1141,우리은행,신설동금융센터,서울 종로구 숭인동 종로 413,37.5762062,127.0224669,종로구
1142,우리은행,신압구정금융센터,서울 강남구 신사동 압구정로 142,37.5247367,127.0242741,강남구
1143,우리은행,신월동금융센터,서울 양천구 신월동 오목로 54,37.52216920000001,126.8436545,양천구
1144,우리은행,신정동금융센터,서울 양천구 신정동 신월로 337,37.5220052,126.8584803,양천구
1145,우리은행,신촌금융센터,서울 마포구 노고산동 신촌로 106,37.5543865,126.9377806,마포구
1146,우리은행,아시아선수촌PB영업점,서울 송파구 잠실동 올림픽로4길 17,37.5088935,127.0768667,송파구
1147,우리은행,아크로비스타금융센터,서울 서초구 서초동 서초중앙로 188,37.4981989,127.0133145,서초구
1148,우리은행,아현동금융센터,서울 마포구 아현동 마포대로 196,37.5513328,126.9561775,마포구
1149,우리은행,아현역지점,서울 서대문구 북아현동 신촌로 275,37.5577148,126.9567014,서대문구
1150,우리은행,암사역지점,서울 강동구 암사동 올림픽로 769,37.5499545,127.1271723,강동구
1151,우리은행,압구정동금융센터,서울 강남구 신사동 언주로 874,37.5285838,127.0343031,강남구
1152,우리은행,압구정역지점,서울 강남구 신사동 압구정로 208,37.5275362,127.029897,강남구
1153,우리은행,압구정현대PB영업점,서울 강남구 압구정동 압구정로 201,37.5296583,127.0308297,강남구
1154,우리은행,약수역지점,서울 중구 신당동 다산로 104,37.5531695,127.0098726,중구
1155,우리은행,양재남금융센터,서울 서초구 양재동 바우뫼로27길 2,37.47754949999999,127.0371414,서초구
1156,우리은행,양재동금융센터,서울 강남구 도곡동 남부순환로 2633,37.4854474,127.0378324,강남구
1157,우리은행,양재역지점,서울 서초구 서초동 강남대로 241,37.48499820000001,127.0331464,서초구
1158,우리은행,양재중앙금융센터,서울 서초구 양재동 논현로 83,37.4772509,127.0444925,서초구
1159,우리은행,양천구청지점,서울 양천구 신정동 목동동로 105,37.5170481,126.8664767,양천구
1160,우리은행,양평동지점,서울 영등포구 양평동2가 영등포로 33,37.52342660000001,126.8837577,영등포구
1161,우리은행,여의도금융센터,서울 영등포구 여의도동 국제금융로8길 11,37.5211812,126.9298889,영등포구
1162,우리은행,여의도북지점,서울 영등포구 여의도동 국제금융로7길 15,37.5240707,126.9315798,영등포구
1163,우리은행,여의도중앙금융센터,서울 영등포구 여의도동 여의나루로 71,37.5239377,126.9267231,영등포구
1164,우리은행,여의도한화금융센터,서울 영등포구 여의도동 63로 40,37.519494,126.939272,영등포구
1165,우리은행,역삼역금융센터,서울 강남구 역삼동 논현로 430,37.4990701,127.0383674,강남구
1166,우리은행,역전금융센터,서울 중구 남대문로5가 통일로 10,37.5560962,126.9753153,중구
1167,우리은행,역촌동지점,서울 은평구 역촌동 연서로 134,37.61063900000001,126.9174573,은평구
1168,우리은행,연세금융센터,서울 서대문구 신촌동 연세로 50,37.5646993,126.9394972,서대문구
1169,우리은행,연신내지점,서울 은평구 대조동 통일로 835,37.6178806,126.9216097,은평구
1170,우리은행,연희동지점,서울 서대문구 연희동 연희로 125,37.5689638,126.9322776,서대문구
1171,우리은행,영동금융센터,서울 강남구 청담동 학동로 401,37.51757,127.041488,강남구
1172,우리은행,영등포구청지점,서울 영등포구 당산동3가 당산로 123,37.5258617,126.8971134,영등포구
1173,우리은행,영등포시니어플러스(출),서울 영등포구 영등포동3가 영등포로 240,37.5182625,126.9078988,영등포구
1174,우리은행,영등포중앙금융센터,서울 영등포구 영등포동4가 영등포로 200,37.5178903,126.9035759,영등포구
1175,우리은행,오류동지점,서울 구로구 오류동 오류로8길 57,37.49243999999999,126.8433901,구로구
1176,우리은행,올림픽지점,서울 송파구 방이동 양재대로 1178,37.5121498,127.128974,송파구
1177,우리은행,왕십리역지점,서울 성동구 행당동 왕십리로 309,37.5576248,127.0359917,성동구
1178,우리은행,용산구청지점,서울 용산구 이태원동 녹사평대로 150,37.5325615,126.990179,용산구
1179,우리은행,용산역지점,서울 용산구 한강로3가 한강대로23길 55,37.529557,126.9641567,용산구
1180,우리은행,용산지점,서울 용산구 한강로1가 한강대로 182,37.5360771,126.9730219,용산구
1181,우리은행,우장산역지점,서울 강서구 내발산동 강서로 267,37.549582,126.835921,강서구
1182,우리은행,워커힐지점,서울 광진구 광장동 아차산로 636,37.5491096,127.1086502,광진구
1183,우리은행,원남동지점,서울 종로구 원남동 창경궁로 136,37.5745371,126.9979547,종로구
1184,우리은행,원효로지점,서울 용산구 원효로3가 원효로 134,37.5327876,126.957024,용산구
1185,우리은행,은평뉴타운지점,서울 은평구 진관동 진관2로 19,37.6348632,126.919578,은평구
1186,우리은행,은평성모병원(출),서울 은평구 진관동 통일로 1021,37.6335822,126.9161092,은평구
1187,우리은행,을지로5가금융센터,서울 중구 을지로5가 동호로 351,37.5667242,127.0023556,중구
1188,우리은행,을지로지점,서울 중구 을지로3가 충무로 61,37.5666924,126.9922545,중구
1189,우리은행,응암동지점,서울 은평구 응암동 은평로 176,37.6011332,126.9273012,은평구
1190,우리은행,응암로지점,서울 은평구 응암동 응암로 239,37.5933662,126.9175463,은평구
1191,우리은행,이수역지점,서울 서초구 방배동 방배천로 91,37.4848335,126.9826939,서초구
1192,우리은행,자양동금융센터,서울 광진구 자양동 아차산로 362,37.531692,127.074516,광진구
1193,우리은행,잠실금융센터,서울 송파구 잠실동 석촌호수로 72,37.5098435,127.0857681,송파구
1194,우리은행,잠실나루역금융센터,서울 송파구 신천동 올림픽로37길 130,37.5208648,127.1043128,송파구
1195,우리은행,잠실본동지점,서울 송파구 잠실동 백제고분로 75,37.5099049,127.0791961,송파구
1196,우리은행,잠실역금융센터,서울 송파구 신천동 올림픽로 269,37.5144538,127.1007352,송파구
1197,우리은행,잠원동지점,서울 서초구 잠원동 신반포로23길 30,37.5087874,127.0035738,서초구
1198,우리은행,장안북지점,서울 동대문구 장안동 한천로 196,37.570207,127.0700249,동대문구
1199,우리은행,장위동지점,서울 성북구 장위동 장위로 55,37.6141495,127.0428347,성북구
1200,우리은행,장한평금융센터,서울 동대문구 장안동 천호대로 429,37.5645064,127.0575456,동대문구
1201,우리은행,재동지점,서울 종로구 재동 율곡로 57,37.5769135,126.9855349,종로구
1202,우리은행,전농동지점,서울 동대문구 전농동 전농로 145,37.5777299,127.0571437,동대문구
1203,우리은행,종로4가금융센터,서울 종로구 종로4가 종로 186,37.5704126,126.9984913,종로구
1204,우리은행,종로YMCA지점,서울 종로구 종로2가 종로 69,37.5706054,126.9852892,종로구
1205,우리은행,종로구청지점,서울 종로구 수송동 종로1길 36,37.573492,126.9791404,종로구
1206,우리은행,종로금융센터,서울 중구 남대문로1가 남대문로 118,37.5675773,126.9828622,중구
1207,우리은행,종암지점,서울 성북구 하월곡동 종암로 162,37.6043531,127.0322046,성북구
1208,우리은행,중계2동지점,서울 노원구 중계동 동일로203가길 29,37.6399359,127.0642574,노원구
1209,우리은행,중계동지점,서울 노원구 중계동 한글비석로 253,37.6504239,127.0763502,노원구
1210,우리은행,중곡동지점,서울 광진구 중곡동 용마산로 44,37.5576487,127.0882603,광진구
1211,우리은행,중구청지점,서울 중구 예관동 창경궁로 17,37.5637354,126.9977576,중구
1212,우리은행,중랑교금융센터,서울 중랑구 상봉동 망우로 200,37.5934336,127.0751988,중랑구
1213,우리은행,중랑구청지점,서울 중랑구 신내동 봉화산로 190,37.6062326,127.0941728,중랑구
1214,우리은행,중림동지점,서울 중구 만리동1가 만리재로 215,37.5561649,126.967313,중구
1215,우리은행,중부금융센터,서울 중구 저동2가 수표로 34,37.5642386,126.9897922,중구
1216,우리은행,중앙대병원(출),서울 동작구 흑석동 흑석로 102,37.5070482,126.9608627,동작구
1217,우리은행,중앙대학교지점,서울 동작구 흑석동 흑석로 84,37.5045563,126.9569379,동작구
1218,우리은행,증미역지점,서울 강서구 염창동 양천로 583,37.5572518,126.864441,강서구
1219,우리은행,창동금융센터,서울 도봉구 창동 도봉로 578,37.6562308,127.0397648,도봉구
1220,우리은행,창동역지점,서울 도봉구 창동 노해로69가길 11,37.6572501,127.0483041,도봉구
1221,우리은행,창신동지점,서울 종로구 창신동 종로 311,37.5733483,127.0096933,종로구
1222,우리은행,천호동금융센터,서울 강동구 천호동 천호대로 1053,37.5374627,127.1289836,강동구
1223,우리은행,청계7가지점,서울 종로구 창신동 청계천로 331,37.5754116,127.0124487,종로구
1224,우리은행,청구역지점,서울 중구 신당동 다산로 177,37.5594641,127.0129853,중구
1225,우리은행,청담동금융센터,서울 강남구 청담동 영동대로 708,37.521134,127.0571119,강남구
1226,우리은행,청담중앙지점,서울 강남구 청담동 영동대로 731,37.5229303,127.0546781,강남구
1227,우리은행,청량리중앙금융센터,서울 동대문구 제기동 왕산로 169,37.5794363,127.0418959,동대문구
1228,우리은행,충정로금융센터,서울 서대문구 충정로3가 충정로 29,37.5619053,126.9633758,서대문구
1229,우리은행,코엑스사거리지점,서울 강남구 삼성동 영동대로 616,37.5153901,127.0601242,강남구
1230,우리은행,코엑스지점,서울 강남구 삼성동 테헤란로 513,37.5080341,127.0588956,강남구
1231,우리은행,태릉역금융센터,서울 중랑구 묵동 중랑역로 257,37.6158428,127.076607,중랑구
1232,우리은행,테크노마트금융센터,서울 광진구 구의동 광나루로56길 85,37.5356993,127.095765,광진구
1233,우리은행,테헤란로금융센터,서울 강남구 역삼동 테헤란로 124,37.4987003,127.0315769,강남구
1234,우리은행,평창동지점,서울 종로구 평창동 평창문화로 127,37.6096045,126.9738027,종로구
1235,우리은행,포스코금융센터,서울 강남구 대치동 테헤란로 440,37.50579,127.0561533,강남구
1236,우리은행,포이동금융센터,서울 서초구 양재동 동산로 86,37.4729935,127.0479478,서초구
1237,우리은행,풍납동지점,서울 송파구 풍납동 토성로 78,37.5280542,127.1183746,송파구
1238,우리은행,학동역지점,서울 강남구 논현동 논현로 703,37.5143972,127.0300807,강남구
1239,우리은행,한강로금융센터,서울 용산구 한강로2가 한강대로30길 25,37.5277056,126.9688885,용산구
1240,우리은행,한경미디어지점,서울 중구 중림동 청파로 463,37.5601277,126.9672069,중구
1241,우리은행,한국과학기술연구원(출),서울 성북구 하월곡동 화랑로14길 5,37.6010743,127.045341,성북구
1242,우리은행,한국외국어대학교지점,서울 동대문구 이문동 이문로 107,37.5974261,127.058706,동대문구
1243,우리은행,한남동금융센터,서울 용산구 한남동 이태원로 239,37.5364152,126.999684,용산구
1244,우리은행,한남빌리지지점,서울 용산구 한남동 독서당로 70,37.533577,127.008679,용산구
1245,우리은행,한림대학교강남성심병원(출),서울 영등포구 대림동 신길로1길 6,37.4941107,126.908221,영등포구
1246,우리은행,한림대학교강동성심병원(출),서울 강동구 길동 성안로 150,37.5361234,127.1352442,강동구
1247,우리은행,한림대학교한강성심병원(출),서울 영등포구 영등포동2가 버드나루로7길 13,37.5225877,126.9094122,영등포구
1248,우리은행,한티역금융센터,서울 강남구 도곡동 선릉로 225,37.48859059999999,127.0452757,강남구
1249,우리은행,한화금융센터,서울 중구 장교동 청계천로 86,37.5674499,126.9869866,중구
1250,우리은행,합정동금융센터,서울 마포구 합정동 독막로 10,37.548437,126.914475,마포구
1251,우리은행,혜화동지점,서울 종로구 혜화동 창경궁로 270,37.5849587,127.001081,종로구
1252,우리은행,홍익대지점,서울 마포구 상수동 와우산로 56,37.54946340000001,126.9234323,마포구
1253,우리은행,홍제동금융센터,서울 서대문구 홍제동 세검정로 36,37.591688,126.9453706,서대문구
1254,우리은행,화곡역금융센터,서울 강서구 화곡동 강서로 179,37.5423342,126.8390652,강서구
1255,우리은행,화양동지점,서울 성동구 성수동2가 광나루로 324,37.5479475,127.0658046,성동구
1256,우리은행,효자동금융센터,서울 종로구 통인동 자하문로 27,37.5801609,126.9702192,종로구
1257,전북은행,강남대로,서울특별시 서초구 서초동 강남대로 327 (대륭서초타워 2층),37.4920527,127.0297349,서초구
1258,전북은행,광화문종합금융센터,서울특별시 종로구 소공동 세종대로 163 (서울파이낸스센터 2층),37.568369,126.97779,종로구
1259,전북은행,동대문외국인금융센터,서울특별시 중구 광희동 을지로 251 (기승플러스빌딩 3층),37.5665377,127.0063656,중구
1260,전북은행,리테일종합금융센터,서울특별시 마포구 서교동 양화로 85 (동현빌딩 8층),37.5523318,126.9169775,마포구
1261,전북은행,서울,서울특별시 중구 무교동 세종대로 163 (서울파이낸스센터 2층),37.568369,126.97779,중구
1262,전북은행,언택트금융센터,서울특별시 마포구 서교동 양화로 85 (동현빌딩 4층),37.5523318,126.9169775,마포구
1263,전북은행,여의도,서울특별시 영등포구 여의도동 여의나루로 77 (JB빌딩),37.5240374,126.927404,영등포구
1264,전북은행,잠실,서울특별시 송파구 잠실동 올림픽로 119 (잠실파인애플상가 3층),37.5120464,127.0841726,송파구
1265,제주은행,서울,서울특별시 강남구 역삼동 테헤란로 143,37.50057390000001,127.0349155,강남구
1266,중소기업은행,LG광화문,서울특별시 종로구 신문로2가 새문안로 58,37.5708649,126.9692283,종로구
1267,중소기업은행,MBC,서울특별시 마포구 상암동 성암로 267,37.5811662,126.8907777,마포구
1268,중소기업은행,가락동,서울특별시 송파구 가락동 중앙로 229,37.4930744,127.1339564,송파구
1269,중소기업은행,가산IT밸리,서울특별시 금천구 가산동 가산디지털2로 53,37.4729876,126.881174,금천구
1270,중소기업은행,가산동,서울특별시 금천구 가산동 가산디지털2로 184,37.4842724,126.8778644,금천구
1271,중소기업은행,가산디지털,서울특별시 금천구 가산동 가산디지털1로 145,37.478145,126.8817087,금천구
1272,중소기업은행,가산디지털역,서울특별시 금천구 가산동 배방읍 고속철대로 151,36.7978864,127.1056539,금천구
1273,중소기업은행,가산디지털중앙,서울특별시 금천구 가산동 가산디지털2로 98,37.4767866,126.8806076,금천구
1274,중소기업은행,가산테크노,서울특별시 금천구 가산동 서부샛길 606,37.479747,126.8770483,금천구
1275,중소기업은행,가산패션타운,서울특별시 금천구 가산동 벚꽃로 298,37.4813864,126.8839177,금천구
1276,중소기업은행,가양동,서울특별시 강서구 등촌동 오류로 52,37.5575223,126.8559611,강서구
1277,중소기업은행,강남WM센터,서울특별시 강남구 도곡동 언주로30길 21,37.4886722,127.0521024,강남구
1278,중소기업은행,강남구청,서울특별시 강남구 청담동 학동로 429,37.51892280000001,127.0476932,강남구
1279,중소기업은행,강남구청역,서울특별시 강남구 삼성동 선릉로 648,37.51397499999999,127.0561274,강남구
1280,중소기업은행,강남기업금융센터,서울특별시 강남구 역삼동 강남대로 390,37.4978461,127.0286372,강남구
1281,중소기업은행,강남대로,서울특별시 서초구 서초동 공단1대로 229,37.3370601,126.727431,서초구
1282,중소기업은행,강남역,서울특별시 서초구 서초동 서초대로77길 17,37.4997323,127.0255849,서초구
1283,중소기업은행,강동구청역,서울특별시 강동구 성내동 삼작로 155,37.5273748,127.1303854,강동구
1284,중소기업은행,강서중앙,서울특별시 강서구 등촌동 양촌읍 황금로 274번길 4,37.5575223,126.8559611,강서구
1285,중소기업은행,개봉동,서울특별시 구로구 개봉동 개봉로 60,37.4911942,126.8562764,구로구
1286,중소기업은행,개봉북,서울특별시 구로구 고척2동 경인로35길 113-8,37.5015331,126.8516132,구로구
1287,중소기업은행,고척동,서울특별시 구로구 고척동 경인로 397,37.4977278,126.8638229,구로구
1288,중소기업은행,공덕동,서울특별시 마포구 공덕동 마포대로 163,37.5490064,126.9539966,마포구
1289,중소기업은행,공릉동,서울특별시 노원구 공릉동 공릉로 147,37.6231286,127.0790475,노원구
1290,중소기업은행,공릉역,서울특별시 노원구 공릉동 통진읍 마송1로84번길 90,37.6304722,127.0909904,노원구
1291,중소기업은행,교대역,서울특별시 서초구 서초동 서초대로 275,37.4935506,127.0115262,서초구
1292,중소기업은행,구로동,서울특별시 구로구 구로동 디지털로32길 55,37.483982,126.898382,구로구
1293,중소기업은행,구로동기업금융,서울특별시 구로구 구로동 디지털로32길 55,37.483982,126.898382,구로구
1294,중소기업은행,구로디지털,서울특별시 구로구 구로동 동탄첨단산업1로 27,37.4942566,126.8846869,구로구
1295,중소기업은행,구로디지털중앙,서울특별시 구로구 구로동 중앙로 208,37.4907988,126.8832964,구로구
1296,중소기업은행,구로사랑,서울특별시 구로구 구로동 구로중앙로 60,37.495146,126.8894159,구로구
1297,중소기업은행,구로삼성IT,서울특별시 구로구 구로동 디지털로33길 27,37.486108,126.8946496,구로구
1298,중소기업은행,구로유통단지,서울특별시 구로구 구로동 경인로53길 8,37.5019167,126.8777891,구로구
1299,중소기업은행,구로중앙,서울특별시 구로구 구로동 구로중앙로 215,37.504915,126.8771276,구로구
1300,중소기업은행,구의동,서울특별시 광진구 구의동 광적면 삼일로 11,37.8300554,126.952966,광진구
1301,중소기업은행,길동,서울특별시 강동구 길동 천호대로 1139,37.5346035,127.1381842,강동구
1302,중소기업은행,남구로,서울특별시 구로구 구로동 구로동로 126-2,37.4899256,126.8845975,구로구
1303,중소기업은행,남대문,서울특별시 중구 남대문로5가 세종대로 17,37.5560962,126.9753153,중구
1304,중소기업은행,남대문시장,서울특별시 중구 남대문로4가 남대문로 12,37.559984,126.9753071,중구
1305,중소기업은행,노량진,서울특별시 동작구 노량진동 장승배기로 128,37.5089187,126.9405506,동작구
1306,중소기업은행,노원역,서울특별시 노원구 상계2동 노해로 489,37.6549216,127.0621637,노원구
1307,중소기업은행,논현역,서울특별시 강남구 논현동 학동로 110,37.5113424,127.0231422,강남구
1308,중소기업은행,답십리,서울특별시 동대문구 답십리동 천호대로 233,37.5645064,127.0575456,동대문구
1309,중소기업은행,당산동,서울특별시 영등포구 영등포동8가 영신로 220,37.5283544,126.9053409,영등포구
1310,중소기업은행,대림동,서울특별시 영등포구 대림동 대림로 195,37.4980844,126.8981825,영등포구
1311,중소기업은행,대치역,서울특별시 강남구 대치동 남부순환로 2936,37.4933573,127.0619092,강남구
1312,중소기업은행,대학로,서울특별시 종로구 동숭동 동숭길 101,37.5824658,127.0040158,종로구
1313,중소기업은행,도곡팰리스,서울특별시 강남구 도곡동 가운로 2,37.4863523,127.0518779,강남구
1314,중소기업은행,독립문,서울특별시 종로구 무악동 통일로 246-10,37.5753812,126.9608045,종로구
1315,중소기업은행,독산동,서울특별시 금천구 독산동 시흥대로 376,37.467099,126.8981295,금천구
1316,중소기업은행,독산역,서울특별시 금천구 가산동 가산디지털1로 2,37.4668304,126.8883257,금천구
1317,중소기업은행,독산중앙,서울특별시 금천구 독산동 가산로 78,37.4733179,126.8955225,금천구
1318,중소기업은행,돈암동,서울특별시 성북구 동소문동 6가 아리랑로 3,37.593531,127.0142559,성북구
1319,중소기업은행,동대문,서울특별시 종로구 종로4가 종로 189,37.5710823,126.9987776,종로구
1320,중소기업은행,동부이촌동WM센터,서울특별시 용산구 이촌동 이촌로 182,37.5211774,126.9673531,용산구
1321,중소기업은행,동여의도,서울특별시 영등포구 여의도동 국제금융로 52,37.5226872,126.9294482,영등포구
1322,중소기업은행,둔촌동,서울특별시 강동구 성내동 양재대로 1317,37.5304933,127.128992,강동구
1323,중소기업은행,등촌역,서울특별시 양천구 목동 공항대로 556,37.5493048,126.8671283,양천구
1324,중소기업은행,뚝섬역,서울특별시 성동구 성수동1가 성수일로 55,37.5454262,127.0494961,성동구
1325,중소기업은행,마곡발산역,서울특별시 강서구 마곡동 공항대로 261,37.5706297,126.8298909,강서구
1326,중소기업은행,마곡신방화역,서울특별시 강서구 마곡동 방화대로 294,37.5670135,126.8170661,강서구
1327,중소기업은행,마들역,서울특별시 노원구 상계동 동일로 1527,37.6647623,127.057385,노원구
1328,중소기업은행,마장동,서울특별시 성동구 마장동 마장로 309,37.566869,127.0435195,성동구
1329,중소기업은행,마포,서울특별시 마포구 공덕동 마포대로 114,37.5448003,126.9520476,마포구
1330,중소기업은행,마포중앙,서울특별시 마포구 도화동 마포대로 53,37.54144,126.9472233,마포구
1331,중소기업은행,면목동,서울특별시 중랑구 면목동 겸재로 154,37.5875586,127.0848568,중랑구
1332,중소기업은행,명동역,서울특별시 중구 충무로1가 퇴계로 109,37.5602023,126.9811083,중구
1333,중소기업은행,목동WM센터,서울특별시 양천구 목동 목동동로 401,37.5363533,126.8811224,양천구
1334,중소기업은행,목동사거리,서울특별시 강서구 화곡동 등촌로 29,37.532558,126.8634338,강서구
1335,중소기업은행,목동쉐르빌,서울특별시 양천구 신정동 장기로 8,37.5151795,126.8557093,양천구
1336,중소기업은행,무교,서울특별시 중구 무교동 무교로 20,37.5676418,126.9795558,중구
1337,중소기업은행,무역센터,서울특별시 강남구 삼성동 내외중앙로 55,37.51397499999999,127.0561274,강남구
1338,중소기업은행,문래동,서울특별시 영등포구 문래동3가 도림로128길 2,37.5142062,126.89613,영등포구
1339,중소기업은행,문래중앙,서울특별시 영등포구 문래동6가 선유로 49,37.51831689999999,126.8886794,영등포구
1340,중소기업은행,문래하이테크,서울특별시 영등포구 문래동3가 경인로 775,37.5172698,126.8957152,영등포구
1341,중소기업은행,문정법조타운,서울특별시 송파구 문정동 법원로11길 7,37.4816698,127.1206971,송파구
1342,중소기업은행,반포,서울특별시 서초구 잠원동 반포대로 304,37.5061614,127.0010832,서초구
1343,중소기업은행,반포자이WM센터,서울특별시 서초구 반포동 잠원로 24,37.5071264,127.0098413,서초구
1344,중소기업은행,방배동,서울특별시 서초구 방배동 효령로34길 4,37.4813559,126.9988788,서초구
1345,중소기업은행,방배중앙,서울특별시 서초구 방배동 방배로 226,37.49340520000001,126.9906826,서초구
1346,중소기업은행,방이역,서울특별시 송파구 오금동 마천로5길 4,37.5086931,127.1267775,송파구
1347,중소기업은행,방학동,서울특별시 도봉구 방학동 도봉로 683,37.66557299999999,127.0421697,도봉구
1348,중소기업은행,보라매,서울특별시 동작구 신대방동 보라매로5가길 24,37.4906907,126.9239521,동작구
1349,중소기업은행,본부기업금융센터,서울특별시 중구 을지로2가 을지로 79,37.5658833,126.9859321,중구
1350,중소기업은행,북가좌동,서울특별시 서대문구 북가좌동 응암로 107,37.5824199,126.9129038,서대문구
1351,중소기업은행,불광역,서울특별시 은평구 대조동 통일로 725,37.6101617,126.9296452,은평구
1352,중소기업은행,사당역,서울특별시 동작구 사당1동 동작대로 27,37.4789164,126.9813005,동작구
1353,중소기업은행,삼성동,서울특별시 강남구 논현동 봉은사로 303,37.5095209,127.0401405,강남구
1354,중소기업은행,삼성역,서울특별시 강남구 삼성동 테헤란로 625,37.5101432,127.0660471,강남구
1355,중소기업은행,삼양동,서울특별시 강북구 미아동 솔샘로 253,37.6198229,127.020684,강북구
1356,중소기업은행,상계역,서울특별시 노원구 중계동 덕릉로 688,37.6589447,127.0757142,노원구
1357,중소기업은행,상암동,서울특별시 마포구 상암동 성암로 189,37.5767302,126.8978768,마포구
1358,중소기업은행,서교동,서울특별시 마포구 망원동 월드컵로 59,37.554386,126.9112355,마포구
1359,중소기업은행,서소문,서울특별시 중구 서소문동 서소문로 120,37.5631664,126.9739275,중구
1360,중소기업은행,서여의도,서울특별시 영등포구 여의도동 은행로 30,37.5281888,126.9227229,영등포구
1361,중소기업은행,서울대역,서울특별시 관악구 봉천동 남부순환로 1794,37.4813208,126.9492947,관악구
1362,중소기업은행,서초3동,서울특별시 서초구 서초동 공단1대로 229,37.3370601,126.727431,서초구
1363,중소기업은행,서초남,서울특별시 서초구 서초동 서초중앙로 63,37.4873136,127.0144532,서초구
1364,중소기업은행,서초동,서울특별시 서초구 반포동 사평대로 369,37.50444,127.0233213,서초구
1365,중소기업은행,서초중앙,서울특별시 서초구 서초동 효령로 321,37.48614730000001,127.0191221,서초구
1366,중소기업은행,석수역,서울특별시 금천구 시흥동 시흥대로 46,37.4378851,126.9037259,금천구
1367,중소기업은행,석촌고분역,서울특별시 송파구 석촌동 삼학사로 48,37.501415,127.0971243,송파구
1368,중소기업은행,선릉역,서울특별시 강남구 역삼동 테헤란로 328,37.50371440000001,127.0475059,강남구
1369,중소기업은행,선유도역,서울특별시 영등포구 양평동5가 양평로25길 8,37.5388416,126.8907376,영등포구
1370,중소기업은행,성수2가,서울특별시 성동구 성수동2가 동일로 81,37.5401838,127.0624513,성동구
1371,중소기업은행,성수동,서울특별시 성동구 성수동2가 연무장7길 16,37.5439477,127.0551458,성동구
1372,중소기업은행,성수화양,서울특별시 성동구 성수동2가 아차산로17길 48,37.5466713,127.0661249,성동구
1373,중소기업은행,성수희망,서울특별시 성동구 성수동2가 아차산로 153,37.5434584,127.0610313,성동구
1374,중소기업은행,송파,서울특별시 송파구 송파동 송파대로 422,37.5051072,127.1135469,송파구
1375,중소기업은행,수색,서울특별시 은평구 수색동 수색로 256,37.5822064,126.8959734,은평구
1376,중소기업은행,수유사거리,서울특별시 강북구 수유동 일직로 43,37.6383275,127.0073721,강북구
1377,중소기업은행,순천향대학교 서울병원(출),서울특별시 용산구 한남동 대사관로 59,37.5337071,127.0043068,용산구
1378,중소기업은행,시흥동,서울특별시 금천구 시흥동 시흥대로 236,37.455006,126.9009882,금천구
1379,중소기업은행,시흥유통센터,서울특별시 금천구 시흥동 하남대로 843,37.4495276,126.9092894,금천구
1380,중소기업은행,신길동,서울특별시 영등포구 신길동 도신로60길 1,37.5116686,126.9172357,영등포구
1381,중소기업은행,신당역,서울특별시 중구 황학동 퇴계로 439,37.5659613,127.0205165,중구
1382,중소기업은행,신대방역,서울특별시 관악구 신림동 조원로 128,37.4851574,126.9166244,관악구
1383,중소기업은행,신림동,서울특별시 관악구 신림동 남부순환로 1440,37.4807788,126.9106581,관악구
1384,중소기업은행,신사동,서울특별시 강남구 신사동 도산대로 139,37.5182349,127.023705,강남구
1385,중소기업은행,신설동,서울특별시 동대문구 신설동 왕산로 6,37.5758075,127.0244917,동대문구
1386,중소기업은행,신수동,서울특별시 마포구 창전동 서강로 105,37.5525474,126.9327995,마포구
1387,중소기업은행,신정동,서울특별시 양천구 신정동 신월로 291,37.5214854,126.8535731,양천구
1388,중소기업은행,신촌,서울특별시 서대문구 창천동 신촌로 67,37.5564894,126.9340655,서대문구
1389,중소기업은행,아현역,서울특별시 서대문구 북아현동 북아현로 22,37.5593961,126.956828,서대문구
1390,중소기업은행,안암동,서울특별시 성북구 안암동5가 안암로 119,37.5861783,127.0322783,성북구
1391,중소기업은행,압구정동,서울특별시 강남구 신사동 논현로 868,37.5261192,127.0287741,강남구
1392,중소기업은행,약수동,서울특별시 중구 신당동 다산로 112,37.5538341,127.0105216,중구
1393,중소기업은행,양재동,서울특별시 서초구 양재동 마방로10길 25,37.4765898,127.0442929,서초구
1394,중소기업은행,양재역,서울특별시 서초구 양재동 강남대로 216,37.4719823,127.0374623,서초구
1395,중소기업은행,양평동,서울특별시 영등포구 양평동3가 선유로 146,37.5290356,126.8910476,영등포구
1396,중소기업은행,언주로,서울특별시 강남구 신사동 도산대로 307,37.5223424,127.0348808,강남구
1397,중소기업은행,언주역,서울특별시 강남구 논현동 봉은사로 179,37.5074822,127.0334248,강남구
1398,중소기업은행,여의도,서울특별시 영등포구 여의도동 여의나루로 81,37.5243234,126.9277702,영등포구
1399,중소기업은행,여의도IFC,서울특별시 영등포구 여의도동 국제금융로 10,37.5249782,126.9252984,영등포구
1400,중소기업은행,여의도중앙,서울특별시 영등포구 여의도동 여의나루로 61,37.52323310000001,126.92601,영등포구
1401,중소기업은행,역삼WM센터,서울특별시 강남구 역삼동 강남대로 390,37.4978461,127.0286372,강남구
1402,중소기업은행,역삼남,서울특별시 강남구 도곡동 호수공원1로 22,37.48859059999999,127.0452757,강남구
1403,중소기업은행,역삼역,서울특별시 강남구 역삼동 논현로 418,37.4976295,127.0388251,강남구
1404,중소기업은행,역삼중앙,서울특별시 강남구 역삼동 역삼로 114,37.4931589,127.0316733,강남구
1405,중소기업은행,연희동,서울특별시 서대문구 연희동 연희로 141,37.5703288,126.9333493,서대문구
1406,중소기업은행,염창동,서울특별시 강서구 등촌동 양천로 588,37.5575223,126.8559611,강서구
1407,중소기업은행,영등포,서울특별시 영등포구 영등포동4가 영중로 13,37.5178903,126.9035759,영등포구
1408,중소기업은행,영업부,서울특별시 중구 을지로2가 을지로 79,37.5658833,126.9859321,중구
1409,중소기업은행,오류동,서울특별시 구로구 오류동 경인로 187,37.4955728,126.8417612,구로구
1410,중소기업은행,오목교역,서울특별시 양천구 목동 오목로 325,37.5251528,126.8737199,양천구
1411,중소기업은행,온수역,서울특별시 구로구 온수동 부일로 869,37.4929369,126.8236383,구로구
1412,중소기업은행,용산,서울특별시 용산구 남영동 한강대로 264-1,37.5419877,126.973375,용산구
1413,중소기업은행,용산전자,서울특별시 용산구 한강로2가 청파로20길 34,37.53300979999999,126.9650323,용산구
1414,중소기업은행,용산중앙,서울특별시 용산구 이태원동 녹사평대로 240,37.5389015,126.9876745,용산구
1415,중소기업은행,우장산역,서울특별시 강서구 화곡동 강서로 242,37.5471979,126.8368101,강서구
1416,중소기업은행,워커힐,서울특별시 광진구 광장동 아차산로 635,37.55052450000001,127.1065516,광진구
1417,중소기업은행,원효로,서울특별시 용산구 원효로3가 원효로 142,37.5327876,126.957024,용산구
1418,중소기업은행,을지6가,서울특별시 중구 을지로6가 장충단로 263,37.5677844,127.0068849,중구
1419,중소기업은행,을지로,서울특별시 중구 인현동2가 마른내로 72,37.5642195,126.9961708,중구
1420,중소기업은행,응암동,서울특별시 은평구 응암동 은평로 210,37.60102060000001,126.9310765,은평구
1421,중소기업은행,이동점포(U-IBK2호),서울특별시 중구 을지로2가 을지로 79,37.5658833,126.9859321,중구
1422,중소기업은행,이동점포(U-IBK3호),서울특별시 중구 을지로2가 을지로 79,37.5658833,126.9859321,중구
1423,중소기업은행,이수역,서울특별시 서초구 방배동 동작대로 134,37.48864409999999,126.9828861,서초구
1424,중소기업은행,이태원,서울특별시 용산구 이태원동 이태원로27나길 40,37.5349939,126.9968947,용산구
1425,중소기업은행,인사동,서울특별시 종로구 인사동 인사동5길 25,37.5720865,126.9854332,종로구
1426,중소기업은행,잠실,서울특별시 송파구 방이동 오금로 91,37.5156746,127.1253915,송파구
1427,중소기업은행,잠실엘스,서울특별시 송파구 잠실동 올림픽로 119,37.5121053,127.084188,송파구
1428,중소기업은행,장안동,서울특별시 동대문구 장안동 답십리로 276,37.5721761,127.0707939,동대문구
1429,중소기업은행,장위동,서울특별시 성북구 장위동 화랑로 237,37.61518720000001,127.0498879,성북구
1430,중소기업은행,장한평역,서울특별시 성동구 용답동 자동차시장1길 73,37.5606969,127.0656051,성동구
1431,중소기업은행,종로,서울특별시 종로구 종로2가 종로 104,37.5699371,126.9887823,종로구
1432,중소기업은행,종로6가,서울특별시 종로구 종로6가 종로 266,37.5719508,127.0076798,종로구
1433,중소기업은행,종암동,서울특별시 성북구 종암동 종암로 108,37.59982850000001,127.0344715,성북구
1434,중소기업은행,중계동WM센터,서울특별시 노원구 중계동 중계로 206,37.6508711,127.077531,노원구
1435,중소기업은행,중곡동,서울특별시 광진구 중곡동 천호대로 579,37.5564322,127.0826217,광진구
1436,중소기업은행,중화동,서울특별시 중랑구 묵동 동일로 847,37.6060543,127.078307,중랑구
1437,중소기업은행,천호동,서울특별시 강동구 천호동 천호대로 1033,37.5378928,127.1269314,강동구
1438,중소기업은행,청계5가,서울특별시 중구 주교동 청계천로 206-1,37.5690634,127.0005864,중구
1439,중소기업은행,청계7가,서울특별시 중구 황학동 청계천로 400,37.5709778,127.021434,중구
1440,중소기업은행,청계8가,서울특별시 동대문구 용두동 청계천로 471,37.5703385,127.0299072,동대문구
1441,중소기업은행,청담동,서울특별시 강남구 청담동 도산대로 446,37.5235822,127.0451275,강남구
1442,중소기업은행,청량리,서울특별시 동대문구 청량리동 홍릉로 1,37.5804357,127.0444973,동대문구
1443,중소기업은행,테헤란로,서울특별시 강남구 역삼동 테헤란로 132,37.4992674,127.0330423,강남구
1444,중소기업은행,테헤란로중앙,서울특별시 강남구 대치동 동탄대로 489,37.4991887,127.0633458,강남구
1445,중소기업은행,퇴계로,서울특별시 중구 충무로4가 퇴계로 235,37.5623301,126.9958453,중구
1446,중소기업은행,학동역,서울특별시 강남구 논현동 학동로 177,37.5142281,127.0302622,강남구
1447,중소기업은행,한국기술센터(출),서울특별시 강남구 역삼동 상동면 상동로 879,35.3178535,128.9184421,강남구
1448,중소기업은행,한남동WM센터,서울특별시 용산구 한남동 한남대로 72,37.5350744,127.0070124,용산구
1449,중소기업은행,한성대학교(출),서울특별시 성북구 삼선동2가 삼선교로16길 116,37.5827633,127.0102545,성북구
1450,중소기업은행,한티역,서울특별시 강남구 대치동 남양읍 시청로 3,37.2089388,126.8191411,강남구
1451,중소기업은행,홍대역,서울특별시 마포구 동교동 양화로 148,37.5555736,126.9225937,마포구
1452,중소기업은행,회기역(출),서울특별시 동대문구 이문동 이문로 53,37.5922436,127.057167,동대문구
1453,하나은행,63빌딩,서울특별시 영등포구 여의도동 63로 50 (여의도동),37.5198332,126.9400724,영등포구
1454,하나은행,Club1 PB 센터,서울특별시 강남구 삼성동 영동대로96길26,37.5109292,127.0646692,강남구
1455,하나은행,Club1 한남PB센터,서울특별시 용산구 한남동 한남대로 98,37.5371739,127.0055791,용산구
1456,하나은행,LS용산타워,"서울특별시 용산구 한강로2가 한강대로 92 (한강로2가, LS용산타워)",37.5278825,126.9676321,용산구
1457,하나은행,SBS,서울특별시 양천구 목동 목동서로 161 (목동),37.5291671,126.8735502,양천구
1458,하나은행,SK센터,서울특별시 종로구 서린동 종로 26 (서린동),37.5699665,126.9827769,종로구
1459,하나은행,jtbc(출),서울특별시 마포구 상암동 상암산로 48-6 (상암동),37.577028,126.8900868,마포구
1460,하나은행,가락금융센터,서울특별시 송파구 가락동 중대로135,37.4951092,127.122443,송파구
1461,하나은행,가락중앙,"서울특별시 송파구 가락동 동남로18길 9 (가락동, 극동APT)",37.49622,127.131679,송파구
1462,하나은행,가산디지털금융센터,서울특별시 금천구 가산동 가산디지털1로 131 (가산동),37.4770104,126.8823347,금천구
1463,하나은행,강남,서울특별시 강남구 역삼동 테헤란로 126 (역삼동),37.4990532,127.0323061,강남구
1464,하나은행,강남구청역,서울특별시 강남구 삼성동 선릉로 652,37.51397499999999,127.0561274,강남구
1465,하나은행,강남금융센터,서울특별시 강남구 삼성동 삼성로508,37.51397499999999,127.0561274,강남구
1466,하나은행,강남역,서울특별시 서초구 서초동 강남대로 405 (서초동),37.4988268,127.0266671,서초구
1467,하나은행,강남역금융센터,"서울특별시 서초구 서초2동 강남대로 381 (서초동, 두산베어스텔)",37.496621,127.0276168,서초구
1468,하나은행,강남파이낸스PB센터,서울특별시 강남구 역삼동 테헤란로 152 (역삼동),37.4998097,127.0366289,강남구
1469,하나은행,강동경희대병원(출),서울특별시 강동구 상일동 동남로 892 (상일동),37.5511028,127.1696401,강동구
1470,하나은행,강동역,서울특별시 강동구 천호동 천호대로 1089 (천호동),37.5366155,127.1333074,강동구
1471,하나은행,강서금융센터,서울특별시 양천구 목동 공항대로 604 (목동),37.5499147,126.8662476,양천구
1472,하나은행,개봉동(출),서울특별시 구로구 개봉동 개봉로 71 (개봉동),37.4920789,126.8556781,구로구
1473,하나은행,개포동,"서울특별시 강남구 개포동 언주로 101 (개포동, 쌍용개포APT)",37.49248,127.072482,강남구
1474,하나은행,거여동,서울특별시 송파구 거여동 오금로 506 (거여동),37.4897279,127.1449912,송파구
1475,하나은행,경복궁역,서울특별시 종로구 적선동 사직로 130 (적선동),37.574115,126.9743671,종로구
1476,하나은행,경희대(출),서울특별시 동대문구 회기동 경희대로 26-6 (회기동),37.5967122,127.0513948,동대문구
1477,하나은행,경희의료원(출),서울특별시 동대문구 회기동 경희대로 23 (회기동),37.5967122,127.0513948,동대문구
1478,하나은행,계동,서울특별시 종로구 계동 율곡로 75 (계동),37.5811258,126.9862087,종로구
1479,하나은행,고대,서울특별시 성북구 안암동5가 안암로 145 (안암동5가),37.5887496,127.0323735,성북구
1480,하나은행,고대구로병원(출),서울특별시 구로구 구로동 구로동로 148 (구로동),37.4921086,126.8847444,구로구
1481,하나은행,고대병원,서울특별시 성북구 안암동5가 고려대로 73 (안암동5가),37.5871445,127.0269854,성북구
1482,하나은행,고덕역,서울특별시 강동구 명일동 동남로75길 29 (명일동),37.5541687,127.1545287,강동구
1483,하나은행,고척동,서울특별시 구로구 고척동 경인로43길 56 (고척동),37.4998083,126.8607807,구로구
1484,하나은행,공덕동,서울특별시 마포구 공덕동 마포대로 137 (공덕동),37.5468379,126.9526195,마포구
1485,하나은행,공덕역,서울특별시 마포구 공덕동 마포대로 130 (공덕동,37.5500859,126.9542115,마포구
1486,하나은행,공릉동,서울특별시 노원구 공릉동 공릉로 187 (공릉동),37.626444,127.0788963,노원구
1487,하나은행,공항로,서울특별시 강서구 화곡6동 공항대로 426 (화곡동),37.541416,126.839984,강서구
1488,하나은행,광운대(출),서울특별시 노원구 월계동 광운로 20 (월계동),37.6197029,127.0596708,노원구
1489,하나은행,광장동,서울특별시 광진구 광장동 아차산로 563 (광장동),37.5531508,127.111955,광진구
1490,하나은행,광화문역,서울특별시 종로구 당주동 새문안로5길 19 (당주동),37.571988,126.9743281,종로구
1491,하나은행,교대역금융센터,서울특별시 서초구 서초동 서초대로 320 (서초동),37.4941923,127.0165987,서초구
1492,하나은행,구로,서울특별시 구로구 구로동 구로동로 115 (구로동),37.4888001,126.8842021,구로구
1493,하나은행,구로금융센터,서울특별시 구로구 구로동 디지털로300 (구로동),37.4848943,126.8965401,구로구
1494,하나은행,구로디지털금융센터,서울특별시 구로구 구로동 디지털로34길 55 (구로동),37.4842965,126.8992595,구로구
1495,하나은행,구로역,서울특별시 구로구 구로5동 새말로 18(구로동),37.5019462,126.8831692,구로구
1496,하나은행,구의역,서울특별시 광진구 구의동 자양로 116?(구의동)??,37.5382263,127.0838691,광진구
1497,하나은행,국제전자센터,서울특별시 서초구 서초동 효령로 304 (서초동),37.484742,127.0177676,서초구
1498,하나은행,군자역,서울특별시 광진구 중곡2동 천호대로 575 (중곡동),37.556515,127.0821671,광진구
1499,하나은행,굽은다리역,서울특별시 강동구 명일동 양재대로 1566 (명일동),37.5452055,127.1432317,강동구
1500,하나은행,낙성대역,서울특별시 관악구 봉천동 남부순환로 1922 (봉천동),37.4770818,126.9627013,관악구
1501,하나은행,남가좌동,서울특별시 서대문구 남가좌동 수색로 48 (남가좌동),37.5705107,126.91371,서대문구
1502,하나은행,남대문,서울특별시 중구 남대문로5가 통일로 10 (남대문로5가),37.5560962,126.9753153,중구
1503,하나은행,남서울,서울특별시 강남구 논현동 언주로 651 (논현동),37.5136787,127.0317124,강남구
1504,하나은행,내자동,서울특별시 종로구 내자동 사직로8길 39 (내자동),37.5762277,126.9707332,종로구
1505,하나은행,노량진,서울특별시 동작구 노량진동 노량진로 156 (노량진동),37.5133936,126.9432222,동작구
1506,하나은행,노원역,서울특별시 노원구 상계동 노해로 467 (상계동),37.654481,127.0599273,노원구
1507,하나은행,논현역,서울특별시 강남구 논현동 강남대로 546 (논현동),37.5136787,127.0317124,강남구
1508,하나은행,답십리역,서울특별시 동대문구 답십리5동 천호대로 273 (답십리동),37.5645064,127.0575456,동대문구
1509,하나은행,당산금융센터,"서울특별시 영등포구 당산동5가 당산로 222 (당산동5가, 당산디오빌)",37.5332974,126.9022397,영등포구
1510,하나은행,대림역,서울특별시 영등포구 대림동 도림로 135,37.4932252,126.8969081,영등포구
1511,하나은행,대치동,서울특별시 강남구 대치동 남부순환로 2942 (대치동),37.4935818,127.0623994,강남구
1512,하나은행,대치중앙,서울특별시 강남구 대치동 도곡로 501 (대치동),37.4993898,127.061127,강남구
1513,하나은행,도곡PB센터,서울특별시 강남구 도곡동 언주로30길 39 (도곡동),37.4886584,127.0530163,강남구
1514,하나은행,도곡금융센터,서울특별시 강남구 도곡2동 언주로30길 13 (도곡동),37.4881202,127.0510778,강남구
1515,하나은행,도곡동,서울특별시 강남구 도곡동 도곡로 204 (도곡동),37.4860896,127.0424282,강남구
1516,하나은행,도곡렉슬,서울특별시 강남구 도곡동 선릉로 225 (도곡동),37.48859059999999,127.0452757,강남구
1517,하나은행,독산동,서울특별시 금천구 독산동 시흥대로 421 (독산동),37.4711727,126.8976971,금천구
1518,하나은행,돈암동,서울특별시 성북구 동선동4가 동소문로 105 (동선동4가),37.5937142,127.0176999,성북구
1519,하나은행,동대문,서울특별시 종로구 종로6가 종로 272 (종로6가),37.5710513,127.0077232,종로구
1520,하나은행,두산타워,서울특별시 중구 을지로6가 장충단로 275 (을지로6가),37.5677844,127.0068849,중구
1521,하나은행,둔촌역,서울특별시 강동구 성내동 양재대로 1349 (성내동),37.5304933,127.128992,강동구
1522,하나은행,롯데월드타워금융센터,서울특별시 송파구 신천동 올림픽로 300 (신천동),37.5131008,127.1034334,송파구
1523,하나은행,마곡금융센터,서울특별시 강서구 마곡동 공항대로 237(마곡동),37.5706297,126.8298909,강서구
1524,하나은행,마포,서울특별시 마포구 도화동 큰우물로 75 (도화동),37.541265,126.9462986,마포구
1525,하나은행,마포역,서울특별시 마포구 도화동 마포대로 52 (도화동),37.5403424,126.9477305,마포구
1526,하나은행,만리동(출),서울특별시 마포구 공덕동 효창목길 6 (공덕동),37.546991,126.9588426,마포구
1527,하나은행,망우동,서울특별시 중랑구 망우동 망우로 430 (망우동),37.5994697,127.1000083,중랑구
1528,하나은행,망원역,서울특별시 마포구 망원동 월드컵로 87 (망원동),37.5565016,126.9091654,마포구
1529,하나은행,면목금융센터,서울특별시 중랑구 면목동 동일로 628 (면목동),37.5864107,127.0802327,중랑구
1530,하나은행,명동금융센터,서울특별시 중구 충무로1가 퇴계로 97 (충무로1가),37.5611699,126.9825162,중구
1531,하나은행,명지대인문캠퍼스(출),서울특별시 서대문구 남가좌동 거북골로 34 (남가좌동),37.5802263,126.9231205,서대문구
1532,하나은행,명지전문대(출),서울특별시 서대문구 홍은2동 가좌로 134 (홍은동),37.5844978,126.9250537,서대문구
1533,하나은행,목동,서울특별시 양천구 목5동 목동서로 67 (목동),37.5363869,126.8785651,양천구
1534,하나은행,목동금융센터,서울특별시 양천구 목동 오목로 311,37.5252269,126.8720565,양천구
1535,하나은행,목동남,서울특별시 양천구 신정동 목동서로 381 (신정동),37.51627920000001,126.8617134,양천구
1536,하나은행,목동중앙,서울특별시 양천구 목동 목동동로 347 (목동),37.5329166,126.8771476,양천구
1537,하나은행,무역센터,서울특별시 강남구 삼성동 테헤란로87길 46 (삼성동),37.5125207,127.0588194,강남구
1538,하나은행,문래역,"서울특별시 영등포구 문래동3가 당산로4길 12 (문래동3가, 문래자이)",37.5160649,126.8968052,영등포구
1539,하나은행,문정동,서울특별시 송파구 문정2동 중대로 80 (문정동),37.4917382,127.1177515,송파구
1540,하나은행,문정법조타운,서울특별시 송파구 문정동 법원로 114 (문정동),37.4816698,127.1206971,송파구
1541,하나은행,미아금융센터,서울특별시 강북구 미아동 도봉로13길 5 (미아동),37.614445,127.0294675,강북구
1542,하나은행,반포남,서울특별시 서초구 반포동 서초중앙로 227 (반포동),37.5019044,127.0114351,서초구
1543,하나은행,반포서래,서울특별시 서초구 반포4동 사평대로 140 (반포동),37.5003722,126.9996374,서초구
1544,하나은행,반포중앙,"서울특별시 서초구 반포동 반포대로 287 (반포동, 래미안퍼스티지 중심상가)",37.5044951,127.0007548,서초구
1545,하나은행,반포타운,서울특별시 서초구 잠원동 신반포로 213 (잠원동),37.5072627,127.0071911,서초구
1546,하나은행,방배금융센터,서울특별시 서초구 방배동 방배로 162 (방배동),37.4882589,126.9938391,서초구
1547,하나은행,방배동,서울특별시 서초구 방배동 방배로 131 (방배동),37.4857693,126.994303,서초구
1548,하나은행,방배서래,서울특별시 서초구 방배동 방배로268(방배동),37.49713879999999,126.9897389,서초구
1549,하나은행,방이동,서울특별시 송파구 방이동 위례성대로 14 (방이동),37.5165622,127.1139344,송파구
1550,하나은행,방학동,서울특별시 도봉구 방학동 방학로 223 (방학동),37.6614315,127.0271504,도봉구
1551,하나은행,방화동,서울특별시 강서구 방화동 양천로 108 (방화동),37.5794168,126.818569,강서구
1552,하나은행,번동(출),서울특별시 강북구 번3동 오현로32길 4-3 (번동),37.6284362,127.0398565,강북구
1553,하나은행,법조타운,서울특별시 서초구 서초동 서초대로 301 (서초동),37.4942802,127.0143578,서초구
1554,하나은행,보라매,"서울특별시 동작구 신대방2동 보라매로5가길 16 (신대방동, 보라매아카데미)",37.4913311,126.924105,동작구
1555,하나은행,북가좌,서울특별시 서대문구 북가좌동 응암로 86 (북가좌동),37.5803904,126.9120076,서대문구
1556,하나은행,삼선교,서울특별시 성북구 삼선동1가 창경궁로 328 (삼선동1가),37.5880639,127.0060674,성북구
1557,하나은행,삼성도심공항센터,서울특별시 강남구 삼성동 테헤란로87길 21 (삼성동),37.5090125,127.05808,강남구
1558,하나은행,삼성센터,"서울특별시 서초구 서초동 서초대로74길 11 (서초동, 삼성전자빌딩)",37.4966085,127.0269023,서초구
1559,하나은행,삼성역,서울특별시 강남구 대치동 테헤란로 534 (대치동),37.5082499,127.0623918,강남구
1560,하나은행,삼성역금융센터,"서울특별시 강남구 대치동 테헤란로 512 (대치동, 신안빌딩)",37.5072935,127.0592133,강남구
1561,하나은행,삼성역기업센터,서울특별시 강남구 삼성동 영동대로96길26,37.5109292,127.0646692,강남구
1562,하나은행,삼성중앙역,서울특별시 강남구 삼성동 삼성로 570 (삼성동),37.51397499999999,127.0561274,강남구
1563,하나은행,상계동,서울특별시 노원구 상계동 한글비석로 474 (상계동),37.6648566,127.0654725,노원구
1564,하나은행,상공회의소,서울특별시 중구 남대문로4가 세종대로 39 (남대문로4가),37.5606129,126.97564,중구
1565,하나은행,상도역,서울특별시 동작구 상도1동 상도로 265 (상도1동),37.5038365,126.9476598,동작구
1566,하나은행,상암DMC,서울특별시 마포구 상암동 월드컵북로 402 (상암동),37.5800559,126.8889998,마포구
1567,하나은행,서교동,서울특별시 마포구 서교동 와우산로97 (서교동),37.5531151,126.9243483,마포구
1568,하나은행,서대문,서울특별시 종로구 신문로2가 새문안로 42 (신문로2가),37.5708649,126.9692283,종로구
1569,하나은행,서대문역,서울특별시 서대문구 충정로2가 통일로 135 (충정로2가),37.5655399,126.9666448,서대문구
1570,하나은행,서린,서울특별시 종로구 서린동 종로 22 (서린동),37.5695207,126.9804208,종로구
1571,하나은행,서빙고(출),서울특별시 용산구 서빙고동 이촌로 352 (용산동6가),37.5186337,126.9848172,용산구
1572,하나은행,서소문,서울특별시 중구 서소문동 서소문로 110 (서소문동),37.5631625,126.9758163,중구
1573,하나은행,서압구정,서울특별시 강남구 신사동 압구정로 156 (신사동),37.5259715,127.026812,강남구
1574,하나은행,서울대입구역,"서울특별시 관악구 봉천7동 남부순환로 1836 (봉천동, 남경도빌딩)",37.48048259999999,126.9537386,관악구
1575,하나은행,서울숲,서울특별시 성동구 성수동1가 왕십리로 88 (성수동1가),37.5436099,127.0428194,성동구
1576,하나은행,서울아산병원,서울특별시 송파구 풍납동 올림픽로43길 88 (풍납동),37.5262749,127.1094775,송파구
1577,하나은행,서울아산병원신관(출),서울특별시 송파구 풍납동 올림픽로43길 88 (풍납동),37.5262749,127.1094775,송파구
1578,하나은행,서청담,서울특별시 강남구 청담동 학동로 501 (청담동),37.5192579,127.050501,강남구
1579,하나은행,서초,서울특별시 서초구 서초3동 서초중앙로 69 (서초동),37.4879105,127.0141877,서초구
1580,하나은행,서초금융센터,서울특별시 서초구 서초동 강남대로 299(서초동),37.489724,127.0309939,서초구
1581,하나은행,서초동,서울특별시 서초구 서초동 서초대로 286 (서초동),37.4930834,127.0127569,서초구
1582,하나은행,서초로,서울특별시 서초구 서초동 효령로 190 (서초동),37.4825607,127.0050443,서초구
1583,하나은행,서초슈퍼빌,"서울특별시 서초구 서초동 서초중앙로 15 (서초동, 현대슈퍼빌)",37.4830516,127.0161646,서초구
1584,하나은행,석계역,서울특별시 노원구 월계3동 마들로1가길 121 (월계동),37.6178025,127.0685682,노원구
1585,하나은행,석촌역,서울특별시 송파구 석촌동 백제고분로 362 (석촌동),37.50447399999999,127.1066173,송파구
1586,하나은행,선릉역,서울특별시 강남구 삼성동 테헤란로 401 (삼성동),37.5050127,127.0492224,강남구
1587,하나은행,성북동,서울특별시 성북구 성북2동 성북로 122 (성북동),37.5940041,126.9961036,성북구
1588,하나은행,성산동,서울특별시 마포구 성산동 월드컵북로 136 (성산동),37.5666619,126.9106178,마포구
1589,하나은행,성수역,서울특별시 성동구 성수2가3동 성수이로 113 (성수동2가),37.5452331,127.0571026,성동구
1590,하나은행,송이,서울특별시 송파구 송파2동 오금로32길 32 (송파동),37.5035828,127.1187767,송파구
1591,하나은행,송파,"서울특별시 송파구 오금동 오금로 307 (오금동, 삼부르네상스빌)",37.5033785,127.1265124,송파구
1592,하나은행,송파헬리오시티,서울특별시 송파구 가락동 송파대로 345,37.497519,127.1072265,송파구
1593,하나은행,수서역,서울특별시 강남구 수서동 밤고개로1길 10 (수서동),37.4880163,127.1018486,강남구
1594,하나은행,수유역금융센터,서울특별시 강북구 번동 도봉로 328 (번동),37.6370653,127.0252072,강북구
1595,하나은행,숙대입구역,서울특별시 용산구 갈월동 한강대로 296 (남영동),37.5446959,126.9725518,용산구
1596,하나은행,시흥,서울특별시 금천구 시흥동 독산로 132 (시흥동),37.4590385,126.9053476,금천구
1597,하나은행,시흥동,서울특별시 금천구 시흥동 시흥대로 210 (시흥동),37.4526371,126.9018179,금천구
1598,하나은행,신길동,서울특별시 영등포구 신길4동 신길로 204 (신길동),37.508156,126.911625,영등포구
1599,하나은행,신당역,서울특별시 중구 신당동 퇴계로 450 (신당동),37.5652803,127.0215431,중구
1600,하나은행,신림역,서울특별시 관악구 신림동 신림로 350,37.4855145,126.929967,관악구
1601,하나은행,신목동,서울특별시 양천구 신정2동 신목로 34 (신정동),37.5186553,126.8740241,양천구
1602,하나은행,신반포,서울특별시 서초구 반포동 신반포로15길 29 (반포동),37.5054206,126.9945515,서초구
1603,하나은행,신사동,서울특별시 서초구 잠원동 강남대로 587 (잠원동),37.5141016,127.0193799,서초구
1604,하나은행,신사역,서울특별시 강남구 논현동 도산대로 110(논현동),37.516186,127.0210828,강남구
1605,하나은행,신설동금융센터,서울특별시 동대문구 신설동 왕산로 14 (신설동),37.5759596,127.0252268,동대문구
1606,하나은행,신월동(출),서울특별시 양천구 신월동 곰달래로 47 (신월동),37.5302078,126.8378884,양천구
1607,하나은행,신자양(출),"서울특별시 광진구 자양동 능동로 18 (자양동, 이튼타워리버3차)",37.5329888,127.0680604,광진구
1608,하나은행,신정동,서울특별시 양천구 신정동 중앙로 272 (신정동),37.5205845,126.853116,양천구
1609,하나은행,신촌,서울특별시 마포구 노고산동 서강로 144 (노고산동),37.5543865,126.9377806,마포구
1610,하나은행,아시아선수촌PB센터,"서울특별시 송파구 잠실7동 올림픽로4길 17 (잠실동, 아시아선수촌APT)",37.5088935,127.0768667,송파구
1611,하나은행,아차산역,서울특별시 광진구 중곡동 천호대로 651 (중곡동),37.55302229999999,127.0896724,광진구
1612,하나은행,안국동,서울특별시 종로구 안국동 율곡로 53 (안국동),37.5779507,126.9838251,종로구
1613,하나은행,압구정,서울특별시 강남구 신사동 압구정로 210 (신사동),37.527685,127.03019,강남구
1614,하나은행,압구정PB센터,서울특별시 강남구 신사동 언주로 867 (신사동),37.5280658,127.0327674,강남구
1615,하나은행,압구정금융센터,서울특별시 강남구 신사동 압구정로 320 (신사동),37.5284952,127.0364174,강남구
1616,하나은행,약수역,서울특별시 중구 신당동 동호로 191 (신당동),37.5550528,127.0100687,중구
1617,하나은행,양재동,서울특별시 서초구 양재동 강남대로27길 7-15 (양재동),37.4786008,127.0379969,서초구
1618,하나은행,양재역,서울특별시 서초구 양재동 남부순환로 2620 (양재동),37.4844671,127.0373372,서초구
1619,하나은행,양재중앙,서울특별시 서초구 양재동 마방로 68 (양재동),37.4777802,127.0440423,서초구
1620,하나은행,언주역,서울특별시 강남구 역삼1동 논현로 563,37.5063091,127.0339962,강남구
1621,하나은행,여의도,서울특별시 영등포구 여의도동 국제금융로 72 (여의도동),37.5211039,126.9308752,영등포구
1622,하나은행,여의도광장,서울특별시 영등포구 여의도동 여의공원로 101 (여의도동),37.5292525,126.9249131,영등포구
1623,하나은행,여의도광장EXIM(출),서울특별시 영등포구 여의도동 은행로 38 (여의도동),37.5286052,126.9233963,영등포구
1624,하나은행,여의도금융센터,서울특별시 영등포구 여의도동 여의나루로 53-1 (여의도동),37.5226789,126.9250177,영등포구
1625,하나은행,역삼역금융센터,서울특별시 강남구 역삼1동 테헤란로 207 (역삼동),37.5016667,127.0385582,강남구
1626,하나은행,역삼중앙,서울특별시 강남구 역삼동 논현로 417 (역삼동),37.4973639,127.0381393,강남구
1627,하나은행,역촌동,서울특별시 은평구 역촌동 서오릉로 101 (역촌동),37.6087916,126.9202624,은평구
1628,하나은행,연신내역금융센터,서울특별시 은평구 불광2동 통일로 842 (불광동),37.6186065,126.9218995,은평구
1629,하나은행,연희동,서울특별시 서대문구 연희동 연희로 103 (연희동),37.56707490000001,126.9307727,서대문구
1630,하나은행,영등포금융센터,서울특별시 영등포구 영등포동4가 영중로 35 (영등포동4가),37.5178903,126.9035759,영등포구
1631,하나은행,영업1부,서울특별시 중구 을지로1가 을지로35,37.5659874,126.9805864,중구
1632,하나은행,영업1부PB센터,서울특별시 중구 을지로1가 을지로 35,37.5659874,126.9805864,중구
1633,하나은행,영업2부,"서울특별시 중구 을지로2가 을지로 55 (을지로2가, 하나은행별관빌딩)",37.5645908,126.9897184,중구
1634,하나은행,영업부,서울특별시 중구 을지로2가 을지로 66 (을지로2가),37.5658833,126.9859321,중구
1635,하나은행,오류동,서울특별시 구로구 오류동 경인로 218 (오류동),37.488207,126.8359336,구로구
1636,하나은행,옥수역,서울특별시 성동구 옥수동 한림말길 53 (옥수동),37.5415183,127.0168002,성동구
1637,하나은행,올림픽(출),서울특별시 송파구 방이동 올림픽로 424 (방이동),37.5156746,127.1253915,송파구
1638,하나은행,올림픽선수촌PB센터,서울특별시 송파구 방이동 양재대로 1222 (방이동),37.5158257,127.1322182,송파구
1639,하나은행,왕십리,서울특별시 성동구 홍익동 고산자로 293 (홍익동),37.565273,127.0326003,성동구
1640,하나은행,용산역,서울특별시 용산구 한강로3가 한강대로21나길 7 (한강로3가),37.529557,126.9641567,용산구
1641,하나은행,우이동,서울특별시 도봉구 쌍문동 삼양로 538-5 (쌍문동),37.6512684,127.0133882,도봉구
1642,하나은행,워커힐(출),서울특별시 광진구 광장동 아차산로 627 (광장동),37.5488454,127.1072177,광진구
1643,하나은행,월곡동,"서울특별시 성북구 하월곡동 오패산로 46 (하월곡동, 월곡두산위브APT)",37.6070791,127.0368078,성북구
1644,하나은행,은평뉴타운,서울특별시 은평구 진관동 진관3로 21,37.6426871,126.9212092,은평구
1645,하나은행,을지로6가,서울특별시 중구 을지로6가 을지로 255 (을지로6가),37.5677844,127.0068849,중구
1646,하나은행,을지로금융센터,서울특별시 중구 을지로4가 을지로 170 (을지로4가),37.565864,126.9996925,중구
1647,하나은행,응봉삼거리(출),"서울특별시 성동구 행당동 고산자로 164 (행당동, 행당동한신APT)",37.5567607,127.0343476,성동구
1648,하나은행,응암동,서울특별시 은평구 응암동 응암로 258 (응암동),37.5939865,126.9189921,은평구
1649,하나은행,이수역,서울특별시 동작구 사당동 동작대로 109 (사당동),37.4862464,126.981661,동작구
1650,하나은행,이촌동,서울특별시 용산구 이촌동 이촌로64길 14 (이촌동),37.5204827,126.9701083,용산구
1651,하나은행,이태원,서울특별시 용산구 이태원동 이태원로 145 (이태원동),37.5440304,126.9922324,용산구
1652,하나은행,일원동,서울특별시 강남구 개포동 개포로 615 (개포동),37.4926936,127.0756284,강남구
1653,하나은행,일원역,서울특별시 강남구 일원동 광평로19길 15 (일원동),37.4848508,127.085277,강남구
1654,하나은행,잠실레이크팰리스,"서울특별시 송파구 잠실동 석촌호수로 133 (잠실동, 레이크팰리스)",37.5076736,127.0917804,송파구
1655,하나은행,잠실새내역금융센터,서울특별시 송파구 잠실동 올림픽로 114 (잠실동),37.5114154,127.0831936,송파구
1656,하나은행,잠실역금융센터,서울특별시 송파구 신천동 올림픽로 299 (신천동),37.5154289,127.1035383,송파구
1657,하나은행,잠원역,서울특별시 서초구 잠원동 잠원로 94(잠원동),37.5124489,127.0078967,서초구
1658,하나은행,장안동,서울특별시 동대문구 답십리동 천호대로 343 (답십리동),37.57101950000001,127.0566992,동대문구
1659,하나은행,장한평,서울특별시 동대문구 장안동 장한로 40 (장안동),37.5646213,127.0670763,동대문구
1660,하나은행,정릉,"서울특별시 성북구 정릉2동 정릉로 250 (정릉동, 정릉빌딩)",37.61103,127.0141314,성북구
1661,하나은행,종로5가,서울특별시 종로구 종로5가 종로 241,37.5713974,127.0045319,종로구
1662,하나은행,종로금융센터,서울특별시 종로구 공평동 우정국로 26 (공평동),37.5713061,126.9831782,종로구
1663,하나은행,중계동,서울특별시 노원구 중계1동 노원로22길 77(중계동),37.6485878,127.0742954,노원구
1664,하나은행,창동역,서울특별시 도봉구 창동 노해로 341 (창동),37.6514477,127.0459346,도봉구
1665,하나은행,천호동,서울특별시 강동구 천호동 올림픽로 658 (천호동)??,37.5399904,127.1243569,강동구
1666,하나은행,청담동,서울특별시 강남구 청담1동 영동대로 702 (청담동),37.5205383,127.0576438,강남구
1667,하나은행,청담사거리,서울특별시 강남구 청담동 도산대로 507 (청담동),37.5247543,127.0485309,강남구
1668,하나은행,청량리역,서울특별시 동대문구 청량리동 홍릉로 28 (청량리동),37.5827291,127.044679,동대문구
1669,하나은행,충무로역,서울특별시 중구 주자동 퇴계로 166 (주자동),37.5606593,126.9894037,중구
1670,하나은행,코엑스,서울특별시 강남구 삼성동 영동대로 520 (삼성동),37.5137373,127.0610794,강남구
1671,하나은행,태릉,서울특별시 중랑구 묵동 동일로 937(묵동),37.6140076,127.0765134,중랑구
1672,하나은행,테헤란로,서울특별시 강남구 역삼동 테헤란로 310 (역삼동),37.5028251,127.0447848,강남구
1673,하나은행,트윈타워,서울특별시 영등포구 여의도동 국제금융로 72 (여의도동),37.5211039,126.9308752,영등포구
1674,하나은행,평창동PB센터,서울특별시 종로구 평창동 평창문화로 87 (평창동),37.6073032,126.9707668,종로구
1675,하나은행,풍납동,서울특별시 송파구 풍납동 올림픽로 507 (풍납동),37.5366366,127.1150841,송파구
1676,하나은행,하계역,서울특별시 노원구 하계동 한글비석로 56 (하계동),37.6346823,127.0695415,노원구
1677,하나은행,하나스퀘어(출),서울특별시 성북구 안암동5가 안암로 145(안암동5가),37.5887496,127.0323735,성북구
1678,하나은행,하나증권금융센터,서울특별시 영등포구 여의도동 의사당대로 82 (여의도동),37.5225758,126.9218048,영등포구
1679,하나은행,학동,서울특별시 강남구 청담동 선릉로 806 (청담동),37.5238647,127.0396187,강남구
1680,하나은행,학여울역,서울특별시 강남구 대치동 영동대로 216 (대치동),37.4991887,127.0633458,강남구
1681,하나은행,한남동금융센터,서울특별시 용산구 한남동 독서당로 85 (한남동),37.5346672,127.0098512,용산구
1682,하나은행,합정역,"서울특별시 마포구 서교동 양화로 45 (서교동, 메세나폴리스)",37.5509108,126.9137604,마포구
1683,하나은행,행당역,"서울특별시 성동구 행당동 행당로 87, (행당동, 행당동대림APT)",37.5579013,127.0271186,성동구
1684,하나은행,현대모터금융센터,서울특별시 서초구 양재2동 헌릉로 12 (양재동),37.4641623,127.0426732,서초구
1685,하나은행,혜화동,서울특별시 종로구 명륜동2가 창경궁로 254 (명륜2가),37.5836855,127.000001,종로구
1686,하나은행,홍대역,서울특별시 마포구 동교동 양화로 151 (동교동),37.55811,126.9229895,마포구
1687,하나은행,홍제역,서울특별시 서대문구 홍제3동 통일로 472 (홍제동),37.5928868,126.9489057,서대문구
1688,하나은행,화곡역,서울특별시 강서구 화곡3동 강서로 183 (화곡동),37.5426123,126.8390992,강서구
1689,하나은행,화양동,서울특별시 광진구 화양동 동일로 180 (화양동),37.5477084,127.0716418,광진구
1690,하나은행,휘경동,서울특별시 동대문구 회기동 회기로 175 (회기동),37.590427,127.0557345,동대문구
1691,하나은행,흑석뉴타운,서울특별시 동작구 흑석동 흑석한강로 2 (흑석동),37.506598,126.9664777,동작구
